<?xml version="1.0" encoding="UTF-8"?>
<kml xmlns="http://www.opengis.net/kml/2.2"><Document>
<name>Kebutuhan air per petak - SWH-JB-GRT (FL, tanam Jan)</name>
<Style id="g19570"><LineStyle><color>ffffffff</color><width>1.2</width></LineStyle><PolyStyle><color>c86b4402</color></PolyStyle></Style>
<Placemark><name>SWH-00</name><description><![CDATA[hamparan H1 | luas 1.7555 ha<br/><b>Kebutuhan air</b> 4,044 m3 (230 mm)<br/>andalan 80% 4,980 m3<br/>debit 0.514 l/detik | pengisian 66.2 l/detik (pintu 55 cm)<br/><b>Water loss</b> 24,647 m3 (1,404 mm)<br/>menguap 35 % | meresap 20 % | mengalir keluar 48 %<br/>total keluar 88 % dari air masuk]]></description><styleUrl>#g19570</styleUrl><Polygon><outerBoundaryIs><LinearRing><tessellate>1</tessellate><coordinates>107.9107600,-7.1870703,0 107.9107212,-7.1870651,0 107.9106690,-7.1870578,0 107.9106204,-7.1870521,0 107.9105724,-7.1870464,0 107.9105303,-7.1870463,0 107.9105038,-7.1870421,0 107.9104145,-7.1870305,0 107.9103817,-7.1870263,0 107.9103422,-7.1870140,0 107.9103009,-7.1870117,0 107.9102292,-7.1869956,0 107.9101862,-7.1869898,0 107.9100944,-7.1869700,0 107.9100276,-7.1869575,0 107.9099759,-7.1869547,0 107.9099411,-7.1869504,0 107.9099058,-7.1869726,0 107.9098723,-7.1869959,0 107.9098489,-7.1870156,0 107.9098240,-7.1870381,0 107.9098027,-7.1870571,0 107.9097732,-7.1870820,0 107.9097004,-7.1871356,0 107.9096878,-7.1871484,0 107.9096682,-7.1871700,0 107.9096567,-7.1871858,0 107.9096383,-7.1872181,0 107.9096334,-7.1872272,0 107.9096221,-7.1872726,0 107.9096106,-7.1873138,0 107.9096043,-7.1873760,0 107.9095974,-7.1874279,0 107.9095936,-7.1874770,0 107.9095883,-7.1875184,0 107.9095857,-7.1875555,0 107.9095866,-7.1875703,0 107.9095841,-7.1875997,0 107.9095822,-7.1876323,0 107.9095810,-7.1876732,0 107.9095855,-7.1877059,0 107.9095845,-7.1877585,0 107.9095885,-7.1877810,0 107.9095923,-7.1877956,0 107.9095939,-7.1878193,0 107.9095964,-7.1878626,0 107.9096011,-7.1878888,0 107.9096107,-7.1879336,0 107.9096120,-7.1879533,0 107.9096188,-7.1879565,0 107.9096293,-7.1879680,0 107.9096367,-7.1879825,0 107.9096482,-7.1880069,0 107.9096547,-7.1880300,0 107.9096677,-7.1880719,0 107.9096763,-7.1880985,0 107.9096815,-7.1881124,0 107.9097148,-7.1882256,0 107.9097180,-7.1882309,0 107.9097298,-7.1882434,0 107.9097536,-7.1882398,0 107.9097876,-7.1882358,0 107.9098213,-7.1882317,0 107.9098496,-7.1882256,0 107.9099043,-7.1882080,0 107.9099294,-7.1882004,0 107.9099837,-7.1881916,0 107.9099972,-7.1881858,0 107.9100237,-7.1881716,0 107.9100570,-7.1881618,0 107.9100876,-7.1881542,0 107.9101110,-7.1881470,0 107.9101669,-7.1881354,0 107.9101898,-7.1881321,0 107.9102076,-7.1881250,0 107.9102192,-7.1881223,0 107.9102349,-7.1881144,0 107.9102574,-7.1881027,0 107.9102740,-7.1880947,0 107.9102789,-7.1880948,0 107.9102969,-7.1880917,0 107.9103128,-7.1880906,0 107.9103240,-7.1880898,0 107.9103393,-7.1880876,0 107.9103656,-7.1880862,0 107.9103850,-7.1880837,0 107.9104203,-7.1880831,0 107.9104704,-7.1880857,0 107.9104831,-7.1880919,0 107.9105185,-7.1881036,0 107.9105564,-7.1881024,0 107.9105927,-7.1881095,0 107.9106277,-7.1881156,0 107.9106697,-7.1881243,0 107.9107044,-7.1881382,0 107.9107383,-7.1881480,0 107.9107635,-7.1881584,0 107.9107901,-7.1881681,0 107.9108043,-7.1881677,0 107.9108256,-7.1881775,0 107.9108444,-7.1881829,0 107.9108549,-7.1881918,0 107.9108672,-7.1882049,0 107.9108865,-7.1882156,0 107.9109082,-7.1882161,0 107.9109327,-7.1882148,0 107.9109520,-7.1882068,0 107.9109586,-7.1881925,0 107.9109600,-7.1881694,0 107.9109679,-7.1881130,0 107.9109842,-7.1880366,0 107.9110030,-7.1879694,0 107.9110156,-7.1879310,0 107.9110400,-7.1878742,0 107.9110400,-7.1878473,0 107.9110329,-7.1878009,0 107.9110018,-7.1877628,0 107.9110261,-7.1877288,0 107.9110228,-7.1876875,0 107.9110116,-7.1876282,0 107.9110051,-7.1875841,0 107.9109456,-7.1875824,0 107.9108352,-7.1875759,0 107.9107870,-7.1875723,0 107.9107602,-7.1875762,0 107.9107528,-7.1875580,0 107.9107583,-7.1875125,0 107.9107578,-7.1874579,0 107.9107595,-7.1873881,0 107.9107700,-7.1873195,0 107.9107692,-7.1872774,0 107.9107835,-7.1872091,0 107.9107952,-7.1871590,0 107.9108034,-7.1871273,0 107.9108164,-7.1870835,0 107.9107600,-7.1870703,0 107.9107600,-7.1870703,0</coordinates></LinearRing></outerBoundaryIs></Polygon></Placemark>
<Style id="g71613"><LineStyle><color>ffffffff</color><width>1.2</width></LineStyle><PolyStyle><color>c8e3ccc6</color></PolyStyle></Style>
<Placemark><name>SWH-02</name><description><![CDATA[hamparan H1 | luas 0.2976 ha<br/><b>Kebutuhan air</b> 686 m3 (230 mm)<br/>andalan 80% 844 m3<br/>debit 0.087 l/detik | pengisian 11.2 l/detik (pintu 23 cm)<br/><b>Water loss</b> 4,179 m3 (1,404 mm)<br/>menguap 35 % | meresap 20 % | mengalir keluar 48 %<br/>total keluar 88 % dari air masuk]]></description><styleUrl>#g71613</styleUrl><Polygon><outerBoundaryIs><LinearRing><tessellate>1</tessellate><coordinates>107.9092449,-7.1881464,0 107.9093785,-7.1880845,0 107.9094806,-7.1880367,0 107.9095915,-7.1879731,0 107.9096087,-7.1879527,0 107.9096076,-7.1879356,0 107.9096020,-7.1879081,0 107.9095928,-7.1878331,0 107.9095859,-7.1877877,0 107.9095797,-7.1877461,0 107.9095771,-7.1876957,0 107.9095797,-7.1876460,0 107.9095779,-7.1875736,0 107.9095831,-7.1875154,0 107.9095554,-7.1874986,0 107.9095265,-7.1874879,0 107.9094802,-7.1874714,0 107.9094266,-7.1874666,0 107.9093789,-7.1874807,0 107.9093439,-7.1874910,0 107.9092971,-7.1875158,0 107.9092652,-7.1875463,0 107.9092407,-7.1875758,0 107.9092205,-7.1876033,0 107.9091966,-7.1876489,0 107.9091830,-7.1876972,0 107.9091728,-7.1877470,0 107.9091654,-7.1877849,0 107.9091533,-7.1878375,0 107.9091474,-7.1878867,0 107.9091442,-7.1879624,0 107.9091408,-7.1880204,0 107.9091393,-7.1880866,0 107.9091417,-7.1881453,0 107.9091434,-7.1881795,0 107.9092449,-7.1881464,0 107.9092449,-7.1881464,0</coordinates></LinearRing></outerBoundaryIs></Polygon></Placemark>
<Style id="g85883"><LineStyle><color>ffffffff</color><width>1.2</width></LineStyle><PolyStyle><color>c8eddde0</color></PolyStyle></Style>
<Placemark><name>SWH-03</name><description><![CDATA[hamparan H1 | luas 0.0754 ha<br/><b>Kebutuhan air</b> 174 m3 (230 mm)<br/>andalan 80% 214 m3<br/>debit 0.022 l/detik | pengisian 2.8 l/detik (pintu 11 cm)<br/><b>Water loss</b> 1,059 m3 (1,404 mm)<br/>menguap 35 % | meresap 20 % | mengalir keluar 48 %<br/>total keluar 88 % dari air masuk]]></description><styleUrl>#g85883</styleUrl><Polygon><outerBoundaryIs><LinearRing><tessellate>1</tessellate><coordinates>107.9091374,-7.1881840,0 107.9091386,-7.1881091,0 107.9091392,-7.1880074,0 107.9091460,-7.1879300,0 107.9091462,-7.1878948,0 107.9091482,-7.1878567,0 107.9091470,-7.1878420,0 107.9091460,-7.1878304,0 107.9091102,-7.1878201,0 107.9090652,-7.1878162,0 107.9090347,-7.1878153,0 107.9090100,-7.1878196,0 107.9090037,-7.1878628,0 107.9089965,-7.1879246,0 107.9089901,-7.1879999,0 107.9089882,-7.1880459,0 107.9089854,-7.1880919,0 107.9089802,-7.1881536,0 107.9089770,-7.1881890,0 107.9089727,-7.1882148,0 107.9089675,-7.1882471,0 107.9089703,-7.1882592,0 107.9089841,-7.1882643,0 107.9090077,-7.1882506,0 107.9090368,-7.1882355,0 107.9091374,-7.1881840,0 107.9091374,-7.1881840,0</coordinates></LinearRing></outerBoundaryIs></Polygon></Placemark>
<Style id="g97780"><LineStyle><color>ffffffff</color><width>1.2</width></LineStyle><PolyStyle><color>c8eee0e3</color></PolyStyle></Style>
<Placemark><name>SWH-04</name><description><![CDATA[hamparan H1 | luas 0.0476 ha<br/><b>Kebutuhan air</b> 110 m3 (230 mm)<br/>andalan 80% 135 m3<br/>debit 0.014 l/detik | pengisian 1.8 l/detik (pintu 9 cm)<br/><b>Water loss</b> 669 m3 (1,404 mm)<br/>menguap 35 % | meresap 20 % | mengalir keluar 48 %<br/>total keluar 88 % dari air masuk]]></description><styleUrl>#g97780</styleUrl><Polygon><outerBoundaryIs><LinearRing><tessellate>1</tessellate><coordinates>107.9090038,-7.1878580,0 107.9090045,-7.1878371,0 107.9089979,-7.1878161,0 107.9089657,-7.1878129,0 107.9089466,-7.1878151,0 107.9089309,-7.1878182,0 107.9089224,-7.1878457,0 107.9089188,-7.1878693,0 107.9089122,-7.1878995,0 107.9089098,-7.1879245,0 107.9089055,-7.1879515,0 107.9089056,-7.1879810,0 107.9089040,-7.1880070,0 107.9089023,-7.1880311,0 107.9088995,-7.1880516,0 107.9088978,-7.1880702,0 107.9088955,-7.1880899,0 107.9088944,-7.1881169,0 107.9088925,-7.1881341,0 107.9088912,-7.1881462,0 107.9088880,-7.1881674,0 107.9088852,-7.1881882,0 107.9088808,-7.1882146,0 107.9088775,-7.1882291,0 107.9088731,-7.1882431,0 107.9088693,-7.1882526,0 107.9088640,-7.1882655,0 107.9088619,-7.1882732,0 107.9088706,-7.1882763,0 107.9088833,-7.1882769,0 107.9089002,-7.1882757,0 107.9089228,-7.1882757,0 107.9089399,-7.1882750,0 107.9089560,-7.1882681,0 107.9089697,-7.1882617,0 107.9089671,-7.1882463,0 107.9089681,-7.1882223,0 107.9089717,-7.1882040,0 107.9089731,-7.1881843,0 107.9089742,-7.1881597,0 107.9089751,-7.1881385,0 107.9089788,-7.1881187,0 107.9089796,-7.1881006,0 107.9089808,-7.1880857,0 107.9089817,-7.1880629,0 107.9089837,-7.1880447,0 107.9089845,-7.1880247,0 107.9089851,-7.1880104,0 107.9089862,-7.1879951,0 107.9089864,-7.1879854,0 107.9089903,-7.1879709,0 107.9089902,-7.1879594,0 107.9089909,-7.1879478,0 107.9089932,-7.1879338,0 107.9089940,-7.1879234,0 107.9089948,-7.1879096,0 107.9089966,-7.1878931,0 107.9089983,-7.1878785,0 107.9089994,-7.1878705,0 107.9090038,-7.1878580,0 107.9090038,-7.1878580,0</coordinates></LinearRing></outerBoundaryIs></Polygon></Placemark>
<Style id="g41036"><LineStyle><color>ffffffff</color><width>1.2</width></LineStyle><PolyStyle><color>c8ebdbdc</color></PolyStyle></Style>
<Placemark><name>SWH-06</name><description><![CDATA[hamparan H1 | luas 0.1113 ha<br/><b>Kebutuhan air</b> 257 m3 (230 mm)<br/>andalan 80% 316 m3<br/>debit 0.033 l/detik | pengisian 4.2 l/detik (pintu 14 cm)<br/><b>Water loss</b> 1,563 m3 (1,404 mm)<br/>menguap 35 % | meresap 20 % | mengalir keluar 48 %<br/>total keluar 88 % dari air masuk]]></description><styleUrl>#g41036</styleUrl><Polygon><outerBoundaryIs><LinearRing><tessellate>1</tessellate><coordinates>107.9087251,-7.1882965,0 107.9087255,-7.1882899,0 107.9087328,-7.1882826,0 107.9087402,-7.1882785,0 107.9087533,-7.1882735,0 107.9087587,-7.1882715,0 107.9087669,-7.1882694,0 107.9087843,-7.1882689,0 107.9087989,-7.1882691,0 107.9088165,-7.1882698,0 107.9088308,-7.1882712,0 107.9088394,-7.1882728,0 107.9088581,-7.1882717,0 107.9088639,-7.1882677,0 107.9088662,-7.1882599,0 107.9088700,-7.1882497,0 107.9088729,-7.1882393,0 107.9088776,-7.1882231,0 107.9088822,-7.1882100,0 107.9088849,-7.1881967,0 107.9088883,-7.1881758,0 107.9088890,-7.1881596,0 107.9088915,-7.1881454,0 107.9088941,-7.1881303,0 107.9088964,-7.1881078,0 107.9089021,-7.1880685,0 107.9089049,-7.1880334,0 107.9089055,-7.1880205,0 107.9089068,-7.1880021,0 107.9089084,-7.1879845,0 107.9089103,-7.1879577,0 107.9089131,-7.1879322,0 107.9089174,-7.1878788,0 107.9089184,-7.1878625,0 107.9089218,-7.1878475,0 107.9089252,-7.1878359,0 107.9089270,-7.1878229,0 107.9089190,-7.1878167,0 107.9088965,-7.1878098,0 107.9088745,-7.1878079,0 107.9088414,-7.1878098,0 107.9088131,-7.1878106,0 107.9087659,-7.1878196,0 107.9087450,-7.1878261,0 107.9087216,-7.1878220,0 107.9087191,-7.1878278,0 107.9087187,-7.1878422,0 107.9087189,-7.1878495,0 107.9087176,-7.1878633,0 107.9087152,-7.1878802,0 107.9087130,-7.1878984,0 107.9087109,-7.1879157,0 107.9087082,-7.1879271,0 107.9087078,-7.1879426,0 107.9087069,-7.1879617,0 107.9087063,-7.1879780,0 107.9087062,-7.1879967,0 107.9087049,-7.1880110,0 107.9087047,-7.1880287,0 107.9087040,-7.1880436,0 107.9087044,-7.1880609,0 107.9087035,-7.1880819,0 107.9087009,-7.1881041,0 107.9086993,-7.1881241,0 107.9086942,-7.1881628,0 107.9086920,-7.1881841,0 107.9086899,-7.1882080,0 107.9086896,-7.1882285,0 107.9086914,-7.1882626,0 107.9086959,-7.1882807,0 107.9086990,-7.1882905,0 107.9087056,-7.1883003,0 107.9087182,-7.1883051,0 107.9087251,-7.1882965,0 107.9087251,-7.1882965,0</coordinates></LinearRing></outerBoundaryIs></Polygon></Placemark>
<Style id="g35778"><LineStyle><color>ffffffff</color><width>1.2</width></LineStyle><PolyStyle><color>c8e8d6d6</color></PolyStyle></Style>
<Placemark><name>SWH-07</name><description><![CDATA[hamparan H1 | luas 0.1654 ha<br/><b>Kebutuhan air</b> 381 m3 (230 mm)<br/>andalan 80% 469 m3<br/>debit 0.048 l/detik | pengisian 6.2 l/detik (pintu 17 cm)<br/><b>Water loss</b> 2,322 m3 (1,404 mm)<br/>menguap 35 % | meresap 20 % | mengalir keluar 48 %<br/>total keluar 88 % dari air masuk]]></description><styleUrl>#g35778</styleUrl><Polygon><outerBoundaryIs><LinearRing><tessellate>1</tessellate><coordinates>107.9087141,-7.1883004,0 107.9087084,-7.1882948,0 107.9087050,-7.1882776,0 107.9087006,-7.1882669,0 107.9086989,-7.1882562,0 107.9086986,-7.1882409,0 107.9086965,-7.1882234,0 107.9086963,-7.1882099,0 107.9086974,-7.1881860,0 107.9087013,-7.1881577,0 107.9087036,-7.1881437,0 107.9087050,-7.1881290,0 107.9087086,-7.1881181,0 107.9087089,-7.1880980,0 107.9087099,-7.1880805,0 107.9087112,-7.1880579,0 107.9087116,-7.1880425,0 107.9087109,-7.1880274,0 107.9087099,-7.1880071,0 107.9087086,-7.1879881,0 107.9087115,-7.1879752,0 107.9087127,-7.1879576,0 107.9087136,-7.1879435,0 107.9087141,-7.1879209,0 107.9087171,-7.1879034,0 107.9087189,-7.1878829,0 107.9087194,-7.1878616,0 107.9087195,-7.1878501,0 107.9087225,-7.1878292,0 107.9087237,-7.1878057,0 107.9087134,-7.1878026,0 107.9087003,-7.1878005,0 107.9086784,-7.1878041,0 107.9086578,-7.1878081,0 107.9086381,-7.1878055,0 107.9086249,-7.1878041,0 107.9086076,-7.1878036,0 107.9085918,-7.1878001,0 107.9085777,-7.1877999,0 107.9085676,-7.1877991,0 107.9085507,-7.1878005,0 107.9085264,-7.1878025,0 107.9085252,-7.1878156,0 107.9085239,-7.1878321,0 107.9085207,-7.1878532,0 107.9085205,-7.1878617,0 107.9085196,-7.1878831,0 107.9085188,-7.1879020,0 107.9085199,-7.1879199,0 107.9085205,-7.1879456,0 107.9085191,-7.1879710,0 107.9085174,-7.1879947,0 107.9085184,-7.1880219,0 107.9085172,-7.1880437,0 107.9085169,-7.1880611,0 107.9085166,-7.1880822,0 107.9085169,-7.1880985,0 107.9085174,-7.1881175,0 107.9085171,-7.1881408,0 107.9085145,-7.1881736,0 107.9085126,-7.1882055,0 107.9085105,-7.1882371,0 107.9085085,-7.1882763,0 107.9085073,-7.1883100,0 107.9085087,-7.1883290,0 107.9085075,-7.1883444,0 107.9085080,-7.1883718,0 107.9085068,-7.1883925,0 107.9085090,-7.1884209,0 107.9085094,-7.1884406,0 107.9085134,-7.1884515,0 107.9085125,-7.1884764,0 107.9085137,-7.1884845,0 107.9085253,-7.1884831,0 107.9085714,-7.1884829,0 107.9085909,-7.1884806,0 107.9086257,-7.1884813,0 107.9086528,-7.1884802,0 107.9086875,-7.1884751,0 107.9087029,-7.1884718,0 107.9087169,-7.1884659,0 107.9087263,-7.1884600,0 107.9087315,-7.1884516,0 107.9087343,-7.1884391,0 107.9087352,-7.1884281,0 107.9087351,-7.1884078,0 107.9087338,-7.1883832,0 107.9087335,-7.1883632,0 107.9087304,-7.1883453,0 107.9087289,-7.1883295,0 107.9087253,-7.1883129,0 107.9087141,-7.1883004,0 107.9087141,-7.1883004,0</coordinates></LinearRing></outerBoundaryIs></Polygon></Placemark>
<Style id="g79794"><LineStyle><color>ffffffff</color><width>1.2</width></LineStyle><PolyStyle><color>c8ebdbdd</color></PolyStyle></Style>
<Placemark><name>SWH-08</name><description><![CDATA[hamparan H1 | luas 0.1012 ha<br/><b>Kebutuhan air</b> 233 m3 (230 mm)<br/>andalan 80% 287 m3<br/>debit 0.030 l/detik | pengisian 3.8 l/detik (pintu 13 cm)<br/><b>Water loss</b> 1,421 m3 (1,404 mm)<br/>menguap 35 % | meresap 20 % | mengalir keluar 48 %<br/>total keluar 88 % dari air masuk]]></description><styleUrl>#g79794</styleUrl><Polygon><outerBoundaryIs><LinearRing><tessellate>1</tessellate><coordinates>107.9084193,-7.1884843,0 107.9084544,-7.1884844,0 107.9084945,-7.1884842,0 107.9085107,-7.1884857,0 107.9085136,-7.1884796,0 107.9085127,-7.1884633,0 107.9085135,-7.1884495,0 107.9085121,-7.1884346,0 107.9085095,-7.1884165,0 107.9085082,-7.1883979,0 107.9085086,-7.1883824,0 107.9085064,-7.1883366,0 107.9085058,-7.1883072,0 107.9085079,-7.1882804,0 107.9085104,-7.1882541,0 107.9085144,-7.1882136,0 107.9085171,-7.1881612,0 107.9085186,-7.1881427,0 107.9085186,-7.1881226,0 107.9085180,-7.1881028,0 107.9085180,-7.1880744,0 107.9085182,-7.1880368,0 107.9085184,-7.1880154,0 107.9085207,-7.1879733,0 107.9085214,-7.1879502,0 107.9085210,-7.1879171,0 107.9085214,-7.1878827,0 107.9085220,-7.1878593,0 107.9085247,-7.1878228,0 107.9085315,-7.1878009,0 107.9085160,-7.1877992,0 107.9084887,-7.1877982,0 107.9084707,-7.1877985,0 107.9084449,-7.1878039,0 107.9084229,-7.1878038,0 107.9084159,-7.1878115,0 107.9084136,-7.1878260,0 107.9084142,-7.1878360,0 107.9084114,-7.1878597,0 107.9084083,-7.1878711,0 107.9084076,-7.1878927,0 107.9084058,-7.1879234,0 107.9084052,-7.1879486,0 107.9084028,-7.1879775,0 107.9084010,-7.1880103,0 107.9083996,-7.1880270,0 107.9083976,-7.1880557,0 107.9083956,-7.1880862,0 107.9083945,-7.1881250,0 107.9083945,-7.1881603,0 107.9083899,-7.1881989,0 107.9083883,-7.1882587,0 107.9083868,-7.1882794,0 107.9083846,-7.1883173,0 107.9083810,-7.1883465,0 107.9083803,-7.1884069,0 107.9083797,-7.1884423,0 107.9083812,-7.1884798,0 107.9084193,-7.1884843,0 107.9084193,-7.1884843,0</coordinates></LinearRing></outerBoundaryIs></Polygon></Placemark>
<Style id="g36333"><LineStyle><color>ffffffff</color><width>1.2</width></LineStyle><PolyStyle><color>c8ecdddf</color></PolyStyle></Style>
<Placemark><name>SWH-09</name><description><![CDATA[hamparan H1 | luas 0.0831 ha<br/><b>Kebutuhan air</b> 192 m3 (230 mm)<br/>andalan 80% 236 m3<br/>debit 0.024 l/detik | pengisian 3.1 l/detik (pintu 12 cm)<br/><b>Water loss</b> 1,167 m3 (1,404 mm)<br/>menguap 35 % | meresap 20 % | mengalir keluar 48 %<br/>total keluar 88 % dari air masuk]]></description><styleUrl>#g36333</styleUrl><Polygon><outerBoundaryIs><LinearRing><tessellate>1</tessellate><coordinates>107.9083931,-7.1882013,0 107.9083945,-7.1881665,0 107.9083954,-7.1881474,0 107.9083968,-7.1881092,0 107.9084020,-7.1880580,0 107.9084028,-7.1880162,0 107.9084058,-7.1879773,0 107.9084081,-7.1879334,0 107.9084098,-7.1879062,0 107.9084117,-7.1878924,0 107.9084131,-7.1878594,0 107.9084207,-7.1877936,0 107.9084049,-7.1877961,0 107.9083710,-7.1877948,0 107.9083473,-7.1877995,0 107.9083139,-7.1877967,0 107.9082795,-7.1878015,0 107.9082728,-7.1878174,0 107.9082698,-7.1878326,0 107.9082659,-7.1878638,0 107.9082689,-7.1878854,0 107.9082707,-7.1879093,0 107.9082620,-7.1879505,0 107.9082598,-7.1879826,0 107.9082613,-7.1880273,0 107.9082611,-7.1880630,0 107.9082589,-7.1880815,0 107.9082563,-7.1881196,0 107.9082548,-7.1881516,0 107.9082540,-7.1881765,0 107.9082516,-7.1882125,0 107.9082506,-7.1882290,0 107.9082492,-7.1882577,0 107.9082541,-7.1882740,0 107.9082696,-7.1882776,0 107.9083037,-7.1882757,0 107.9083261,-7.1882759,0 107.9083671,-7.1882765,0 107.9083901,-7.1882761,0 107.9083931,-7.1882013,0 107.9083931,-7.1882013,0</coordinates></LinearRing></outerBoundaryIs></Polygon></Placemark>
<Style id="g80511"><LineStyle><color>ffffffff</color><width>1.2</width></LineStyle><PolyStyle><color>c8ecdddf</color></PolyStyle></Style>
<Placemark><name>SWH-10</name><description><![CDATA[hamparan H1 | luas 0.0837 ha<br/><b>Kebutuhan air</b> 193 m3 (230 mm)<br/>andalan 80% 237 m3<br/>debit 0.025 l/detik | pengisian 3.2 l/detik (pintu 12 cm)<br/><b>Water loss</b> 1,174 m3 (1,404 mm)<br/>menguap 35 % | meresap 20 % | mengalir keluar 48 %<br/>total keluar 88 % dari air masuk]]></description><styleUrl>#g80511</styleUrl><Polygon><outerBoundaryIs><LinearRing><tessellate>1</tessellate><coordinates>107.9090116,-7.1882631,0 107.9089803,-7.1882765,0 107.9089558,-7.1882812,0 107.9089286,-7.1882838,0 107.9088910,-7.1882856,0 107.9088639,-7.1882810,0 107.9088389,-7.1882787,0 107.9088093,-7.1882758,0 107.9087732,-7.1882786,0 107.9087555,-7.1882813,0 107.9087634,-7.1883182,0 107.9087768,-7.1883644,0 107.9087884,-7.1883914,0 107.9088068,-7.1884421,0 107.9088223,-7.1884829,0 107.9088453,-7.1885193,0 107.9088616,-7.1885494,0 107.9088758,-7.1885675,0 107.9088930,-7.1885810,0 107.9089122,-7.1885798,0 107.9089325,-7.1885781,0 107.9089543,-7.1885743,0 107.9089838,-7.1885747,0 107.9090113,-7.1885729,0 107.9090405,-7.1885683,0 107.9090438,-7.1885529,0 107.9090466,-7.1885157,0 107.9090424,-7.1884634,0 107.9090386,-7.1884094,0 107.9090320,-7.1883453,0 107.9090116,-7.1882631,0 107.9090116,-7.1882631,0</coordinates></LinearRing></outerBoundaryIs></Polygon></Placemark>
<Style id="g19044"><LineStyle><color>ffffffff</color><width>1.2</width></LineStyle><PolyStyle><color>c8eddde0</color></PolyStyle></Style>
<Placemark><name>SWH-11</name><description><![CDATA[hamparan H1 | luas 0.0722 ha<br/><b>Kebutuhan air</b> 166 m3 (230 mm)<br/>andalan 80% 205 m3<br/>debit 0.021 l/detik | pengisian 2.7 l/detik (pintu 11 cm)<br/><b>Water loss</b> 1,014 m3 (1,404 mm)<br/>menguap 35 % | meresap 20 % | mengalir keluar 48 %<br/>total keluar 88 % dari air masuk]]></description><styleUrl>#g19044</styleUrl><Polygon><outerBoundaryIs><LinearRing><tessellate>1</tessellate><coordinates>107.9087430,-7.1882936,0 107.9087391,-7.1883062,0 107.9087358,-7.1883149,0 107.9087368,-7.1883298,0 107.9087388,-7.1883478,0 107.9087393,-7.1883679,0 107.9087404,-7.1883851,0 107.9087411,-7.1884067,0 107.9087420,-7.1884195,0 107.9087409,-7.1884382,0 107.9087365,-7.1884500,0 107.9087300,-7.1884594,0 107.9087249,-7.1884675,0 107.9087184,-7.1884711,0 107.9087122,-7.1884746,0 107.9086953,-7.1884787,0 107.9086798,-7.1884811,0 107.9086549,-7.1884837,0 107.9086310,-7.1884857,0 107.9086139,-7.1884881,0 107.9085974,-7.1884896,0 107.9085969,-7.1885034,0 107.9085933,-7.1885112,0 107.9085969,-7.1885227,0 107.9086017,-7.1885315,0 107.9086036,-7.1885444,0 107.9086042,-7.1885588,0 107.9086035,-7.1885705,0 107.9086036,-7.1885878,0 107.9086015,-7.1886070,0 107.9086018,-7.1886241,0 107.9086038,-7.1886346,0 107.9086066,-7.1886453,0 107.9086084,-7.1886610,0 107.9086103,-7.1886792,0 107.9086122,-7.1886918,0 107.9086136,-7.1887135,0 107.9086155,-7.1887246,0 107.9086168,-7.1887403,0 107.9086240,-7.1887423,0 107.9086356,-7.1887403,0 107.9086524,-7.1887380,0 107.9086639,-7.1887355,0 107.9086797,-7.1887334,0 107.9086943,-7.1887292,0 107.9087101,-7.1887276,0 107.9087235,-7.1887209,0 107.9087386,-7.1887170,0 107.9087454,-7.1887102,0 107.9087568,-7.1887030,0 107.9087657,-7.1886945,0 107.9087717,-7.1886855,0 107.9087790,-7.1886770,0 107.9087851,-7.1886674,0 107.9087957,-7.1886460,0 107.9087977,-7.1886381,0 107.9088051,-7.1886235,0 107.9088104,-7.1886070,0 107.9088150,-7.1885893,0 107.9088184,-7.1885784,0 107.9088253,-7.1885638,0 107.9088303,-7.1885527,0 107.9088441,-7.1885489,0 107.9088549,-7.1885414,0 107.9088446,-7.1885165,0 107.9088231,-7.1884814,0 107.9088036,-7.1884422,0 107.9087932,-7.1884126,0 107.9087864,-7.1883943,0 107.9087782,-7.1883732,0 107.9087659,-7.1883305,0 107.9087588,-7.1883069,0 107.9087525,-7.1882848,0 107.9087430,-7.1882936,0 107.9087430,-7.1882936,0</coordinates></LinearRing></outerBoundaryIs></Polygon></Placemark>
<Style id="g49930"><LineStyle><color>ffffffff</color><width>1.2</width></LineStyle><PolyStyle><color>c8eddde0</color></PolyStyle></Style>
<Placemark><name>SWH-12</name><description><![CDATA[hamparan H1 | luas 0.0689 ha<br/><b>Kebutuhan air</b> 159 m3 (230 mm)<br/>andalan 80% 196 m3<br/>debit 0.020 l/detik | pengisian 2.6 l/detik (pintu 11 cm)<br/><b>Water loss</b> 968 m3 (1,404 mm)<br/>menguap 35 % | meresap 20 % | mengalir keluar 48 %<br/>total keluar 88 % dari air masuk]]></description><styleUrl>#g49930</styleUrl><Polygon><outerBoundaryIs><LinearRing><tessellate>1</tessellate><coordinates>107.9084580,-7.1887685,0 107.9084945,-7.1887658,0 107.9085200,-7.1887583,0 107.9085777,-7.1887531,0 107.9086111,-7.1887407,0 107.9086101,-7.1887364,0 107.9086091,-7.1887232,0 107.9086080,-7.1887070,0 107.9086075,-7.1886939,0 107.9086030,-7.1886707,0 107.9086005,-7.1886563,0 107.9086018,-7.1886482,0 107.9085993,-7.1886387,0 107.9085939,-7.1886128,0 107.9085950,-7.1886008,0 107.9085987,-7.1885872,0 107.9086009,-7.1885746,0 107.9085982,-7.1885432,0 107.9085917,-7.1885268,0 107.9085870,-7.1885092,0 107.9085862,-7.1884953,0 107.9085732,-7.1884913,0 107.9085474,-7.1884923,0 107.9085305,-7.1884929,0 107.9085027,-7.1884906,0 107.9084528,-7.1884940,0 107.9084331,-7.1884942,0 107.9084174,-7.1884911,0 107.9084017,-7.1884928,0 107.9083960,-7.1885024,0 107.9083942,-7.1885382,0 107.9083919,-7.1885760,0 107.9083930,-7.1886061,0 107.9083897,-7.1886483,0 107.9083878,-7.1887006,0 107.9083876,-7.1887360,0 107.9083870,-7.1887751,0 107.9084580,-7.1887685,0 107.9084580,-7.1887685,0</coordinates></LinearRing></outerBoundaryIs></Polygon></Placemark>
<Style id="g40340"><LineStyle><color>ffffffff</color><width>1.2</width></LineStyle><PolyStyle><color>c8e8d5d5</color></PolyStyle></Style>
<Placemark><name>SWH-13</name><description><![CDATA[hamparan H1 | luas 0.1735 ha<br/><b>Kebutuhan air</b> 400 m3 (230 mm)<br/>andalan 80% 492 m3<br/>debit 0.051 l/detik | pengisian 6.5 l/detik (pintu 17 cm)<br/><b>Water loss</b> 2,435 m3 (1,404 mm)<br/>menguap 35 % | meresap 20 % | mengalir keluar 48 %<br/>total keluar 88 % dari air masuk]]></description><styleUrl>#g40340</styleUrl><Polygon><outerBoundaryIs><LinearRing><tessellate>1</tessellate><coordinates>107.9083387,-7.1883422,0 107.9082965,-7.1883412,0 107.9082561,-7.1883383,0 107.9082133,-7.1883395,0 107.9081686,-7.1883398,0 107.9081415,-7.1883369,0 107.9081103,-7.1883416,0 107.9080921,-7.1883416,0 107.9080813,-7.1883410,0 107.9080788,-7.1883466,0 107.9080728,-7.1883935,0 107.9080690,-7.1884311,0 107.9080646,-7.1884836,0 107.9080582,-7.1885362,0 107.9080541,-7.1885802,0 107.9080508,-7.1886402,0 107.9080457,-7.1887049,0 107.9080413,-7.1887753,0 107.9080999,-7.1887762,0 107.9080792,-7.1887790,0 107.9081478,-7.1887777,0 107.9081910,-7.1887780,0 107.9082313,-7.1887819,0 107.9083736,-7.1887811,0 107.9083754,-7.1887661,0 107.9083781,-7.1887099,0 107.9083805,-7.1886695,0 107.9083837,-7.1886144,0 107.9083837,-7.1885984,0 107.9083856,-7.1885495,0 107.9083896,-7.1884893,0 107.9083815,-7.1884782,0 107.9083788,-7.1884612,0 107.9083774,-7.1884409,0 107.9083789,-7.1884239,0 107.9083781,-7.1884067,0 107.9083791,-7.1883903,0 107.9083810,-7.1883633,0 107.9083797,-7.1883415,0 107.9083387,-7.1883422,0 107.9083387,-7.1883422,0</coordinates></LinearRing></outerBoundaryIs></Polygon></Placemark>
<Style id="g13092"><LineStyle><color>ffffffff</color><width>1.2</width></LineStyle><PolyStyle><color>c8e8d5d5</color></PolyStyle></Style>
<Placemark><name>SWH-15</name><description><![CDATA[hamparan H1 | luas 0.1743 ha<br/><b>Kebutuhan air</b> 402 m3 (230 mm)<br/>andalan 80% 495 m3<br/>debit 0.051 l/detik | pengisian 6.6 l/detik (pintu 17 cm)<br/><b>Water loss</b> 2,447 m3 (1,404 mm)<br/>menguap 35 % | meresap 20 % | mengalir keluar 48 %<br/>total keluar 88 % dari air masuk]]></description><styleUrl>#g13092</styleUrl><Polygon><outerBoundaryIs><LinearRing><tessellate>1</tessellate><coordinates>107.9081334,-7.1877905,0 107.9081079,-7.1878017,0 107.9080750,-7.1878033,0 107.9080293,-7.1878136,0 107.9080045,-7.1878241,0 107.9079992,-7.1878516,0 107.9079957,-7.1879492,0 107.9079911,-7.1880223,0 107.9079878,-7.1880639,0 107.9079805,-7.1881371,0 107.9079746,-7.1882744,0 107.9079743,-7.1883148,0 107.9080468,-7.1883243,0 107.9080893,-7.1883283,0 107.9081010,-7.1883362,0 107.9081817,-7.1883377,0 107.9082465,-7.1883441,0 107.9082463,-7.1883333,0 107.9082469,-7.1882789,0 107.9082503,-7.1881975,0 107.9082526,-7.1881197,0 107.9082534,-7.1880569,0 107.9082547,-7.1879787,0 107.9082564,-7.1879395,0 107.9082610,-7.1878917,0 107.9082642,-7.1877935,0 107.9082471,-7.1877815,0 107.9082072,-7.1877804,0 107.9081653,-7.1877903,0 107.9081334,-7.1877905,0 107.9081334,-7.1877905,0</coordinates></LinearRing></outerBoundaryIs></Polygon></Placemark>
<Style id="g89063"><LineStyle><color>ffffffff</color><width>1.2</width></LineStyle><PolyStyle><color>c8ead9da</color></PolyStyle></Style>
<Placemark><name>SWH-19</name><description><![CDATA[hamparan H2 | luas 0.1354 ha<br/><b>Kebutuhan air</b> 312 m3 (230 mm)<br/>andalan 80% 384 m3<br/>debit 0.040 l/detik | pengisian 5.1 l/detik (pintu 15 cm)<br/><b>Water loss</b> 1,901 m3 (1,404 mm)<br/>menguap 35 % | meresap 20 % | mengalir keluar 48 %<br/>total keluar 88 % dari air masuk]]></description><styleUrl>#g89063</styleUrl><Polygon><outerBoundaryIs><LinearRing><tessellate>1</tessellate><coordinates>107.9118456,-7.1858870,0 107.9118518,-7.1859258,0 107.9118628,-7.1859754,0 107.9118721,-7.1860091,0 107.9118781,-7.1860343,0 107.9118847,-7.1860610,0 107.9118930,-7.1860890,0 107.9119052,-7.1861058,0 107.9119178,-7.1861126,0 107.9119246,-7.1861357,0 107.9119295,-7.1861644,0 107.9119637,-7.1861597,0 107.9119945,-7.1861568,0 107.9120292,-7.1861524,0 107.9120446,-7.1861487,0 107.9121145,-7.1861375,0 107.9121831,-7.1861237,0 107.9122257,-7.1861158,0 107.9122786,-7.1861135,0 107.9122851,-7.1860984,0 107.9122717,-7.1860434,0 107.9122547,-7.1859814,0 107.9122301,-7.1858582,0 107.9122197,-7.1858179,0 107.9121579,-7.1858264,0 107.9121289,-7.1858314,0 107.9121142,-7.1858315,0 107.9120714,-7.1858458,0 107.9120186,-7.1858567,0 107.9118915,-7.1858783,0 107.9118456,-7.1858870,0 107.9118456,-7.1858870,0</coordinates></LinearRing></outerBoundaryIs></Polygon></Placemark>
<Style id="g83253"><LineStyle><color>ffffffff</color><width>1.2</width></LineStyle><PolyStyle><color>c8e8d5d5</color></PolyStyle></Style>
<Placemark><name>SWH-20</name><description><![CDATA[hamparan H2 | luas 0.1741 ha<br/><b>Kebutuhan air</b> 401 m3 (230 mm)<br/>andalan 80% 494 m3<br/>debit 0.051 l/detik | pengisian 6.6 l/detik (pintu 17 cm)<br/><b>Water loss</b> 2,445 m3 (1,404 mm)<br/>menguap 35 % | meresap 20 % | mengalir keluar 48 %<br/>total keluar 88 % dari air masuk]]></description><styleUrl>#g83253</styleUrl><Polygon><outerBoundaryIs><LinearRing><tessellate>1</tessellate><coordinates>107.9122239,-7.1858187,0 107.9122346,-7.1858801,0 107.9122555,-7.1859629,0 107.9122770,-7.1860596,0 107.9122879,-7.1861098,0 107.9123199,-7.1861055,0 107.9123559,-7.1860965,0 107.9124626,-7.1860782,0 107.9125124,-7.1860454,0 107.9125787,-7.1860059,0 107.9126122,-7.1859919,0 107.9126894,-7.1859994,0 107.9127186,-7.1859878,0 107.9127389,-7.1858800,0 107.9127485,-7.1857984,0 107.9127612,-7.1857119,0 107.9127124,-7.1857095,0 107.9126334,-7.1857288,0 107.9125314,-7.1857499,0 107.9124054,-7.1857769,0 107.9122933,-7.1857959,0 107.9122239,-7.1858187,0 107.9122239,-7.1858187,0</coordinates></LinearRing></outerBoundaryIs></Polygon></Placemark>
<Style id="g91766"><LineStyle><color>ffffffff</color><width>1.2</width></LineStyle><PolyStyle><color>c8ead8d9</color></PolyStyle></Style>
<Placemark><name>SWH-21</name><description><![CDATA[hamparan H2 | luas 0.1390 ha<br/><b>Kebutuhan air</b> 320 m3 (230 mm)<br/>andalan 80% 394 m3<br/>debit 0.041 l/detik | pengisian 5.2 l/detik (pintu 16 cm)<br/><b>Water loss</b> 1,951 m3 (1,404 mm)<br/>menguap 35 % | meresap 20 % | mengalir keluar 48 %<br/>total keluar 88 % dari air masuk]]></description><styleUrl>#g91766</styleUrl><Polygon><outerBoundaryIs><LinearRing><tessellate>1</tessellate><coordinates>107.9123666,-7.1857732,0 107.9124413,-7.1857656,0 107.9125094,-7.1857481,0 107.9125720,-7.1857386,0 107.9126291,-7.1857278,0 107.9126994,-7.1857157,0 107.9127295,-7.1857100,0 107.9127475,-7.1857083,0 107.9127724,-7.1857020,0 107.9127763,-7.1856939,0 107.9127792,-7.1856691,0 107.9127823,-7.1856420,0 107.9127814,-7.1856225,0 107.9127847,-7.1855924,0 107.9127879,-7.1855661,0 107.9127869,-7.1855380,0 107.9127856,-7.1855199,0 107.9127725,-7.1855200,0 107.9127433,-7.1855201,0 107.9127141,-7.1855208,0 107.9126435,-7.1855230,0 107.9125799,-7.1855300,0 107.9125094,-7.1855345,0 107.9124284,-7.1855402,0 107.9123656,-7.1855469,0 107.9122884,-7.1855497,0 107.9122442,-7.1855469,0 107.9122514,-7.1856438,0 107.9122592,-7.1857506,0 107.9122642,-7.1858036,0 107.9123666,-7.1857732,0 107.9123666,-7.1857732,0</coordinates></LinearRing></outerBoundaryIs></Polygon></Placemark>
<Style id="g33068"><LineStyle><color>ffffffff</color><width>1.2</width></LineStyle><PolyStyle><color>c8eddee1</color></PolyStyle></Style>
<Placemark><name>SWH-22</name><description><![CDATA[hamparan H2 | luas 0.0669 ha<br/><b>Kebutuhan air</b> 154 m3 (230 mm)<br/>andalan 80% 190 m3<br/>debit 0.020 l/detik | pengisian 2.5 l/detik (pintu 11 cm)<br/><b>Water loss</b> 940 m3 (1,404 mm)<br/>menguap 35 % | meresap 20 % | mengalir keluar 48 %<br/>total keluar 88 % dari air masuk]]></description><styleUrl>#g33068</styleUrl><Polygon><outerBoundaryIs><LinearRing><tessellate>1</tessellate><coordinates>107.9122674,-7.1855319,0 107.9123065,-7.1855292,0 107.9123404,-7.1855304,0 107.9123979,-7.1855267,0 107.9124245,-7.1855250,0 107.9124482,-7.1855234,0 107.9124649,-7.1855230,0 107.9124755,-7.1855221,0 107.9124777,-7.1855151,0 107.9124767,-7.1855082,0 107.9124791,-7.1854827,0 107.9124793,-7.1854497,0 107.9124804,-7.1854056,0 107.9124816,-7.1853710,0 107.9124843,-7.1853361,0 107.9124829,-7.1853135,0 107.9124823,-7.1853041,0 107.9124721,-7.1853025,0 107.9124320,-7.1853073,0 107.9123755,-7.1853119,0 107.9123148,-7.1853087,0 107.9122619,-7.1853090,0 107.9122400,-7.1853177,0 107.9122306,-7.1853470,0 107.9122319,-7.1853732,0 107.9122409,-7.1854269,0 107.9122305,-7.1854449,0 107.9122255,-7.1854838,0 107.9122246,-7.1855458,0 107.9122674,-7.1855319,0 107.9122674,-7.1855319,0</coordinates></LinearRing></outerBoundaryIs></Polygon></Placemark>
<Style id="g16024"><LineStyle><color>ffffffff</color><width>1.2</width></LineStyle><PolyStyle><color>c8eddee1</color></PolyStyle></Style>
<Placemark><name>SWH-23</name><description><![CDATA[hamparan H2 | luas 0.0632 ha<br/><b>Kebutuhan air</b> 146 m3 (230 mm)<br/>andalan 80% 179 m3<br/>debit 0.019 l/detik | pengisian 2.4 l/detik (pintu 11 cm)<br/><b>Water loss</b> 887 m3 (1,404 mm)<br/>menguap 35 % | meresap 20 % | mengalir keluar 48 %<br/>total keluar 88 % dari air masuk]]></description><styleUrl>#g16024</styleUrl><Polygon><outerBoundaryIs><LinearRing><tessellate>1</tessellate><coordinates>107.9126791,-7.1853074,0 107.9126572,-7.1853091,0 107.9126329,-7.1853095,0 107.9126103,-7.1853097,0 107.9125887,-7.1853086,0 107.9125632,-7.1853086,0 107.9125465,-7.1853056,0 107.9125178,-7.1853086,0 107.9124986,-7.1853083,0 107.9124901,-7.1853137,0 107.9124893,-7.1853211,0 107.9124896,-7.1853389,0 107.9124885,-7.1853596,0 107.9124882,-7.1854011,0 107.9124850,-7.1854558,0 107.9124831,-7.1854896,0 107.9124828,-7.1855149,0 107.9124990,-7.1855144,0 107.9125526,-7.1855096,0 107.9125972,-7.1855048,0 107.9126551,-7.1855021,0 107.9127197,-7.1855020,0 107.9127597,-7.1854995,0 107.9127618,-7.1854685,0 107.9127657,-7.1854163,0 107.9127658,-7.1853567,0 107.9127411,-7.1853467,0 107.9126962,-7.1853434,0 107.9126858,-7.1853312,0 107.9126918,-7.1853077,0 107.9126791,-7.1853074,0 107.9126791,-7.1853074,0</coordinates></LinearRing></outerBoundaryIs></Polygon></Placemark>
<Style id="g48283"><LineStyle><color>ffffffff</color><width>1.2</width></LineStyle><PolyStyle><color>c8e8d6d6</color></PolyStyle></Style>
<Placemark><name>SWH-24</name><description><![CDATA[hamparan H2 | luas 0.1686 ha<br/><b>Kebutuhan air</b> 388 m3 (230 mm)<br/>andalan 80% 478 m3<br/>debit 0.049 l/detik | pengisian 6.4 l/detik (pintu 17 cm)<br/><b>Water loss</b> 2,367 m3 (1,404 mm)<br/>menguap 35 % | meresap 20 % | mengalir keluar 48 %<br/>total keluar 88 % dari air masuk]]></description><styleUrl>#g48283</styleUrl><Polygon><outerBoundaryIs><LinearRing><tessellate>1</tessellate><coordinates>107.9121936,-7.1855494,0 107.9121495,-7.1855590,0 107.9121089,-7.1855615,0 107.9120597,-7.1855634,0 107.9120025,-7.1855704,0 107.9119617,-7.1855776,0 107.9119235,-7.1855793,0 107.9118737,-7.1855891,0 107.9118406,-7.1855911,0 107.9117947,-7.1855938,0 107.9117569,-7.1855953,0 107.9117257,-7.1855989,0 107.9117341,-7.1856346,0 107.9117478,-7.1856951,0 107.9117625,-7.1857399,0 107.9117734,-7.1857888,0 107.9117838,-7.1858376,0 107.9117979,-7.1858910,0 107.9118339,-7.1858863,0 107.9119007,-7.1858670,0 107.9119302,-7.1858671,0 107.9119769,-7.1858585,0 107.9120285,-7.1858518,0 107.9120822,-7.1858384,0 107.9120985,-7.1858363,0 107.9121072,-7.1858319,0 107.9121254,-7.1858291,0 107.9121422,-7.1858320,0 107.9121613,-7.1858265,0 107.9122062,-7.1858131,0 107.9122278,-7.1858048,0 107.9122403,-7.1858000,0 107.9122615,-7.1857979,0 107.9122664,-7.1857932,0 107.9122612,-7.1857600,0 107.9122580,-7.1857029,0 107.9122500,-7.1856614,0 107.9122500,-7.1856191,0 107.9122485,-7.1855837,0 107.9122461,-7.1855503,0 107.9121936,-7.1855494,0 107.9121936,-7.1855494,0</coordinates></LinearRing></outerBoundaryIs></Polygon></Placemark>
<Style id="g76333"><LineStyle><color>ffffffff</color><width>1.2</width></LineStyle><PolyStyle><color>c8e6d2d1</color></PolyStyle></Style>
<Placemark><name>SWH-25</name><description><![CDATA[hamparan H2 | luas 0.2205 ha<br/><b>Kebutuhan air</b> 508 m3 (230 mm)<br/>andalan 80% 626 m3<br/>debit 0.065 l/detik | pengisian 8.3 l/detik (pintu 20 cm)<br/><b>Water loss</b> 3,096 m3 (1,404 mm)<br/>menguap 35 % | meresap 20 % | mengalir keluar 48 %<br/>total keluar 88 % dari air masuk]]></description><styleUrl>#g76333</styleUrl><Polygon><outerBoundaryIs><LinearRing><tessellate>1</tessellate><coordinates>107.9122216,-7.1855474,0 107.9122239,-7.1855053,0 107.9122231,-7.1854519,0 107.9122199,-7.1854080,0 107.9122191,-7.1853821,0 107.9122124,-7.1853707,0 107.9122152,-7.1853443,0 107.9122200,-7.1853232,0 107.9122183,-7.1853144,0 107.9122074,-7.1853148,0 107.9121898,-7.1853150,0 107.9121724,-7.1853111,0 107.9121324,-7.1853021,0 107.9121113,-7.1852961,0 107.9120840,-7.1852988,0 107.9120681,-7.1852877,0 107.9120501,-7.1852845,0 107.9120334,-7.1852819,0 107.9120168,-7.1852800,0 107.9119366,-7.1852617,0 107.9118765,-7.1852528,0 107.9118425,-7.1852463,0 107.9118297,-7.1852097,0 107.9118295,-7.1851586,0 107.9117887,-7.1851491,0 107.9117117,-7.1851624,0 107.9116751,-7.1851628,0 107.9116438,-7.1851700,0 107.9116259,-7.1851737,0 107.9116191,-7.1852156,0 107.9116290,-7.1852389,0 107.9116412,-7.1852682,0 107.9116565,-7.1852901,0 107.9116643,-7.1853108,0 107.9116743,-7.1853456,0 107.9116829,-7.1853906,0 107.9116861,-7.1854141,0 107.9116900,-7.1854375,0 107.9116877,-7.1854500,0 107.9116945,-7.1854791,0 107.9117011,-7.1854964,0 107.9117077,-7.1855372,0 107.9117094,-7.1855599,0 107.9117128,-7.1855811,0 107.9117211,-7.1855885,0 107.9117323,-7.1855911,0 107.9117505,-7.1855872,0 107.9117799,-7.1855889,0 107.9117934,-7.1855914,0 107.9118134,-7.1855908,0 107.9118341,-7.1855863,0 107.9118513,-7.1855861,0 107.9118696,-7.1855875,0 107.9118820,-7.1855863,0 107.9119164,-7.1855813,0 107.9119356,-7.1855790,0 107.9119611,-7.1855761,0 107.9119783,-7.1855730,0 107.9120148,-7.1855678,0 107.9120429,-7.1855658,0 107.9120752,-7.1855622,0 107.9121072,-7.1855587,0 107.9121396,-7.1855552,0 107.9121804,-7.1855533,0 107.9122216,-7.1855474,0 107.9122216,-7.1855474,0</coordinates></LinearRing></outerBoundaryIs></Polygon></Placemark>
<Style id="g52429"><LineStyle><color>ffffffff</color><width>1.2</width></LineStyle><PolyStyle><color>c8e7d3d3</color></PolyStyle></Style>
<Placemark><name>SWH-26</name><description><![CDATA[hamparan H2 | luas 0.2036 ha<br/><b>Kebutuhan air</b> 469 m3 (230 mm)<br/>andalan 80% 578 m3<br/>debit 0.060 l/detik | pengisian 7.7 l/detik (pintu 19 cm)<br/><b>Water loss</b> 2,859 m3 (1,404 mm)<br/>menguap 35 % | meresap 20 % | mengalir keluar 48 %<br/>total keluar 88 % dari air masuk]]></description><styleUrl>#g52429</styleUrl><Polygon><outerBoundaryIs><LinearRing><tessellate>1</tessellate><coordinates>107.9122058,-7.1853076,0 107.9122332,-7.1853076,0 107.9122657,-7.1853065,0 107.9123082,-7.1853061,0 107.9123292,-7.1853075,0 107.9123525,-7.1853108,0 107.9123845,-7.1853061,0 107.9124157,-7.1853067,0 107.9124555,-7.1853033,0 107.9124920,-7.1853010,0 107.9125447,-7.1853030,0 107.9125834,-7.1853047,0 107.9126602,-7.1852995,0 107.9126844,-7.1853123,0 107.9127484,-7.1853138,0 107.9128009,-7.1853157,0 107.9128092,-7.1852521,0 107.9128052,-7.1851582,0 107.9127859,-7.1850848,0 107.9127274,-7.1850375,0 107.9126847,-7.1850311,0 107.9125999,-7.1850327,0 107.9125356,-7.1850359,0 107.9124697,-7.1850187,0 107.9124132,-7.1850003,0 107.9123436,-7.1849997,0 107.9122790,-7.1850342,0 107.9122284,-7.1850745,0 107.9121932,-7.1851661,0 107.9121871,-7.1852132,0 107.9121698,-7.1853010,0 107.9122058,-7.1853076,0 107.9122058,-7.1853076,0</coordinates></LinearRing></outerBoundaryIs></Polygon></Placemark>
<Style id="g4956"><LineStyle><color>ffffffff</color><width>1.2</width></LineStyle><PolyStyle><color>c8eee0e3</color></PolyStyle></Style>
<Placemark><name>SWH-27</name><description><![CDATA[hamparan H2 | luas 0.0355 ha<br/><b>Kebutuhan air</b> 82 m3 (230 mm)<br/>andalan 80% 101 m3<br/>debit 0.010 l/detik | pengisian 1.3 l/detik (pintu 8 cm)<br/><b>Water loss</b> 498 m3 (1,404 mm)<br/>menguap 35 % | meresap 20 % | mengalir keluar 48 %<br/>total keluar 88 % dari air masuk]]></description><styleUrl>#g4956</styleUrl><Polygon><outerBoundaryIs><LinearRing><tessellate>1</tessellate><coordinates>107.9127997,-7.1858598,0 107.9128129,-7.1858488,0 107.9128386,-7.1858548,0 107.9128748,-7.1858517,0 107.9129029,-7.1858388,0 107.9129269,-7.1858219,0 107.9129619,-7.1857805,0 107.9129865,-7.1857597,0 107.9129917,-7.1857234,0 107.9129868,-7.1857101,0 107.9129617,-7.1857102,0 107.9129193,-7.1857061,0 107.9128794,-7.1857075,0 107.9128299,-7.1857062,0 107.9127923,-7.1857072,0 107.9127699,-7.1857279,0 107.9127574,-7.1857377,0 107.9127572,-7.1857678,0 107.9127533,-7.1858062,0 107.9127565,-7.1858360,0 107.9127533,-7.1858696,0 107.9127997,-7.1858598,0 107.9127997,-7.1858598,0</coordinates></LinearRing></outerBoundaryIs></Polygon></Placemark>
<Style id="g23874"><LineStyle><color>ffffffff</color><width>1.2</width></LineStyle><PolyStyle><color>c8eee1e4</color></PolyStyle></Style>
<Placemark><name>SWH-28</name><description><![CDATA[hamparan H2 | luas 0.0304 ha<br/><b>Kebutuhan air</b> 70 m3 (230 mm)<br/>andalan 80% 86 m3<br/>debit 0.009 l/detik | pengisian 1.1 l/detik (pintu 7 cm)<br/><b>Water loss</b> 427 m3 (1,404 mm)<br/>menguap 35 % | meresap 20 % | mengalir keluar 48 %<br/>total keluar 88 % dari air masuk]]></description><styleUrl>#g23874</styleUrl><Polygon><outerBoundaryIs><LinearRing><tessellate>1</tessellate><coordinates>107.9127973,-7.1855863,0 107.9127956,-7.1856068,0 107.9127921,-7.1856347,0 107.9127886,-7.1856770,0 107.9127913,-7.1857043,0 107.9128232,-7.1857037,0 107.9128579,-7.1857050,0 107.9128893,-7.1857051,0 107.9129119,-7.1857048,0 107.9129345,-7.1857040,0 107.9129477,-7.1857049,0 107.9129650,-7.1857059,0 107.9129810,-7.1857056,0 107.9129984,-7.1857045,0 107.9130000,-7.1856831,0 107.9130046,-7.1856440,0 107.9130082,-7.1856046,0 107.9130094,-7.1855878,0 107.9129881,-7.1855878,0 107.9129596,-7.1855860,0 107.9129208,-7.1855868,0 107.9128904,-7.1855876,0 107.9128602,-7.1855888,0 107.9128258,-7.1855875,0 107.9127973,-7.1855863,0 107.9127973,-7.1855863,0</coordinates></LinearRing></outerBoundaryIs></Polygon></Placemark>
<Style id="g47514"><LineStyle><color>ffffffff</color><width>1.2</width></LineStyle><PolyStyle><color>c8eddfe2</color></PolyStyle></Style>
<Placemark><name>SWH-29</name><description><![CDATA[hamparan H2 | luas 0.0558 ha<br/><b>Kebutuhan air</b> 129 m3 (230 mm)<br/>andalan 80% 158 m3<br/>debit 0.016 l/detik | pengisian 2.1 l/detik (pintu 10 cm)<br/><b>Water loss</b> 784 m3 (1,404 mm)<br/>menguap 35 % | meresap 20 % | mengalir keluar 48 %<br/>total keluar 88 % dari air masuk]]></description><styleUrl>#g47514</styleUrl><Polygon><outerBoundaryIs><LinearRing><tessellate>1</tessellate><coordinates>107.9128249,-7.1855889,0 107.9128615,-7.1855897,0 107.9129119,-7.1855895,0 107.9129430,-7.1855904,0 107.9129762,-7.1855885,0 107.9130066,-7.1855904,0 107.9130106,-7.1855809,0 107.9130182,-7.1855468,0 107.9130209,-7.1855035,0 107.9130237,-7.1854718,0 107.9130217,-7.1854414,0 107.9130091,-7.1854228,0 107.9129875,-7.1853985,0 107.9129541,-7.1853899,0 107.9129223,-7.1853750,0 107.9128946,-7.1853698,0 107.9128620,-7.1853711,0 107.9128332,-7.1853717,0 107.9127972,-7.1853649,0 107.9127951,-7.1853747,0 107.9127949,-7.1854055,0 107.9127953,-7.1854347,0 107.9127981,-7.1854623,0 107.9128013,-7.1854912,0 107.9128007,-7.1855064,0 107.9128014,-7.1855351,0 107.9127991,-7.1855506,0 107.9127997,-7.1855717,0 107.9127996,-7.1855870,0 107.9128249,-7.1855889,0 107.9128249,-7.1855889,0</coordinates></LinearRing></outerBoundaryIs></Polygon></Placemark>
<Style id="g85124"><LineStyle><color>ffffffff</color><width>1.2</width></LineStyle><PolyStyle><color>c8eddfe2</color></PolyStyle></Style>
<Placemark><name>SWH-30</name><description><![CDATA[hamparan H2 | luas 0.0565 ha<br/><b>Kebutuhan air</b> 130 m3 (230 mm)<br/>andalan 80% 160 m3<br/>debit 0.017 l/detik | pengisian 2.1 l/detik (pintu 10 cm)<br/><b>Water loss</b> 794 m3 (1,404 mm)<br/>menguap 35 % | meresap 20 % | mengalir keluar 48 %<br/>total keluar 88 % dari air masuk]]></description><styleUrl>#g85124</styleUrl><Polygon><outerBoundaryIs><LinearRing><tessellate>1</tessellate><coordinates>107.9134661,-7.1854196,0 107.9134598,-7.1854482,0 107.9134556,-7.1854680,0 107.9134337,-7.1854775,0 107.9134093,-7.1854904,0 107.9133936,-7.1854924,0 107.9133779,-7.1854980,0 107.9134037,-7.1855419,0 107.9134271,-7.1855727,0 107.9134601,-7.1856209,0 107.9134956,-7.1856737,0 107.9135417,-7.1857393,0 107.9135667,-7.1857776,0 107.9135949,-7.1858138,0 107.9136118,-7.1858307,0 107.9136149,-7.1857780,0 107.9136223,-7.1857074,0 107.9136346,-7.1856456,0 107.9136400,-7.1856170,0 107.9136417,-7.1856005,0 107.9136306,-7.1855880,0 107.9136187,-7.1855819,0 107.9136071,-7.1855730,0 107.9135819,-7.1855540,0 107.9135686,-7.1855355,0 107.9135563,-7.1855233,0 107.9135476,-7.1855121,0 107.9135459,-7.1854998,0 107.9135454,-7.1854796,0 107.9135431,-7.1854695,0 107.9135389,-7.1854630,0 107.9135299,-7.1854531,0 107.9135206,-7.1854507,0 107.9135084,-7.1854480,0 107.9134970,-7.1854465,0 107.9134826,-7.1854370,0 107.9134766,-7.1854276,0 107.9134684,-7.1854179,0 107.9134661,-7.1854196,0 107.9134661,-7.1854196,0</coordinates></LinearRing></outerBoundaryIs></Polygon></Placemark>
<Style id="g95627"><LineStyle><color>ffffffff</color><width>1.2</width></LineStyle><PolyStyle><color>c8e7d4d4</color></PolyStyle></Style>
<Placemark><name>SWH-31</name><description><![CDATA[hamparan H2 | luas 0.1917 ha<br/><b>Kebutuhan air</b> 442 m3 (230 mm)<br/>andalan 80% 544 m3<br/>debit 0.056 l/detik | pengisian 7.2 l/detik (pintu 18 cm)<br/><b>Water loss</b> 2,691 m3 (1,404 mm)<br/>menguap 35 % | meresap 20 % | mengalir keluar 48 %<br/>total keluar 88 % dari air masuk]]></description><styleUrl>#g95627</styleUrl><Polygon><outerBoundaryIs><LinearRing><tessellate>1</tessellate><coordinates>107.9136785,-7.1858661,0 107.9137529,-7.1858724,0 107.9138234,-7.1858667,0 107.9138974,-7.1858537,0 107.9139472,-7.1858842,0 107.9140183,-7.1859279,0 107.9140347,-7.1859190,0 107.9140707,-7.1858883,0 107.9141294,-7.1858654,0 107.9141593,-7.1858407,0 107.9142212,-7.1858189,0 107.9142567,-7.1857570,0 107.9142697,-7.1856651,0 107.9142424,-7.1856271,0 107.9142036,-7.1856174,0 107.9141550,-7.1856179,0 107.9141243,-7.1856191,0 107.9140834,-7.1856204,0 107.9140585,-7.1856201,0 107.9140170,-7.1856188,0 107.9139809,-7.1856215,0 107.9139503,-7.1856236,0 107.9139179,-7.1856198,0 107.9138811,-7.1856200,0 107.9138313,-7.1856193,0 107.9138085,-7.1856182,0 107.9137815,-7.1856177,0 107.9137556,-7.1856159,0 107.9137177,-7.1856141,0 107.9136879,-7.1856108,0 107.9136621,-7.1856105,0 107.9136433,-7.1856083,0 107.9136410,-7.1856153,0 107.9136351,-7.1856381,0 107.9136278,-7.1856751,0 107.9136251,-7.1857019,0 107.9136222,-7.1857314,0 107.9136203,-7.1857565,0 107.9136164,-7.1857894,0 107.9136117,-7.1858251,0 107.9136785,-7.1858661,0 107.9136785,-7.1858661,0</coordinates></LinearRing></outerBoundaryIs></Polygon></Placemark>
<Style id="g50508"><LineStyle><color>ffffffff</color><width>1.2</width></LineStyle><PolyStyle><color>c8e8d6d6</color></PolyStyle></Style>
<Placemark><name>SWH-32</name><description><![CDATA[hamparan H2 | luas 0.1647 ha<br/><b>Kebutuhan air</b> 379 m3 (230 mm)<br/>andalan 80% 467 m3<br/>debit 0.048 l/detik | pengisian 6.2 l/detik (pintu 17 cm)<br/><b>Water loss</b> 2,312 m3 (1,404 mm)<br/>menguap 35 % | meresap 20 % | mengalir keluar 48 %<br/>total keluar 88 % dari air masuk]]></description><styleUrl>#g50508</styleUrl><Polygon><outerBoundaryIs><LinearRing><tessellate>1</tessellate><coordinates>107.9136655,-7.1856121,0 107.9137126,-7.1856130,0 107.9138111,-7.1856165,0 107.9138996,-7.1856189,0 107.9139492,-7.1856141,0 107.9139427,-7.1855901,0 107.9139399,-7.1855736,0 107.9139414,-7.1855533,0 107.9139387,-7.1855329,0 107.9139414,-7.1855089,0 107.9139412,-7.1854797,0 107.9139417,-7.1854561,0 107.9139401,-7.1854219,0 107.9139392,-7.1853960,0 107.9139394,-7.1853746,0 107.9139434,-7.1853444,0 107.9139428,-7.1853342,0 107.9139460,-7.1853178,0 107.9139413,-7.1853065,0 107.9139129,-7.1853021,0 107.9138820,-7.1852998,0 107.9138608,-7.1852929,0 107.9138220,-7.1852950,0 107.9137917,-7.1852928,0 107.9137605,-7.1852879,0 107.9137279,-7.1852804,0 107.9136833,-7.1852742,0 107.9136400,-7.1852714,0 107.9136011,-7.1852644,0 107.9135656,-7.1852551,0 107.9135510,-7.1852541,0 107.9135430,-7.1852664,0 107.9135329,-7.1852870,0 107.9135211,-7.1853057,0 107.9135074,-7.1853169,0 107.9134991,-7.1853360,0 107.9134912,-7.1853589,0 107.9134802,-7.1853740,0 107.9134810,-7.1853945,0 107.9134810,-7.1854104,0 107.9134805,-7.1854296,0 107.9134866,-7.1854421,0 107.9134986,-7.1854479,0 107.9135168,-7.1854493,0 107.9135266,-7.1854505,0 107.9135369,-7.1854611,0 107.9135439,-7.1854674,0 107.9135476,-7.1854771,0 107.9135478,-7.1854830,0 107.9135459,-7.1854977,0 107.9135449,-7.1855063,0 107.9135493,-7.1855150,0 107.9135566,-7.1855225,0 107.9135682,-7.1855342,0 107.9135788,-7.1855456,0 107.9135890,-7.1855595,0 107.9136017,-7.1855708,0 107.9136213,-7.1855821,0 107.9136252,-7.1855862,0 107.9136356,-7.1855874,0 107.9136367,-7.1855923,0 107.9136415,-7.1856003,0 107.9136449,-7.1856055,0 107.9136655,-7.1856121,0 107.9136655,-7.1856121,0</coordinates></LinearRing></outerBoundaryIs></Polygon></Placemark>
<Style id="g27690"><LineStyle><color>ffffffff</color><width>1.2</width></LineStyle><PolyStyle><color>c8ebdbdc</color></PolyStyle></Style>
<Placemark><name>SWH-33</name><description><![CDATA[hamparan H2 | luas 0.1043 ha<br/><b>Kebutuhan air</b> 240 m3 (230 mm)<br/>andalan 80% 296 m3<br/>debit 0.031 l/detik | pengisian 3.9 l/detik (pintu 14 cm)<br/><b>Water loss</b> 1,464 m3 (1,404 mm)<br/>menguap 35 % | meresap 20 % | mengalir keluar 48 %<br/>total keluar 88 % dari air masuk]]></description><styleUrl>#g27690</styleUrl><Polygon><outerBoundaryIs><LinearRing><tessellate>1</tessellate><coordinates>107.9139730,-7.1856196,0 107.9140066,-7.1856180,0 107.9140465,-7.1856190,0 107.9140802,-7.1856177,0 107.9141152,-7.1856168,0 107.9141477,-7.1856162,0 107.9142037,-7.1856107,0 107.9142226,-7.1856052,0 107.9142132,-7.1855728,0 107.9142111,-7.1854928,0 107.9142112,-7.1854581,0 107.9142125,-7.1854174,0 107.9142152,-7.1853545,0 107.9142183,-7.1853292,0 107.9142111,-7.1852994,0 107.9141903,-7.1853004,0 107.9141613,-7.1852978,0 107.9141302,-7.1853022,0 107.9140951,-7.1853071,0 107.9140521,-7.1853020,0 107.9140262,-7.1853039,0 107.9139922,-7.1853026,0 107.9139436,-7.1853062,0 107.9139428,-7.1853289,0 107.9139408,-7.1853479,0 107.9139413,-7.1853656,0 107.9139396,-7.1853847,0 107.9139408,-7.1854122,0 107.9139414,-7.1854305,0 107.9139407,-7.1854548,0 107.9139412,-7.1854733,0 107.9139429,-7.1854899,0 107.9139418,-7.1855163,0 107.9139384,-7.1855362,0 107.9139410,-7.1855467,0 107.9139421,-7.1855693,0 107.9139440,-7.1855996,0 107.9139497,-7.1856203,0 107.9139730,-7.1856196,0 107.9139730,-7.1856196,0</coordinates></LinearRing></outerBoundaryIs></Polygon></Placemark>
<Style id="g60020"><LineStyle><color>ffffffff</color><width>1.2</width></LineStyle><PolyStyle><color>c8ead9db</color></PolyStyle></Style>
<Placemark><name>SWH-34</name><description><![CDATA[hamparan H2 | luas 0.1272 ha<br/><b>Kebutuhan air</b> 293 m3 (230 mm)<br/>andalan 80% 361 m3<br/>debit 0.037 l/detik | pengisian 4.8 l/detik (pintu 15 cm)<br/><b>Water loss</b> 1,786 m3 (1,404 mm)<br/>menguap 35 % | meresap 20 % | mengalir keluar 48 %<br/>total keluar 88 % dari air masuk]]></description><styleUrl>#g60020</styleUrl><Polygon><outerBoundaryIs><LinearRing><tessellate>1</tessellate><coordinates>107.9137631,-7.1852384,0 107.9137647,-7.1852015,0 107.9137719,-7.1851660,0 107.9137790,-7.1851346,0 107.9137830,-7.1851149,0 107.9137956,-7.1850469,0 107.9137998,-7.1850076,0 107.9138081,-7.1849781,0 107.9138126,-7.1849414,0 107.9138190,-7.1849033,0 107.9138279,-7.1848669,0 107.9138350,-7.1848289,0 107.9138453,-7.1847947,0 107.9138308,-7.1847903,0 107.9138059,-7.1847876,0 107.9137821,-7.1847829,0 107.9137515,-7.1847712,0 107.9137221,-7.1847621,0 107.9136880,-7.1847485,0 107.9136636,-7.1847805,0 107.9136422,-7.1848196,0 107.9136144,-7.1848760,0 107.9135862,-7.1849322,0 107.9135686,-7.1849760,0 107.9135618,-7.1850313,0 107.9135578,-7.1850944,0 107.9135612,-7.1851508,0 107.9135729,-7.1852173,0 107.9135857,-7.1852431,0 107.9136179,-7.1852502,0 107.9136278,-7.1852570,0 107.9136426,-7.1852563,0 107.9136615,-7.1852564,0 107.9136850,-7.1852638,0 107.9137214,-7.1852690,0 107.9137591,-7.1852718,0 107.9137631,-7.1852384,0 107.9137631,-7.1852384,0</coordinates></LinearRing></outerBoundaryIs></Polygon></Placemark>
<Style id="g26652"><LineStyle><color>ffffffff</color><width>1.2</width></LineStyle><PolyStyle><color>c8ead9db</color></PolyStyle></Style>
<Placemark><name>SWH-35</name><description><![CDATA[hamparan H2 | luas 0.1272 ha<br/><b>Kebutuhan air</b> 293 m3 (230 mm)<br/>andalan 80% 361 m3<br/>debit 0.037 l/detik | pengisian 4.8 l/detik (pintu 15 cm)<br/><b>Water loss</b> 1,787 m3 (1,404 mm)<br/>menguap 35 % | meresap 20 % | mengalir keluar 48 %<br/>total keluar 88 % dari air masuk]]></description><styleUrl>#g26652</styleUrl><Polygon><outerBoundaryIs><LinearRing><tessellate>1</tessellate><coordinates>107.9137866,-7.1852736,0 107.9138038,-7.1852747,0 107.9138368,-7.1852767,0 107.9138551,-7.1852813,0 107.9138783,-7.1852836,0 107.9138961,-7.1852875,0 107.9139076,-7.1852880,0 107.9139290,-7.1852897,0 107.9139435,-7.1852915,0 107.9139606,-7.1852924,0 107.9139670,-7.1852923,0 107.9139751,-7.1852885,0 107.9139758,-7.1852822,0 107.9139781,-7.1852748,0 107.9139795,-7.1852556,0 107.9139834,-7.1852432,0 107.9139855,-7.1852230,0 107.9139882,-7.1852129,0 107.9139896,-7.1851949,0 107.9139912,-7.1851825,0 107.9139964,-7.1851719,0 107.9140005,-7.1851572,0 107.9140019,-7.1851425,0 107.9140048,-7.1851272,0 107.9140065,-7.1851118,0 107.9140082,-7.1851000,0 107.9140139,-7.1850753,0 107.9140152,-7.1850633,0 107.9140173,-7.1850577,0 107.9140188,-7.1850510,0 107.9140198,-7.1850405,0 107.9140210,-7.1850299,0 107.9140237,-7.1850169,0 107.9140257,-7.1850034,0 107.9140287,-7.1849855,0 107.9140303,-7.1849723,0 107.9140341,-7.1849576,0 107.9140374,-7.1849399,0 107.9140387,-7.1849309,0 107.9140398,-7.1849111,0 107.9140443,-7.1849066,0 107.9140431,-7.1848996,0 107.9140425,-7.1848883,0 107.9140446,-7.1848814,0 107.9140471,-7.1848721,0 107.9140473,-7.1848654,0 107.9140508,-7.1848543,0 107.9140554,-7.1848422,0 107.9140529,-7.1848350,0 107.9140437,-7.1848327,0 107.9140361,-7.1848299,0 107.9140268,-7.1848268,0 107.9140169,-7.1848232,0 107.9140051,-7.1848208,0 107.9139971,-7.1848192,0 107.9139870,-7.1848122,0 107.9139774,-7.1848051,0 107.9139659,-7.1848012,0 107.9139577,-7.1847993,0 107.9139392,-7.1847985,0 107.9139219,-7.1847951,0 107.9138944,-7.1847954,0 107.9138839,-7.1847944,0 107.9138729,-7.1847935,0 107.9138488,-7.1847925,0 107.9138466,-7.1847960,0 107.9138443,-7.1848092,0 107.9138395,-7.1848316,0 107.9138347,-7.1848517,0 107.9138304,-7.1848671,0 107.9138280,-7.1848814,0 107.9138248,-7.1848925,0 107.9138226,-7.1849129,0 107.9138194,-7.1849359,0 107.9138164,-7.1849538,0 107.9138143,-7.1849760,0 107.9138074,-7.1849944,0 107.9138042,-7.1850130,0 107.9138020,-7.1850265,0 107.9137992,-7.1850398,0 107.9137971,-7.1850523,0 107.9137923,-7.1850764,0 107.9137892,-7.1850992,0 107.9137858,-7.1851177,0 107.9137813,-7.1851339,0 107.9137787,-7.1851525,0 107.9137769,-7.1851617,0 107.9137746,-7.1851752,0 107.9137705,-7.1851889,0 107.9137689,-7.1852013,0 107.9137672,-7.1852148,0 107.9137667,-7.1852282,0 107.9137632,-7.1852463,0 107.9137608,-7.1852722,0 107.9137866,-7.1852736,0 107.9137866,-7.1852736,0</coordinates></LinearRing></outerBoundaryIs></Polygon></Placemark>
<Style id="g9811"><LineStyle><color>ffffffff</color><width>1.2</width></LineStyle><PolyStyle><color>c8eddee1</color></PolyStyle></Style>
<Placemark><name>SWH-36</name><description><![CDATA[hamparan H2 | luas 0.0628 ha<br/><b>Kebutuhan air</b> 145 m3 (230 mm)<br/>andalan 80% 178 m3<br/>debit 0.018 l/detik | pengisian 2.4 l/detik (pintu 10 cm)<br/><b>Water loss</b> 881 m3 (1,404 mm)<br/>menguap 35 % | meresap 20 % | mengalir keluar 48 %<br/>total keluar 88 % dari air masuk]]></description><styleUrl>#g9811</styleUrl><Polygon><outerBoundaryIs><LinearRing><tessellate>1</tessellate><coordinates>107.9140618,-7.1848369,0 107.9140557,-7.1848521,0 107.9140498,-7.1848750,0 107.9140468,-7.1848883,0 107.9140452,-7.1849030,0 107.9140432,-7.1849168,0 107.9140417,-7.1849270,0 107.9140405,-7.1849359,0 107.9140376,-7.1849556,0 107.9140360,-7.1849685,0 107.9140336,-7.1849811,0 107.9140309,-7.1849946,0 107.9140282,-7.1850093,0 107.9140253,-7.1850240,0 107.9140236,-7.1850381,0 107.9140206,-7.1850623,0 107.9140178,-7.1850806,0 107.9140137,-7.1850940,0 107.9140108,-7.1851068,0 107.9140083,-7.1851168,0 107.9140085,-7.1851309,0 107.9140075,-7.1851413,0 107.9140034,-7.1851597,0 107.9140000,-7.1851701,0 107.9139973,-7.1851865,0 107.9139933,-7.1852022,0 107.9139903,-7.1852174,0 107.9139871,-7.1852350,0 107.9139844,-7.1852563,0 107.9139794,-7.1852804,0 107.9139776,-7.1852964,0 107.9139777,-7.1853039,0 107.9139919,-7.1853030,0 107.9140055,-7.1852992,0 107.9140199,-7.1852983,0 107.9140395,-7.1852974,0 107.9140644,-7.1852948,0 107.9140826,-7.1852918,0 107.9140870,-7.1852830,0 107.9140945,-7.1852445,0 107.9140981,-7.1852325,0 107.9141025,-7.1852072,0 107.9141083,-7.1851896,0 107.9141151,-7.1851647,0 107.9141231,-7.1851346,0 107.9141257,-7.1851117,0 107.9141294,-7.1850882,0 107.9141327,-7.1850736,0 107.9141417,-7.1850464,0 107.9141456,-7.1850280,0 107.9141511,-7.1850052,0 107.9141575,-7.1849814,0 107.9141593,-7.1849653,0 107.9141660,-7.1849390,0 107.9141671,-7.1849299,0 107.9141705,-7.1849179,0 107.9141778,-7.1848902,0 107.9141641,-7.1848820,0 107.9141428,-7.1848700,0 107.9141071,-7.1848559,0 107.9140618,-7.1848369,0 107.9140618,-7.1848369,0</coordinates></LinearRing></outerBoundaryIs></Polygon></Placemark>
<Style id="g23423"><LineStyle><color>ffffffff</color><width>1.2</width></LineStyle><PolyStyle><color>c8eddde0</color></PolyStyle></Style>
<Placemark><name>SWH-37</name><description><![CDATA[hamparan H2 | luas 0.0730 ha<br/><b>Kebutuhan air</b> 168 m3 (230 mm)<br/>andalan 80% 207 m3<br/>debit 0.021 l/detik | pengisian 2.8 l/detik (pintu 11 cm)<br/><b>Water loss</b> 1,025 m3 (1,404 mm)<br/>menguap 35 % | meresap 20 % | mengalir keluar 48 %<br/>total keluar 88 % dari air masuk]]></description><styleUrl>#g23423</styleUrl><Polygon><outerBoundaryIs><LinearRing><tessellate>1</tessellate><coordinates>107.9141782,-7.1848881,0 107.9141713,-7.1849115,0 107.9141678,-7.1849290,0 107.9141589,-7.1849491,0 107.9141597,-7.1849725,0 107.9141569,-7.1849903,0 107.9141537,-7.1850144,0 107.9141522,-7.1850294,0 107.9141484,-7.1850461,0 107.9141367,-7.1850700,0 107.9141327,-7.1850893,0 107.9141290,-7.1851277,0 107.9141243,-7.1851491,0 107.9141181,-7.1851680,0 107.9141151,-7.1851882,0 107.9141073,-7.1852076,0 107.9141016,-7.1852247,0 107.9140966,-7.1852461,0 107.9140904,-7.1852680,0 107.9140846,-7.1852859,0 107.9140849,-7.1852957,0 107.9140976,-7.1852942,0 107.9141152,-7.1852917,0 107.9141310,-7.1852903,0 107.9141475,-7.1852891,0 107.9141658,-7.1852844,0 107.9141782,-7.1852809,0 107.9142180,-7.1852720,0 107.9142433,-7.1852673,0 107.9142662,-7.1852621,0 107.9143049,-7.1852522,0 107.9143125,-7.1852388,0 107.9143046,-7.1851933,0 107.9142928,-7.1851518,0 107.9142881,-7.1851072,0 107.9142876,-7.1850684,0 107.9142925,-7.1850319,0 107.9142959,-7.1849978,0 107.9143028,-7.1849665,0 107.9143066,-7.1849483,0 107.9143001,-7.1849408,0 107.9142809,-7.1849355,0 107.9142599,-7.1849249,0 107.9142250,-7.1849085,0 107.9142056,-7.1848994,0 107.9141782,-7.1848881,0 107.9141782,-7.1848881,0</coordinates></LinearRing></outerBoundaryIs></Polygon></Placemark>
<Style id="g46991"><LineStyle><color>ffffffff</color><width>1.2</width></LineStyle><PolyStyle><color>c8eddee1</color></PolyStyle></Style>
<Placemark><name>SWH-38</name><description><![CDATA[hamparan H2 | luas 0.0609 ha<br/><b>Kebutuhan air</b> 140 m3 (230 mm)<br/>andalan 80% 173 m3<br/>debit 0.018 l/detik | pengisian 2.3 l/detik (pintu 10 cm)<br/><b>Water loss</b> 855 m3 (1,404 mm)<br/>menguap 35 % | meresap 20 % | mengalir keluar 48 %<br/>total keluar 88 % dari air masuk]]></description><styleUrl>#g46991</styleUrl><Polygon><outerBoundaryIs><LinearRing><tessellate>1</tessellate><coordinates>107.9143126,-7.1849438,0 107.9143038,-7.1849563,0 107.9143012,-7.1849744,0 107.9142988,-7.1849946,0 107.9142973,-7.1850089,0 107.9142953,-7.1850224,0 107.9142947,-7.1850405,0 107.9142950,-7.1850573,0 107.9142933,-7.1850928,0 107.9142962,-7.1851131,0 107.9142957,-7.1851361,0 107.9143015,-7.1851702,0 107.9143040,-7.1851933,0 107.9143116,-7.1851961,0 107.9143294,-7.1851871,0 107.9143455,-7.1851835,0 107.9143620,-7.1851798,0 107.9143889,-7.1851757,0 107.9144013,-7.1851744,0 107.9144189,-7.1851744,0 107.9144416,-7.1851767,0 107.9144564,-7.1851784,0 107.9144684,-7.1851740,0 107.9144742,-7.1851603,0 107.9144776,-7.1851358,0 107.9144856,-7.1851139,0 107.9144910,-7.1850902,0 107.9145023,-7.1850649,0 107.9145105,-7.1850477,0 107.9145158,-7.1850307,0 107.9145215,-7.1850131,0 107.9145275,-7.1849993,0 107.9145320,-7.1849866,0 107.9145395,-7.1849678,0 107.9145458,-7.1849502,0 107.9145456,-7.1849392,0 107.9145348,-7.1849368,0 107.9145204,-7.1849400,0 107.9145009,-7.1849395,0 107.9144677,-7.1849427,0 107.9144509,-7.1849403,0 107.9144282,-7.1849415,0 107.9144047,-7.1849410,0 107.9143896,-7.1849402,0 107.9143753,-7.1849408,0 107.9143637,-7.1849374,0 107.9143470,-7.1849378,0 107.9143366,-7.1849364,0 107.9143206,-7.1849403,0 107.9143126,-7.1849438,0 107.9143126,-7.1849438,0</coordinates></LinearRing></outerBoundaryIs></Polygon></Placemark>
<Style id="g72812"><LineStyle><color>ffffffff</color><width>1.2</width></LineStyle><PolyStyle><color>c8eddfe2</color></PolyStyle></Style>
<Placemark><name>SWH-39</name><description><![CDATA[hamparan H2 | luas 0.0601 ha<br/><b>Kebutuhan air</b> 139 m3 (230 mm)<br/>andalan 80% 171 m3<br/>debit 0.018 l/detik | pengisian 2.3 l/detik (pintu 10 cm)<br/><b>Water loss</b> 844 m3 (1,404 mm)<br/>menguap 35 % | meresap 20 % | mengalir keluar 48 %<br/>total keluar 88 % dari air masuk]]></description><styleUrl>#g72812</styleUrl><Polygon><outerBoundaryIs><LinearRing><tessellate>1</tessellate><coordinates>107.9144896,-7.1851774,0 107.9145093,-7.1851841,0 107.9145259,-7.1851883,0 107.9145390,-7.1851915,0 107.9145604,-7.1851938,0 107.9145755,-7.1851945,0 107.9145986,-7.1851832,0 107.9146164,-7.1851702,0 107.9146287,-7.1851584,0 107.9146438,-7.1851282,0 107.9146540,-7.1851018,0 107.9146647,-7.1850790,0 107.9146761,-7.1850550,0 107.9146810,-7.1850363,0 107.9146885,-7.1850051,0 107.9146953,-7.1849857,0 107.9146992,-7.1849658,0 107.9147061,-7.1849498,0 107.9147140,-7.1849282,0 107.9147186,-7.1849069,0 107.9147218,-7.1848907,0 107.9147213,-7.1848751,0 107.9147084,-7.1848746,0 107.9146904,-7.1848753,0 107.9146776,-7.1848761,0 107.9146475,-7.1848797,0 107.9146264,-7.1848831,0 107.9146060,-7.1848832,0 107.9145748,-7.1848900,0 107.9145582,-7.1849042,0 107.9145490,-7.1849375,0 107.9145406,-7.1849618,0 107.9145292,-7.1849991,0 107.9145195,-7.1850142,0 107.9145153,-7.1850371,0 107.9145018,-7.1850689,0 107.9144885,-7.1851009,0 107.9144801,-7.1851316,0 107.9144722,-7.1851575,0 107.9144680,-7.1851755,0 107.9144896,-7.1851774,0 107.9144896,-7.1851774,0</coordinates></LinearRing></outerBoundaryIs></Polygon></Placemark>
<Style id="g97173"><LineStyle><color>ffffffff</color><width>1.2</width></LineStyle><PolyStyle><color>c8ebdbdd</color></PolyStyle></Style>
<Placemark><name>SWH-40</name><description><![CDATA[hamparan H2 | luas 0.1029 ha<br/><b>Kebutuhan air</b> 237 m3 (230 mm)<br/>andalan 80% 292 m3<br/>debit 0.030 l/detik | pengisian 3.9 l/detik (pintu 13 cm)<br/><b>Water loss</b> 1,444 m3 (1,404 mm)<br/>menguap 35 % | meresap 20 % | mengalir keluar 48 %<br/>total keluar 88 % dari air masuk]]></description><styleUrl>#g97173</styleUrl><Polygon><outerBoundaryIs><LinearRing><tessellate>1</tessellate><coordinates>107.9145563,-7.1848975,0 107.9145764,-7.1848903,0 107.9145967,-7.1848856,0 107.9146432,-7.1848785,0 107.9146797,-7.1848767,0 107.9147224,-7.1848725,0 107.9147410,-7.1848684,0 107.9147654,-7.1848555,0 107.9148084,-7.1848500,0 107.9148370,-7.1848466,0 107.9148625,-7.1848402,0 107.9148862,-7.1848327,0 107.9149088,-7.1848231,0 107.9149403,-7.1848161,0 107.9149674,-7.1848148,0 107.9150121,-7.1848014,0 107.9150350,-7.1847818,0 107.9150280,-7.1847500,0 107.9150266,-7.1847124,0 107.9150149,-7.1846780,0 107.9149867,-7.1846712,0 107.9149522,-7.1846732,0 107.9148990,-7.1846699,0 107.9148411,-7.1846757,0 107.9147607,-7.1846768,0 107.9147247,-7.1846803,0 107.9146855,-7.1846822,0 107.9146676,-7.1846867,0 107.9146201,-7.1846949,0 107.9145898,-7.1846968,0 107.9145616,-7.1846951,0 107.9145422,-7.1846916,0 107.9145363,-7.1847085,0 107.9145316,-7.1847407,0 107.9145315,-7.1847634,0 107.9145310,-7.1847833,0 107.9145362,-7.1848146,0 107.9145393,-7.1848411,0 107.9145445,-7.1848647,0 107.9145490,-7.1848876,0 107.9145563,-7.1848975,0 107.9145563,-7.1848975,0</coordinates></LinearRing></outerBoundaryIs></Polygon></Placemark>
<Style id="g85303"><LineStyle><color>ffffffff</color><width>1.2</width></LineStyle><PolyStyle><color>c8ead9da</color></PolyStyle></Style>
<Placemark><name>SWH-41</name><description><![CDATA[hamparan H2 | luas 0.1341 ha<br/><b>Kebutuhan air</b> 309 m3 (230 mm)<br/>andalan 80% 380 m3<br/>debit 0.039 l/detik | pengisian 5.1 l/detik (pintu 15 cm)<br/><b>Water loss</b> 1,883 m3 (1,404 mm)<br/>menguap 35 % | meresap 20 % | mengalir keluar 48 %<br/>total keluar 88 % dari air masuk]]></description><styleUrl>#g85303</styleUrl><Polygon><outerBoundaryIs><LinearRing><tessellate>1</tessellate><coordinates>107.9142284,-7.1849041,0 107.9142625,-7.1849212,0 107.9142892,-7.1849348,0 107.9143049,-7.1849323,0 107.9143314,-7.1849298,0 107.9143623,-7.1849304,0 107.9144103,-7.1849356,0 107.9144520,-7.1849396,0 107.9144857,-7.1849373,0 107.9145216,-7.1849377,0 107.9145423,-7.1849348,0 107.9145490,-7.1849212,0 107.9145464,-7.1849117,0 107.9145386,-7.1848886,0 107.9145353,-7.1848619,0 107.9145309,-7.1848421,0 107.9145312,-7.1848214,0 107.9145303,-7.1848030,0 107.9145255,-7.1847760,0 107.9145273,-7.1847543,0 107.9145306,-7.1847269,0 107.9145349,-7.1846988,0 107.9145380,-7.1846864,0 107.9145092,-7.1846844,0 107.9144820,-7.1846843,0 107.9144528,-7.1846800,0 107.9144248,-7.1846788,0 107.9143893,-7.1846746,0 107.9143600,-7.1846722,0 107.9143164,-7.1846671,0 107.9142783,-7.1846643,0 107.9142356,-7.1846628,0 107.9142137,-7.1846592,0 107.9141408,-7.1846539,0 107.9141004,-7.1846528,0 107.9140960,-7.1846859,0 107.9140913,-7.1847234,0 107.9140836,-7.1847591,0 107.9140759,-7.1848059,0 107.9140740,-7.1848329,0 107.9140978,-7.1848437,0 107.9141435,-7.1848702,0 107.9141867,-7.1848900,0 107.9142284,-7.1849041,0 107.9142284,-7.1849041,0</coordinates></LinearRing></outerBoundaryIs></Polygon></Placemark>
<Style id="g53659"><LineStyle><color>ffffffff</color><width>1.2</width></LineStyle><PolyStyle><color>c8efe2e5</color></PolyStyle></Style>
<Placemark><name>SWH-42</name><description><![CDATA[hamparan H2 | luas 0.0237 ha<br/><b>Kebutuhan air</b> 55 m3 (230 mm)<br/>andalan 80% 67 m3<br/>debit 0.007 l/detik | pengisian 0.9 l/detik (pintu 6 cm)<br/><b>Water loss</b> 333 m3 (1,404 mm)<br/>menguap 35 % | meresap 20 % | mengalir keluar 48 %<br/>total keluar 88 % dari air masuk]]></description><styleUrl>#g53659</styleUrl><Polygon><outerBoundaryIs><LinearRing><tessellate>1</tessellate><coordinates>107.9139905,-7.1846413,0 107.9139864,-7.1846767,0 107.9139828,-7.1847124,0 107.9139789,-7.1847379,0 107.9139745,-7.1847869,0 107.9139752,-7.1847982,0 107.9139919,-7.1848107,0 107.9140205,-7.1848201,0 107.9140442,-7.1848303,0 107.9140714,-7.1848312,0 107.9140787,-7.1848135,0 107.9140861,-7.1847602,0 107.9140973,-7.1847170,0 107.9140990,-7.1846761,0 107.9141029,-7.1846531,0 107.9140827,-7.1846486,0 107.9140703,-7.1846468,0 107.9140469,-7.1846453,0 107.9140244,-7.1846416,0 107.9139905,-7.1846413,0 107.9139905,-7.1846413,0</coordinates></LinearRing></outerBoundaryIs></Polygon></Placemark>
<Style id="g42192"><LineStyle><color>ffffffff</color><width>1.2</width></LineStyle><PolyStyle><color>c8ead9db</color></PolyStyle></Style>
<Placemark><name>SWH-43</name><description><![CDATA[hamparan H2 | luas 0.1202 ha<br/><b>Kebutuhan air</b> 277 m3 (230 mm)<br/>andalan 80% 341 m3<br/>debit 0.035 l/detik | pengisian 4.5 l/detik (pintu 14 cm)<br/><b>Water loss</b> 1,687 m3 (1,404 mm)<br/>menguap 35 % | meresap 20 % | mengalir keluar 48 %<br/>total keluar 88 % dari air masuk]]></description><styleUrl>#g42192</styleUrl><Polygon><outerBoundaryIs><LinearRing><tessellate>1</tessellate><coordinates>107.9140336,-7.1846436,0 107.9140658,-7.1846441,0 107.9140905,-7.1846489,0 107.9141248,-7.1846512,0 107.9141501,-7.1846550,0 107.9141892,-7.1846579,0 107.9142318,-7.1846626,0 107.9142567,-7.1846651,0 107.9142947,-7.1846693,0 107.9143183,-7.1846689,0 107.9143507,-7.1846731,0 107.9143841,-7.1846759,0 107.9144119,-7.1846782,0 107.9144486,-7.1846836,0 107.9144898,-7.1846862,0 107.9145171,-7.1846904,0 107.9145366,-7.1846927,0 107.9145425,-7.1846659,0 107.9145447,-7.1846370,0 107.9145474,-7.1845818,0 107.9145485,-7.1845389,0 107.9145478,-7.1845051,0 107.9144422,-7.1844989,0 107.9144134,-7.1844953,0 107.9143844,-7.1844953,0 107.9143444,-7.1844923,0 107.9143032,-7.1844876,0 107.9142485,-7.1844810,0 107.9142303,-7.1844805,0 107.9142077,-7.1844783,0 107.9141829,-7.1844776,0 107.9141594,-7.1844767,0 107.9141315,-7.1844765,0 107.9141080,-7.1844761,0 107.9140775,-7.1844736,0 107.9140516,-7.1844676,0 107.9140224,-7.1844714,0 107.9140050,-7.1844722,0 107.9140023,-7.1844987,0 107.9140017,-7.1845316,0 107.9139972,-7.1845777,0 107.9139958,-7.1846062,0 107.9139951,-7.1846401,0 107.9140336,-7.1846436,0 107.9140336,-7.1846436,0</coordinates></LinearRing></outerBoundaryIs></Polygon></Placemark>
<Style id="g93676"><LineStyle><color>ffffffff</color><width>1.2</width></LineStyle><PolyStyle><color>c8eddde0</color></PolyStyle></Style>
<Placemark><name>SWH-44</name><description><![CDATA[hamparan H2 | luas 0.0737 ha<br/><b>Kebutuhan air</b> 170 m3 (230 mm)<br/>andalan 80% 209 m3<br/>debit 0.022 l/detik | pengisian 2.8 l/detik (pintu 11 cm)<br/><b>Water loss</b> 1,034 m3 (1,404 mm)<br/>menguap 35 % | meresap 20 % | mengalir keluar 48 %<br/>total keluar 88 % dari air masuk]]></description><styleUrl>#g93676</styleUrl><Polygon><outerBoundaryIs><LinearRing><tessellate>1</tessellate><coordinates>107.9140066,-7.1844654,0 107.9140232,-7.1844703,0 107.9140646,-7.1844727,0 107.9141190,-7.1844765,0 107.9141551,-7.1844777,0 107.9142237,-7.1844814,0 107.9142465,-7.1844819,0 107.9142928,-7.1844857,0 107.9143541,-7.1844902,0 107.9144036,-7.1844931,0 107.9144425,-7.1844946,0 107.9144908,-7.1845008,0 107.9145329,-7.1845003,0 107.9145351,-7.1844721,0 107.9145291,-7.1844276,0 107.9145325,-7.1843802,0 107.9145252,-7.1843608,0 107.9145006,-7.1843611,0 107.9144664,-7.1843621,0 107.9144376,-7.1843576,0 107.9144122,-7.1843496,0 107.9143724,-7.1843532,0 107.9143519,-7.1843645,0 107.9143196,-7.1843732,0 107.9142881,-7.1843716,0 107.9142584,-7.1843581,0 107.9142301,-7.1843528,0 107.9142068,-7.1843550,0 107.9141939,-7.1843737,0 107.9141258,-7.1843781,0 107.9140840,-7.1843795,0 107.9140570,-7.1843919,0 107.9140419,-7.1844069,0 107.9140163,-7.1844180,0 107.9140044,-7.1844285,0 107.9140066,-7.1844654,0 107.9140066,-7.1844654,0</coordinates></LinearRing></outerBoundaryIs></Polygon></Placemark>
<Style id="g90949"><LineStyle><color>ffffffff</color><width>1.2</width></LineStyle><PolyStyle><color>c8794d03</color></PolyStyle></Style>
<Placemark><name>SWH-01</name><description><![CDATA[hamparan H3 | luas 1.6924 ha<br/><b>Kebutuhan air</b> 3,899 m3 (230 mm)<br/>andalan 80% 4,801 m3<br/>debit 0.496 l/detik | pengisian 63.8 l/detik (pintu 54 cm)<br/><b>Water loss</b> 23,761 m3 (1,404 mm)<br/>menguap 35 % | meresap 20 % | mengalir keluar 48 %<br/>total keluar 88 % dari air masuk]]></description><styleUrl>#g90949</styleUrl><Polygon><outerBoundaryIs><LinearRing><tessellate>1</tessellate><coordinates>107.9092542,-7.1817977,0 107.9092668,-7.1817995,0 107.9093232,-7.1818190,0 107.9093604,-7.1818334,0 107.9093600,-7.1818439,0 107.9093897,-7.1818541,0 107.9094237,-7.1818628,0 107.9094648,-7.1818755,0 107.9095010,-7.1818872,0 107.9095605,-7.1819062,0 107.9096191,-7.1819241,0 107.9097062,-7.1819520,0 107.9097204,-7.1819597,0 107.9097392,-7.1819733,0 107.9097865,-7.1819839,0 107.9098291,-7.1819921,0 107.9099448,-7.1820198,0 107.9099998,-7.1820387,0 107.9101601,-7.1820744,0 107.9101754,-7.1820216,0 107.9101923,-7.1819740,0 107.9102105,-7.1819264,0 107.9102749,-7.1817595,0 107.9103196,-7.1816845,0 107.9103708,-7.1815462,0 107.9104180,-7.1814004,0 107.9104509,-7.1812913,0 107.9105018,-7.1811081,0 107.9105459,-7.1810049,0 107.9105303,-7.1810021,0 107.9105386,-7.1809637,0 107.9105494,-7.1809337,0 107.9105545,-7.1808924,0 107.9105609,-7.1808385,0 107.9105706,-7.1807850,0 107.9105824,-7.1807112,0 107.9105987,-7.1806598,0 107.9106080,-7.1805725,0 107.9105681,-7.1805599,0 107.9105103,-7.1805445,0 107.9104624,-7.1805343,0 107.9104341,-7.1804767,0 107.9103996,-7.1804539,0 107.9103216,-7.1804344,0 107.9101599,-7.1804203,0 107.9100897,-7.1804074,0 107.9100567,-7.1804058,0 107.9100220,-7.1804065,0 107.9099558,-7.1804107,0 107.9099180,-7.1804066,0 107.9098882,-7.1804077,0 107.9098793,-7.1804307,0 107.9098801,-7.1804617,0 107.9098800,-7.1804863,0 107.9098707,-7.1805229,0 107.9098465,-7.1805412,0 107.9098078,-7.1805724,0 107.9097795,-7.1806032,0 107.9097532,-7.1807202,0 107.9097399,-7.1807863,0 107.9097151,-7.1809135,0 107.9096986,-7.1809992,0 107.9096729,-7.1811244,0 107.9096525,-7.1812041,0 107.9096460,-7.1812399,0 107.9096355,-7.1812645,0 107.9094116,-7.1811947,0 107.9093995,-7.1811937,0 107.9093937,-7.1812049,0 107.9093910,-7.1812159,0 107.9093789,-7.1812687,0 107.9093704,-7.1812891,0 107.9093595,-7.1813470,0 107.9093449,-7.1814143,0 107.9093236,-7.1815074,0 107.9093019,-7.1815764,0 107.9092859,-7.1816432,0 107.9092756,-7.1817013,0 107.9092542,-7.1817977,0 107.9092542,-7.1817977,0</coordinates></LinearRing></outerBoundaryIs></Polygon></Placemark>
<Style id="g23368"><LineStyle><color>ffffffff</color><width>1.2</width></LineStyle><PolyStyle><color>c8efe2e6</color></PolyStyle></Style>
<Placemark><name>SWH-17</name><description><![CDATA[hamparan H4 | luas 0.0127 ha<br/><b>Kebutuhan air</b> 29 m3 (230 mm)<br/>andalan 80% 36 m3<br/>debit 0.004 l/detik | pengisian 0.5 l/detik (pintu 5 cm)<br/><b>Water loss</b> 179 m3 (1,404 mm)<br/>menguap 35 % | meresap 20 % | mengalir keluar 48 %<br/>total keluar 88 % dari air masuk]]></description><styleUrl>#g23368</styleUrl><Polygon><outerBoundaryIs><LinearRing><tessellate>1</tessellate><coordinates>107.9062783,-7.1879042,0 107.9062981,-7.1878696,0 107.9063161,-7.1878364,0 107.9063377,-7.1878084,0 107.9063170,-7.1877947,0 107.9062835,-7.1877750,0 107.9062615,-7.1877652,0 107.9062450,-7.1877880,0 107.9062222,-7.1878294,0 107.9061968,-7.1878741,0 107.9062783,-7.1879042,0 107.9062783,-7.1879042,0</coordinates></LinearRing></outerBoundaryIs></Polygon></Placemark>
</Document></kml>