<?xml version="1.0" encoding="UTF-8"?>
<kml xmlns="http://www.opengis.net/kml/2.2" xmlns:gx="http://www.google.com/kml/ext/2.2" xmlns:kml="http://www.opengis.net/kml/2.2" xmlns:atom="http://www.w3.org/2005/Atom">
<Document id="document">
	<name>Untitled map project</name>
	<gx:CascadingStyle kml:id="__managed_style_08E561C791411F0FF291_highlight">
		<styleUrl>https://earth.google.com/balloon_components/base/1.1.0.0/card_template.kml#main</styleUrl>
		<Style>
			<IconStyle>
				<scale>1.2</scale>
				<Icon>
					<href>https://earth.google.com/earth/document/icon?color=1976d2&amp;id=2000&amp;scale=4</href>
				</Icon>
				<hotSpot x="64" y="128" xunits="pixels" yunits="insetPixels"/>
			</IconStyle>
			<LabelStyle>
			</LabelStyle>
			<LineStyle>
				<color>ff2dc0fb</color>
				<width>6</width>
			</LineStyle>
			<PolyStyle>
				<color>40ffffff</color>
			</PolyStyle>
			<BalloonStyle>
			</BalloonStyle>
		</Style>
	</gx:CascadingStyle>
	<gx:CascadingStyle kml:id="__managed_style_08E561C791411F0FF291_normal">
		<styleUrl>https://earth.google.com/balloon_components/base/1.1.0.0/card_template.kml#main</styleUrl>
		<Style>
			<IconStyle>
				<Icon>
					<href>https://earth.google.com/earth/document/icon?color=1976d2&amp;id=2000&amp;scale=4</href>
				</Icon>
				<hotSpot x="64" y="128" xunits="pixels" yunits="insetPixels"/>
			</IconStyle>
			<LabelStyle>
			</LabelStyle>
			<LineStyle>
				<color>ff2dc0fb</color>
				<width>4</width>
			</LineStyle>
			<PolyStyle>
				<color>40ffffff</color>
			</PolyStyle>
			<BalloonStyle>
			</BalloonStyle>
		</Style>
	</gx:CascadingStyle>
	<StyleMap id="__managed_style_08E561C791411F0FF291">
		<Pair>
			<key>normal</key>
			<styleUrl>#__managed_style_08E561C791411F0FF291_normal</styleUrl>
		</Pair>
		<Pair>
			<key>highlight</key>
			<styleUrl>#__managed_style_08E561C791411F0FF291_highlight</styleUrl>
		</Pair>
	</StyleMap>
	<Placemark id="07CE549003411F0FF274">
		<name>Untitled placemark</name>
		<LookAt>
			<longitude>107.9239769111273</longitude>
			<latitude>-7.19750876154195</latitude>
			<altitude>696.9055818077312</altitude>
			<heading>0</heading>
			<tilt>0</tilt>
			<gx:fovy>35</gx:fovy>
			<range>13426.79295099573</range>
			<altitudeMode>absolute</altitudeMode>
		</LookAt>
		<styleUrl>#__managed_style_08E561C791411F0FF291</styleUrl>
		<Point>
			<coordinates>107.9132545737688,-7.187958550263721,693.1111240563513</coordinates>
		</Point>
	</Placemark>
	<Placemark id="02230514F4411F13614C">
		<name>Untitled path</name>
		<LookAt>
			<longitude>107.9102401065183</longitude>
			<latitude>-7.181631035396665</latitude>
			<altitude>698.453974922073</altitude>
			<heading>0.6877778381060569</heading>
			<tilt>3.190170025115246</tilt>
			<gx:fovy>35</gx:fovy>
			<range>349.7521530332597</range>
			<altitudeMode>absolute</altitudeMode>
		</LookAt>
		<styleUrl>#__managed_style_08E561C791411F0FF291</styleUrl>
		<LineString>
			<coordinates>
				107.9102969433814,-7.18211435301116,0 107.9098435163547,-7.182450229684342,0 107.9094255329304,-7.181983742058677,0 107.9090903653968,-7.181616947814123,0 107.9090504412616,-7.1815671498807,0 107.9090708945463,-7.181423189126386,0 107.9090652079917,-7.181411340339774,0 107.9088839597141,-7.181375388219963,0 107.9088995077176,-7.181275601071953,0 107.9089330583,-7.181239331665874,0 107.9088416300018,-7.181152521783968,0 107.9087570635856,-7.181235691383502,0 107.9086804208235,-7.181143508918852,0 107.9087870918947,-7.181060728229663,0 107.9085407755884,-7.181015458332253,0 107.908336488168,-7.180803493278611,0 107.9080795880062,-7.180553738208398,0 107.9078284959867,-7.180325879422702,0 107.9076415358214,-7.180138098738261,0 107.9081122559297,-7.180246710783202,0 107.9083712522597,-7.180260303038306,0 107.9085704844385,-7.180298686194392,0 107.9086571825926,-7.180314652486479,0 107.9087740136,-7.180291861176296,0 107.9088397258077,-7.180302827711495,0 107.908919096837,-7.180334270593113,0 107.9091295546006,-7.180385061602485,0 107.9092727860307,-7.180455091718496,0 107.9093350322399,-7.180499593529947,0 107.9093964966384,-7.180526919498762,0 107.9094927589288,-7.180513298738062,0 107.9096060791255,-7.180580404420454,0 107.9096659755142,-7.180556945125647,0 107.9097601070343,-7.180609570631885,0 107.9097768293964,-7.180600434947609,0 107.9098054634572,-7.180580935874165,0 107.9098185708424,-7.180571771640984,0 107.9098353122751,-7.18055122840487,0 107.9098468500213,-7.180542118373975,0 107.9098656650614,-7.180525640312969,0 107.9098754094998,-7.180495514122227,0 107.909874617289,-7.180458352619887,0 107.9098818636524,-7.180421185233778,0 107.909885166567,-7.180409870456533,0 107.9099123148761,-7.180407974216491,0 107.9100156663104,-7.180411596096641,0 107.9100824242753,-7.180414311729055,0 107.9101393664526,-7.180422671152172,0 107.9101841698825,-7.180428382356645,0 107.9102643284094,-7.180439357328782,0 107.910352448865,-7.180454062579138,0 107.9104165048167,-7.180467012489167,0 107.9104396246249,-7.180479463555592,0 107.9104640567533,-7.180528978771336,0 107.9104918507142,-7.18054664801176,0 107.9105446469016,-7.180557356132435,0 107.9105957861565,-7.180566278291638,0 107.9106969533804,-7.180581132708725,0 107.9107308468419,-7.180591956133334,0 107.9107904781565,-7.180620137510049,0 107.9108649314181,-7.180652742470962,0 107.9110596768479,-7.18068624308024,0 107.9111297731519,-7.180701652010601,0 107.9111690075236,-7.180722273069511,0 107.9112580990528,-7.180732273059221,0 107.9113017531769,-7.180733522509102,0 107.9112515505396,-7.181067396804671,0 107.9113598237376,-7.181097814142249,0 107.9113958483652,-7.181130708151368,0 107.9113903745723,-7.181237001067423,0 107.9113674363318,-7.181324022446961,0 107.9112544623975,-7.181404615239967,0 107.911200736527,-7.181426201352592,0 107.9111736880312,-7.181454449864736,0 107.9111207924517,-7.181464577502049,0 107.9110592176987,-7.181491972977433,0 107.9110383240655,-7.18152988553444,0 107.9110229915432,-7.181575502327558,0 107.910970193413,-7.181597280283645,0 107.9109295202295,-7.18159825380506,0 107.9109134587733,-7.181629122525825,0 107.9108546617123,-7.181682197730936,0 107.9107182925382,-7.181658837854051,0 107.9105171187531,-7.181624798422749,0 107.9103172902021,-7.181578830690362,0 107.9102020946932,-7.181879526944964,0 107.9101585059775,-7.182083555434857,0 107.9102954219893,-7.182119650548662,0 
			</coordinates>
		</LineString>
	</Placemark>
</Document>
</kml>
