<?xml version="1.0" encoding="UTF-8"?>
<kml xmlns="http://www.opengis.net/kml/2.2" xmlns:gx="http://www.google.com/kml/ext/2.2" xmlns:kml="http://www.opengis.net/kml/2.2" xmlns:atom="http://www.w3.org/2005/Atom">
<Document id="document">
	<name>SWH-012</name>
	<gx:CascadingStyle kml:id="__managed_style_0610BE9AAA4124689EE8_highlight">
		<styleUrl>https://earth.google.com/balloon_components/base/1.1.0.0/card_template.kml#main</styleUrl>
		<Style>
			<IconStyle>
				<scale>1.2</scale>
				<Icon>
					<href>https://earth.google.com/earth/document/icon?color=1976d2&amp;id=2000&amp;scale=4</href>
				</Icon>
				<hotSpot x="64" y="128" xunits="pixels" yunits="insetPixels"/>
			</IconStyle>
			<LabelStyle>
			</LabelStyle>
			<LineStyle>
				<color>ff2dc0fb</color>
				<width>6</width>
			</LineStyle>
			<PolyStyle>
				<color>40ffffff</color>
			</PolyStyle>
			<BalloonStyle>
			</BalloonStyle>
		</Style>
	</gx:CascadingStyle>
	<gx:CascadingStyle kml:id="__managed_style_0610BE9AAA4124689EE8_normal">
		<styleUrl>https://earth.google.com/balloon_components/base/1.1.0.0/card_template.kml#main</styleUrl>
		<Style>
			<IconStyle>
				<Icon>
					<href>https://earth.google.com/earth/document/icon?color=1976d2&amp;id=2000&amp;scale=4</href>
				</Icon>
				<hotSpot x="64" y="128" xunits="pixels" yunits="insetPixels"/>
			</IconStyle>
			<LabelStyle>
			</LabelStyle>
			<LineStyle>
				<color>ff2dc0fb</color>
				<width>4</width>
			</LineStyle>
			<PolyStyle>
				<color>40ffffff</color>
			</PolyStyle>
			<BalloonStyle>
			</BalloonStyle>
		</Style>
	</gx:CascadingStyle>
	<StyleMap id="__managed_style_0610BE9AAA4124689EE8">
		<Pair>
			<key>normal</key>
			<styleUrl>#__managed_style_0610BE9AAA4124689EE8_normal</styleUrl>
		</Pair>
		<Pair>
			<key>highlight</key>
			<styleUrl>#__managed_style_0610BE9AAA4124689EE8_highlight</styleUrl>
		</Pair>
	</StyleMap>
	<Placemark id="096C2B44D341247CC404">
		<name>Untitled placemark</name>
		<LookAt>
			<longitude>115.1380494821669</longitude>
			<latitude>-8.371305786132506</latitude>
			<altitude>606.6034878582395</altitude>
			<heading>46.217438479671</heading>
			<tilt>35.0216939717962</tilt>
			<gx:fovy>35</gx:fovy>
			<range>389.2548017916852</range>
			<altitudeMode>absolute</altitudeMode>
		</LookAt>
		<styleUrl>#__managed_style_0610BE9AAA4124689EE8</styleUrl>
		<Point>
			<coordinates>115.138167674848,-8.371547347801652,603.2714551794821</coordinates>
		</Point>
	</Placemark>
	<Placemark id="0223C61BFC4124814FC4">
		<name>SWH-TRRC-01</name>
		<LookAt>
			<longitude>115.1370299459218</longitude>
			<latitude>-8.370503809559928</latitude>
			<altitude>624.456558055018</altitude>
			<heading>46.50654092134786</heading>
			<tilt>31.40335550293612</tilt>
			<gx:fovy>35</gx:fovy>
			<range>165.4073202613836</range>
			<altitudeMode>absolute</altitudeMode>
		</LookAt>
		<styleUrl>#__managed_style_0610BE9AAA4124689EE8</styleUrl>
		<Polygon>
			<outerBoundaryIs>
				<LinearRing>
					<coordinates>
						115.1370218688528,-8.370162124870189,0 115.1369754042804,-8.370245511546612,0 115.1369131577627,-8.370354659474096,0 115.1367359454984,-8.370654312732542,0 115.1367057815992,-8.370708414425962,0 115.1366786556037,-8.370755492157931,0 115.136652129421,-8.370806684423519,0 115.1366258248372,-8.370852439278936,0 115.1366077197255,-8.370887543841132,0 115.1365859069419,-8.370922077983879,0 115.1365660878591,-8.37095616728746,0 115.136554218406,-8.370971933044705,0 115.136552585313,-8.37098400688612,0 115.1365524956439,-8.370990101646067,0 115.1365554629124,-8.371007104761434,0 115.1365605095336,-8.371020341535056,0 115.1365657489797,-8.371033208494403,0 115.1365691816393,-8.371043842216075,0 115.1365704483663,-8.371054951118836,0 115.1365800579639,-8.37106712739218,0 115.1365860286376,-8.371084619493191,0 115.136595455235,-8.371097038028879,0 115.1365980120399,-8.371108575117336,0 115.1366053346765,-8.37111263450222,0 115.1366136073762,-8.37112285644327,0 115.136622274631,-8.371134465603321,0 115.1366355623204,-8.371146135042675,0 115.1366499828011,-8.371163392695397,0 115.1366632917154,-8.371179653755251,0 115.1366852205114,-8.371203636101789,0 115.1366967508903,-8.371214899987438,0 115.13670949495,-8.37122548891292,0 115.136727042544,-8.37124391514118,0 115.1367460184771,-8.371261153893554,0 115.1367647349797,-8.371277286962547,0 115.1367791789478,-8.371295299517991,0 115.1368152015737,-8.371334561679696,0 115.1368531249454,-8.37137286558268,0 115.136879966777,-8.371399176527124,0 115.1369062523309,-8.371428289574725,0 115.1369198679202,-8.371441036666537,0 115.1369424207186,-8.371463087574897,0 115.1369641158564,-8.37148822282858,0 115.1369872807787,-8.371520640530299,0 115.1370008603313,-8.37153413029735,0 115.1370168010334,-8.37154794841817,0 115.1370247177798,-8.371566613323282,0 115.1370512249676,-8.371592910600834,0 115.1370847452118,-8.3716118815386,0 115.1371076846407,-8.371630614937434,0 115.1371341856706,-8.371641096779681,0 115.1371495964814,-8.371635968139874,0 115.1371707551636,-8.371649523337478,0 115.1372037273352,-8.371674606404946,0 115.1372361386579,-8.371701207826874,0 115.137258253783,-8.371719993294292,0 115.1372810955763,-8.371739281286752,0 115.1373025301638,-8.371757958998094,0 115.1373338285697,-8.371782532147419,0 115.1373490404965,-8.371798878298224,0 115.1373743078136,-8.371821516383674,0 115.1373824266471,-8.371831583458693,0 115.1373917776781,-8.371846878648325,0 115.1374049626902,-8.371867320171971,0 115.1374248551349,-8.37190302260966,0 115.1374423612964,-8.371936111870484,0 115.1374672564101,-8.371980751154577,0 115.1374875099856,-8.37202458551452,0 115.1375166365153,-8.37207750444639,0 115.1375290607545,-8.372097623814481,0 115.1375461657906,-8.372129826350886,0 115.1375624903168,-8.372176448996775,0 115.1375843900193,-8.372229448559569,0 115.1375929979567,-8.372250978156861,0 115.1376109699538,-8.37229552963778,0 115.137627574752,-8.372329351773281,0 115.1376397148263,-8.372360691919756,0 115.1376497517293,-8.37239488920239,0 115.1376641386769,-8.372408321499723,0 115.1376771222653,-8.372399530784824,0 115.1376946350907,-8.372386878134256,0 115.1377153055082,-8.372375605927038,0 115.1377297622888,-8.372360383473856,0 115.1377261226901,-8.372318952676034,0 115.1377353602743,-8.37231428383757,0 115.1377622251291,-8.372289545466181,0 115.1377741172264,-8.372274140475472,0 115.1377882571631,-8.372262832927712,0 115.1378119506923,-8.372246976888649,0 115.1378427563823,-8.372230985038911,0 115.1379060927896,-8.372200942460218,0 115.137957679666,-8.372176592540914,0 115.1380058686811,-8.372151324546824,0 115.1380358758719,-8.372126535481316,0 115.1380243191836,-8.372100939982676,0 115.1380200082118,-8.372066391609604,0 115.1380107316397,-8.372016581823267,0 115.1380115678286,-8.371983381392607,0 115.1379930673652,-8.371944228384677,0 115.1379744850866,-8.371919349549556,0 115.1379355706823,-8.371900705354946,0 115.1378444601688,-8.37187210563806,0 115.1378633219558,-8.371856716206784,0 115.1378812947817,-8.371839073554664,0 115.1378997807561,-8.371821359694527,0 115.1379164130028,-8.37180660515525,0 115.1379482421405,-8.371776632182971,0 115.1379767885635,-8.371748767319161,0 115.1380175061732,-8.371710515343288,0 115.1380500979451,-8.371678217705888,0 115.1380738519367,-8.371653465930471,0 115.1380988254377,-8.371626002223209,0 115.1381209075566,-8.371598250962391,0 115.1381483848141,-8.371570163718577,0 115.1381764080487,-8.371536659584608,0 115.1381926978366,-8.371517529747047,0 115.138228763104,-8.371480334736967,0 115.138241912582,-8.371463895027443,0 115.1382544067388,-8.371448053004897,0 115.1382666905462,-8.371434381382088,0 115.1383016698682,-8.371395735748616,0 115.1383276208166,-8.371363053459612,0 115.1383419166253,-8.371336200197478,0 115.1383580318328,-8.37131169383645,0 115.1383607556582,-8.371297515365001,0 115.1383680721604,-8.371273878187786,0 115.1383816881083,-8.371248739481029,0 115.1383874908251,-8.371243243299398,0 115.1383988906441,-8.371225160221547,0 115.1384080372805,-8.371200172071902,0 115.1384139893927,-8.371183119296223,0 115.1384320295366,-8.371147324550039,0 115.1384692399853,-8.371085538469812,0 115.1384841649758,-8.37106930053816,0 115.1385116389743,-8.371039115481318,0 115.1385497365615,-8.370994759863372,0 115.13858887334,-8.370953074292148,0 115.1386255693475,-8.370913599140188,0 115.1386633461387,-8.37086813607775,0 115.138682050091,-8.370845530724683,0 115.138705944884,-8.370817769250822,0 115.1387307027323,-8.370794852256294,0 115.1387580399633,-8.370770300914321,0 115.138788213547,-8.370742800530008,0 115.1388124736759,-8.37071971301339,0 115.1388355545677,-8.370700409821236,0 115.1388621978658,-8.370679243794527,0 115.1388925416603,-8.3706530481676,0 115.1389146637194,-8.370632931292581,0 115.1389112451375,-8.370623253828198,0 115.138885175714,-8.37059695401472,0 115.1388696667979,-8.370581285877138,0 115.1388388285578,-8.370546539141856,0 115.1388116597071,-8.370514799556593,0 115.138780875661,-8.370488424137454,0 115.1387423231346,-8.370469346792603,0 115.1386925906334,-8.370457653570172,0 115.1386453096622,-8.370444297885207,0 115.1385978916498,-8.370431286968174,0 115.1385630946528,-8.37042438895215,0 115.1385213245734,-8.370419199904553,0 115.1384559539836,-8.370411902811146,0 115.138409225427,-8.37040689536272,0 115.138349006363,-8.370403472029567,0 115.1382906959473,-8.370401378120668,0 115.1382530698862,-8.370403386239573,0 115.1381675183324,-8.370404935034442,0 115.1381053398497,-8.37040655983475,0 115.13806754533,-8.370399047937147,0 115.1380342160291,-8.370386791632235,0 115.1379729004091,-8.370371290823432,0 115.1379021232559,-8.370348304477673,0 115.1378425953538,-8.370326114683396,0 115.13780193206,-8.370305592522197,0 115.1377548209086,-8.370281797976759,0 115.137708380726,-8.370264493380793,0 115.1376688683432,-8.370246520288733,0 115.1376270763549,-8.370231430591083,0 115.1375957848726,-8.37022474505633,0 115.1375537297665,-8.370221164636133,0 115.1375209265918,-8.370208264337835,0 115.1374797516396,-8.370206116014108,0 115.1374420396236,-8.370221252224463,0 115.1374071291654,-8.370230363640772,0 115.1373741914858,-8.370233840300239,0 115.1373371104621,-8.370223944906005,0 115.1372890642581,-8.370209144662409,0 115.1372443448918,-8.370182178871103,0 115.1372212187888,-8.370153755530426,0 115.1372070565188,-8.370137091066921,0 115.1371922859508,-8.370126525043794,0 115.1371743618288,-8.370120665244309,0 115.1371434807914,-8.370105814051122,0 115.1370942721033,-8.370084732202281,0 115.1370681407864,-8.370081613189754,0 115.1370580115656,-8.370088679932627,0 115.1370218688528,-8.370162124870189,0 
					</coordinates>
				</LinearRing>
			</outerBoundaryIs>
		</Polygon>
	</Placemark>
</Document>
</kml>
