<?xml version="1.0" encoding="UTF-8"?>
<kml xmlns="http://www.opengis.net/kml/2.2" xmlns:gx="http://www.google.com/kml/ext/2.2" xmlns:kml="http://www.opengis.net/kml/2.2" xmlns:atom="http://www.w3.org/2005/Atom">
<Document id="document">
	<name>SWH-011</name>
	<gx:CascadingStyle kml:id="__managed_style_0BA6B7934D411FE53C26_highlight">
		<styleUrl>https://earth.google.com/balloon_components/base/1.1.0.0/card_template.kml#main</styleUrl>
		<Style>
			<IconStyle>
				<scale>1.2</scale>
				<Icon>
					<href>https://earth.google.com/earth/document/icon?color=1976d2&amp;id=2000&amp;scale=4</href>
				</Icon>
				<hotSpot x="64" y="128" xunits="pixels" yunits="insetPixels"/>
			</IconStyle>
			<LabelStyle>
			</LabelStyle>
			<LineStyle>
				<color>ff2dc0fb</color>
				<width>6</width>
			</LineStyle>
			<PolyStyle>
				<color>40ffffff</color>
			</PolyStyle>
			<BalloonStyle>
			</BalloonStyle>
		</Style>
	</gx:CascadingStyle>
	<gx:CascadingStyle kml:id="__managed_style_0BA6B7934D411FE53C26_normal">
		<styleUrl>https://earth.google.com/balloon_components/base/1.1.0.0/card_template.kml#main</styleUrl>
		<Style>
			<IconStyle>
				<Icon>
					<href>https://earth.google.com/earth/document/icon?color=1976d2&amp;id=2000&amp;scale=4</href>
				</Icon>
				<hotSpot x="64" y="128" xunits="pixels" yunits="insetPixels"/>
			</IconStyle>
			<LabelStyle>
			</LabelStyle>
			<LineStyle>
				<color>ff2dc0fb</color>
				<width>4</width>
			</LineStyle>
			<PolyStyle>
				<color>40ffffff</color>
			</PolyStyle>
			<BalloonStyle>
			</BalloonStyle>
		</Style>
	</gx:CascadingStyle>
	<StyleMap id="__managed_style_0BA6B7934D411FE53C26">
		<Pair>
			<key>normal</key>
			<styleUrl>#__managed_style_0BA6B7934D411FE53C26_normal</styleUrl>
		</Pair>
		<Pair>
			<key>highlight</key>
			<styleUrl>#__managed_style_0BA6B7934D411FE53C26_highlight</styleUrl>
		</Pair>
	</StyleMap>
	<Placemark id="0F5F79A235411FE53BD6">
		<name>SWH-011</name>
		<LookAt>
			<longitude>107.9083975173354</longitude>
			<latitude>-7.1819317137818</latitude>
			<altitude>699.7249758903727</altitude>
			<heading>-49.96870090638502</heading>
			<tilt>63.29505887949486</tilt>
			<gx:fovy>35</gx:fovy>
			<range>391.5708465853095</range>
			<altitudeMode>absolute</altitudeMode>
		</LookAt>
		<styleUrl>#__managed_style_0BA6B7934D411FE53C26</styleUrl>
		<Polygon>
			<outerBoundaryIs>
				<LinearRing>
					<coordinates>
						107.9086641878682,-7.183403334413819,0 107.9087365162282,-7.183350778585962,0 107.9087786778812,-7.183293097505371,0 107.9088501257965,-7.183248977529643,0 107.9088696665852,-7.183212565458671,0 107.908825067469,-7.183126965593927,0 107.9089404312772,-7.183073278499956,0 107.9089885515986,-7.183154355367676,0 107.9090374415048,-7.183129862086112,0 107.9091390403153,-7.183078903897087,0 107.9091122705772,-7.18304349035861,0 107.9089847483255,-7.182856695504154,0 107.9090015783927,-7.182788630980497,0 107.9090234512202,-7.182660840950841,0 107.9090315227615,-7.182589044686771,0 107.9090508382949,-7.182530604231701,0 107.9090699697417,-7.182415155847869,0 107.909077274398,-7.182313834816107,0 107.9091123650366,-7.182199916811055,0 107.9091567573904,-7.182036014877806,0 107.9089481037702,-7.181792885164929,0 107.9087325854743,-7.181737411580636,0 107.9086567710744,-7.181715735936354,0 107.9085779627347,-7.181696604101512,0 107.9084246015957,-7.181655119106115,0 107.9082271861113,-7.181600196069684,0 107.9080326938829,-7.181548280282862,0 107.9078575471295,-7.18150047515656,0 107.9076816621923,-7.181451054016518,0 107.9074182409038,-7.181375958112401,0 107.9072975258533,-7.181343261005828,0 107.9071750660324,-7.181321820167187,0 107.9071460604628,-7.181734038287189,0 107.9071421844126,-7.181759514858784,0 107.9071264382258,-7.181775592344305,0 107.9068096013238,-7.181739973741718,0 107.9067738922335,-7.181873742994817,0 107.9067333395494,-7.182020274497707,0 107.9070443677978,-7.182088203816093,0 107.9072792509813,-7.182141510400782,0 107.9073662380443,-7.182153770103006,0 107.9074283909994,-7.182177671958614,0 107.9074680024358,-7.182229112998238,0 107.9073703118209,-7.182604037706533,0 107.9066692599215,-7.182448105786523,0 107.9064382646194,-7.182938325011963,0 107.9065566139658,-7.182959083315208,0 107.9066743019522,-7.182973177327354,0 107.9070640295751,-7.182987161672627,0 107.9074360653903,-7.183123750944581,0 107.9076178097087,-7.183190277025341,0 107.9077061282685,-7.182912941108716,0 107.907952737736,-7.183123701827079,0 107.9081360315586,-7.183295149887091,0 107.9081660079911,-7.183372830815539,0 107.908168163461,-7.183433197893612,0 107.9083020735144,-7.183477701045058,0 107.9084235408866,-7.183520504395941,0 107.9085546483933,-7.183566872709051,0 107.9086641878682,-7.183403334413819,0 
					</coordinates>
				</LinearRing>
			</outerBoundaryIs>
		</Polygon>
	</Placemark>
</Document>
</kml>
