<?xml version="1.0" encoding="UTF-8"?>
<kml xmlns="http://www.opengis.net/kml/2.2" xmlns:gx="http://www.google.com/kml/ext/2.2" xmlns:kml="http://www.opengis.net/kml/2.2" xmlns:atom="http://www.w3.org/2005/Atom">
<Document id="document">
	<name>SWH-011</name>
	<gx:CascadingStyle kml:id="__managed_style_0BA6B7934D411FE53C26_highlight">
		<styleUrl>https://earth.google.com/balloon_components/base/1.1.0.0/card_template.kml#main</styleUrl>
		<Style>
			<IconStyle>
				<scale>1.2</scale>
				<Icon>
					<href>https://earth.google.com/earth/document/icon?color=1976d2&amp;id=2000&amp;scale=4</href>
				</Icon>
				<hotSpot x="64" y="128" xunits="pixels" yunits="insetPixels"/>
			</IconStyle>
			<LabelStyle>
			</LabelStyle>
			<LineStyle>
				<color>ff2dc0fb</color>
				<width>6</width>
			</LineStyle>
			<PolyStyle>
				<color>40ffffff</color>
			</PolyStyle>
			<BalloonStyle>
			</BalloonStyle>
		</Style>
	</gx:CascadingStyle>
	<gx:CascadingStyle kml:id="__managed_style_0BA6B7934D411FE53C26_normal">
		<styleUrl>https://earth.google.com/balloon_components/base/1.1.0.0/card_template.kml#main</styleUrl>
		<Style>
			<IconStyle>
				<Icon>
					<href>https://earth.google.com/earth/document/icon?color=1976d2&amp;id=2000&amp;scale=4</href>
				</Icon>
				<hotSpot x="64" y="128" xunits="pixels" yunits="insetPixels"/>
			</IconStyle>
			<LabelStyle>
			</LabelStyle>
			<LineStyle>
				<color>ff2dc0fb</color>
				<width>4</width>
			</LineStyle>
			<PolyStyle>
				<color>40ffffff</color>
			</PolyStyle>
			<BalloonStyle>
			</BalloonStyle>
		</Style>
	</gx:CascadingStyle>
	<StyleMap id="__managed_style_0BA6B7934D411FE53C26">
		<Pair>
			<key>normal</key>
			<styleUrl>#__managed_style_0BA6B7934D411FE53C26_normal</styleUrl>
		</Pair>
		<Pair>
			<key>highlight</key>
			<styleUrl>#__managed_style_0BA6B7934D411FE53C26_highlight</styleUrl>
		</Pair>
	</StyleMap>
	<Placemark id="0F5F79A235411FE53BD6">
		<name>SWH-011</name>
		<LookAt>
			<longitude>107.9083975173354</longitude>
			<latitude>-7.1819317137818</latitude>
			<altitude>699.7249758903727</altitude>
			<heading>-49.96870090638502</heading>
			<tilt>63.29505887949486</tilt>
			<gx:fovy>35</gx:fovy>
			<range>391.5708465853095</range>
			<altitudeMode>absolute</altitudeMode>
		</LookAt>
		<styleUrl>#__managed_style_0BA6B7934D411FE53C26</styleUrl>
		<Polygon>
			<outerBoundaryIs>
				<LinearRing>
					<coordinates>
						107.9086641878682,-7.183403334413819,0 107.9087365162282,-7.183350778585962,0 107.9087786778812,-7.183293097505371,0 107.9088501257965,-7.183248977529643,0 107.9088696665852,-7.183212565458671,0 107.908825067469,-7.183126965593927,0 107.9089404312772,-7.183073278499956,0 107.9089885515986,-7.183154355367676,0 107.9090374415048,-7.183129862086112,0 107.9091390403153,-7.183078903897087,0 107.9091122705772,-7.18304349035861,0 107.9089847483255,-7.182856695504154,0 107.9090015783927,-7.182788630980497,0 107.9090234512202,-7.182660840950841,0 107.9090315227615,-7.182589044686771,0 107.9090508382949,-7.182530604231701,0 107.9090699697417,-7.182415155847869,0 107.909077274398,-7.182313834816107,0 107.9091123650366,-7.182199916811055,0 107.9091567573904,-7.182036014877806,0 107.9089481037702,-7.181792885164929,0 107.9087325854743,-7.181737411580636,0 107.9086567710744,-7.181715735936354,0 107.9085779627347,-7.181696604101512,0 107.9084246015957,-7.181655119106115,0 107.9082271861113,-7.181600196069684,0 107.9080326938829,-7.181548280282862,0 107.9078575471295,-7.18150047515656,0 107.9076816621923,-7.181451054016518,0 107.9074182409038,-7.181375958112401,0 107.9072975258533,-7.181343261005828,0 107.9071750660324,-7.181321820167187,0 107.9071460604628,-7.181734038287189,0 107.9071421844126,-7.181759514858784,0 107.9071264382258,-7.181775592344305,0 107.9068096013238,-7.181739973741718,0 107.9067738922335,-7.181873742994817,0 107.9067333395494,-7.182020274497707,0 107.9070443677978,-7.182088203816093,0 107.9072792509813,-7.182141510400782,0 107.9073662380443,-7.182153770103006,0 107.9074283909994,-7.182177671958614,0 107.9074680024358,-7.182229112998238,0 107.9073703118209,-7.182604037706533,0 107.9066626748906,-7.182443336809235,0 107.9066268195473,-7.182548353265627,0 107.9065569341366,-7.182528341381872,0 107.9065480608466,-7.182554806927316,0 107.9064382646194,-7.182938325011963,0 107.9065566139658,-7.182959083315208,0 107.9066743019522,-7.182973177327354,0 107.9070364933777,-7.183135834770025,0 107.9070465686268,-7.183108668601571,0 107.9070305339941,-7.183060021052226,0 107.9070477611146,-7.182987651639394,0 107.9072396479382,-7.18304516916356,0 107.9074360653903,-7.183123750944581,0 107.9076178097087,-7.183190277025341,0 107.9077061282685,-7.182912941108716,0 107.907952737736,-7.183123701827079,0 107.9081360315586,-7.183295149887091,0 107.9081660079911,-7.183372830815539,0 107.908168163461,-7.183433197893612,0 107.9083020735144,-7.183477701045058,0 107.9084235408866,-7.183520504395941,0 107.9085546483933,-7.183566872709051,0 107.9086641878682,-7.183403334413819,0 
					</coordinates>
				</LinearRing>
			</outerBoundaryIs>
		</Polygon>
	</Placemark>
	<Placemark id="0593F4194B411FF63CFC">
		<name>PTK-01</name>
		<visibility>0</visibility>
		<LookAt>
			<longitude>107.9087466398559</longitude>
			<latitude>-7.18216705512729</latitude>
			<altitude>699.245238463822</altitude>
			<heading>-1.251996872391185</heading>
			<tilt>27.40808217232043</tilt>
			<gx:fovy>35</gx:fovy>
			<range>260.7303314666933</range>
			<altitudeMode>absolute</altitudeMode>
		</LookAt>
		<styleUrl>#__managed_style_0BA6B7934D411FE53C26</styleUrl>
		<Polygon>
			<outerBoundaryIs>
				<LinearRing>
					<coordinates>
						107.9089958237947,-7.181862980717506,0 107.9089778744652,-7.181919962577227,0 107.908949615906,-7.182024938756964,0 107.9089309111951,-7.182088007643882,0 107.9089028553866,-7.182185210413537,0 107.9088853312556,-7.182236057144485,0 107.9088866353561,-7.182273453514665,0 107.9088801632651,-7.182346341875013,0 107.9088607576145,-7.182425426368902,0 107.9088561471946,-7.182473867908026,0 107.908913233436,-7.182496520243961,0 107.9090229739977,-7.182519649051958,0 107.9090484726061,-7.182494831289266,0 107.9090738934996,-7.182415959549822,0 107.9090928358943,-7.182272574885198,0 107.9091305421398,-7.182157519745473,0 107.9091575343121,-7.182029173490635,0 107.9089958237947,-7.181862980717506,0 
					</coordinates>
				</LinearRing>
			</outerBoundaryIs>
		</Polygon>
	</Placemark>
	<Placemark id="0B618C4E75411FF6D399">
		<name>PTK-02</name>
		<LookAt>
			<longitude>107.908723528784</longitude>
			<latitude>-7.182113886978089</latitude>
			<altitude>699.2856971448923</altitude>
			<heading>-1.251995672617178</heading>
			<tilt>27.40851787871269</tilt>
			<gx:fovy>35</gx:fovy>
			<range>365.9939948502143</range>
			<altitudeMode>absolute</altitudeMode>
		</LookAt>
		<styleUrl>#__managed_style_0BA6B7934D411FE53C26</styleUrl>
		<Polygon>
			<outerBoundaryIs>
				<LinearRing>
					<coordinates>
						107.9088736908225,-7.182389474349772,0 107.9088860656698,-7.182321086976095,0 107.9088864779833,-7.182256272289663,0 107.9088850525654,-7.182232406246149,0 107.9088978081837,-7.182193950642382,0 107.90891410157,-7.182138792416813,0 107.9089257989201,-7.182091840110878,0 107.9089311299026,-7.182053363542344,0 107.9089564808705,-7.181987775010421,0 107.9089741872667,-7.18191920122372,0 107.9089921980578,-7.181854832277731,0 107.908947899719,-7.181798796731469,0 107.908894041723,-7.181781348734106,0 107.9088244445459,-7.181760741704896,0 107.9087355649909,-7.181741812906249,0 107.9086889690784,-7.18172711887977,0 107.9086708782903,-7.181847719569456,0 107.9086461772288,-7.181942484855758,0 107.9086275030138,-7.182041219832537,0 107.9086127541044,-7.182104141806282,0 107.908581419003,-7.182256720960579,0 107.9085505391262,-7.182427084880722,0 107.9088556543738,-7.182487289657049,0 107.9088736908225,-7.182389474349772,0 
					</coordinates>
				</LinearRing>
			</outerBoundaryIs>
		</Polygon>
	</Placemark>
	<Placemark id="0C9E53937F411FF791D4">
		<name>PTK-03</name>
		<LookAt>
			<longitude>107.9083805752399</longitude>
			<latitude>-7.182248798482481</latitude>
			<altitude>699.8525152921162</altitude>
			<heading>-1.251997899218368</heading>
			<tilt>27.40770929352596</tilt>
			<gx:fovy>35</gx:fovy>
			<range>170.6455156606899</range>
			<altitudeMode>absolute</altitudeMode>
		</LookAt>
		<styleUrl>#__managed_style_0BA6B7934D411FE53C26</styleUrl>
		<Polygon>
			<outerBoundaryIs>
				<LinearRing>
					<coordinates>
						107.9085764190847,-7.182308994202167,0 107.9085932277122,-7.182221812624562,0 107.9086154469307,-7.182115709006126,0 107.908619967545,-7.182097149280231,0 107.9086411013457,-7.181983300441487,0 107.9086624716097,-7.181890750441076,0 107.9086835554497,-7.181794557414149,0 107.908696825287,-7.181731625084594,0 107.9086364542744,-7.181714940984337,0 107.9085626613608,-7.181693937017471,0 107.9084898176203,-7.181675581213867,0 107.9084080258366,-7.18165565429742,0 107.908391484973,-7.181754456692159,0 107.9083722020879,-7.181894364929149,0 107.9083588866883,-7.181977307068368,0 107.9083422328515,-7.182093421874296,0 107.9083047793428,-7.182322220836574,0 107.90834252599,-7.1824136520652,0 107.9084542175098,-7.182418435928395,0 107.9085482097288,-7.182430036257667,0 107.9085764190847,-7.182308994202167,0 
					</coordinates>
				</LinearRing>
			</outerBoundaryIs>
		</Polygon>
	</Placemark>
	<Placemark id="07C56DD553411FF8F42C">
		<name>PTK-04</name>
		<LookAt>
			<longitude>107.9077023385849</longitude>
			<latitude>-7.182101008794654</latitude>
			<altitude>699.9004897355882</altitude>
			<heading>-1.431044889871515</heading>
			<tilt>28.80690926010519</tilt>
			<gx:fovy>35</gx:fovy>
			<range>329.7954519461201</range>
			<altitudeMode>absolute</altitudeMode>
		</LookAt>
		<styleUrl>#__managed_style_0BA6B7934D411FE53C26</styleUrl>
		<Polygon>
			<outerBoundaryIs>
				<LinearRing>
					<coordinates>
						107.907991101776,-7.182265235104428,0 107.9080065332052,-7.182295033861946,0 107.9080590072512,-7.182299649855,0 107.9080983730462,-7.182298894640626,0 107.9081198202394,-7.182303425068824,0 107.9081323956977,-7.182310299867909,0 107.9081905636622,-7.182318822263898,0 107.9082507925822,-7.182316614236913,0 107.9082949111698,-7.182313844340271,0 107.9083067331584,-7.18228907667601,0 107.9083168790859,-7.182213928624122,0 107.9083368764749,-7.182100223153391,0 107.9083454419688,-7.182038976762285,0 107.9083585183905,-7.181945136089425,0 107.9083730413758,-7.181862922794536,0 107.9083854085393,-7.181766124166425,0 107.9083943189458,-7.181712339329777,0 107.908404877073,-7.181649917049648,0 107.90835863968,-7.181637331221126,0 107.9083063709485,-7.181626068569345,0 107.9082255890119,-7.18160593187856,0 107.9081405221763,-7.181581817479995,0 107.9081277789036,-7.18158820940112,0 107.9081048985438,-7.181661457364112,0 107.9080858646179,-7.181743099066802,0 107.9080648748233,-7.181859605990574,0 107.9080461137428,-7.18195641881636,0 107.9080213577705,-7.182060415374291,0 107.9080165681802,-7.182097669986516,0 107.9080173562306,-7.182128377477744,0 107.9080057898304,-7.18218468055396,0 107.907991101776,-7.182265235104428,0 
					</coordinates>
				</LinearRing>
			</outerBoundaryIs>
		</Polygon>
	</Placemark>
	<Placemark id="00A9CAA2C4411FF9FEF0">
		<name>PTK-05</name>
		<LookAt>
			<longitude>107.9078744871018</longitude>
			<latitude>-7.182047300256014</latitude>
			<altitude>699.8650449376651</altitude>
			<heading>-3.167018572126326</heading>
			<tilt>30.25269514025574</tilt>
			<gx:fovy>35</gx:fovy>
			<range>125.6741123333268</range>
			<altitudeMode>absolute</altitudeMode>
		</LookAt>
		<styleUrl>#__managed_style_0BA6B7934D411FE53C26</styleUrl>
		<Polygon>
			<outerBoundaryIs>
				<LinearRing>
					<coordinates>
						107.9079883184423,-7.182234218410362,0 107.9080012874467,-7.182171080609284,0 107.9080394969237,-7.181959234188215,0 107.9080581092152,-7.181868599592122,0 107.9080811310224,-7.181750756792258,0 107.9080859139407,-7.1817148604181,0 107.9081002142868,-7.181661118168741,0 107.9081118638715,-7.181616201431021,0 107.9081277839225,-7.181579363680441,0 107.9080960294847,-7.18156677521057,0 107.9080204840581,-7.181549112295921,0 107.9079799094543,-7.181539825300174,0 107.90784798143,-7.181509045923945,0 107.9078363884331,-7.181546528338368,0 107.9078143619769,-7.181627760458351,0 107.9077974239273,-7.181707036588482,0 107.9077844161671,-7.18175284161256,0 107.907777236575,-7.181812233089831,0 107.9077722428473,-7.181855074735399,0 107.9077648797068,-7.181875464935263,0 107.907746097414,-7.181930135160783,0 107.907735750205,-7.181989341162271,0 107.9077234028268,-7.182050012683283,0 107.9077164961757,-7.182110771716263,0 107.9077123646674,-7.182159688388812,0 107.9076951896037,-7.18219563018443,0 107.907686619341,-7.182259739452419,0 107.9076989670076,-7.182268541594451,0 107.9077417492413,-7.18228067334882,0 107.9077876783832,-7.182289727171766,0 107.9078323751439,-7.182304186819059,0 107.9078787094218,-7.182305342969377,0 107.9079015262987,-7.182303566525946,0 107.9079433397221,-7.18228907364134,0 107.9079728451271,-7.182283721145313,0 107.9079808495279,-7.18226991892984,0 107.9079883184423,-7.182234218410362,0 
					</coordinates>
				</LinearRing>
			</outerBoundaryIs>
		</Polygon>
	</Placemark>
	<Placemark id="0420FEEC26411FFB790C">
		<name>PTK-06</name>
		<LookAt>
			<longitude>107.9073548777173</longitude>
			<latitude>-7.182077866072002</latitude>
			<altitude>700.0177141691194</altitude>
			<heading>-3.167010179747453</heading>
			<tilt>31.00599850683018</tilt>
			<gx:fovy>35</gx:fovy>
			<range>385.4373121115351</range>
			<altitudeMode>absolute</altitudeMode>
		</LookAt>
		<styleUrl>#__managed_style_0BA6B7934D411FE53C26</styleUrl>
		<Polygon>
			<outerBoundaryIs>
				<LinearRing>
					<coordinates>
						107.9076996731661,-7.182179896415044,0 107.9077339155784,-7.18199037503743,0 107.9077527851602,-7.181912966831024,0 107.9077657756272,-7.18185327117786,0 107.9077847586408,-7.181758660429069,0 107.9078130516098,-7.18163921962888,0 107.9078498584455,-7.18149407277151,0 107.9077800249715,-7.181469680526362,0 107.907630203345,-7.181429943132657,0 107.9075458029646,-7.181410652241678,0 107.9075377981812,-7.181461699635524,0 107.9075122200769,-7.181549275107774,0 107.9074931996635,-7.181648724003791,0 107.9074639238581,-7.181791608452173,0 107.9074179969995,-7.181981445938238,0 107.9073902340239,-7.182143615031417,0 107.9074014168713,-7.18216376973971,0 107.9074310473589,-7.182192013764552,0 107.907458894436,-7.182221165714926,0 107.9074812855111,-7.182230856730624,0 107.9075957158465,-7.182253699082949,0 107.9076754082362,-7.182267206443079,0 107.9076996731661,-7.182179896415044,0 
					</coordinates>
				</LinearRing>
			</outerBoundaryIs>
		</Polygon>
	</Placemark>
	<Placemark id="0BFCF945B4411FFC2CD9">
		<name>PTK-07</name>
		<LookAt>
			<longitude>107.9073450036988</longitude>
			<latitude>-7.181847924615764</latitude>
			<altitude>700.2827922790046</altitude>
			<heading>-3.16701130583989</heading>
			<tilt>31.00583683366877</tilt>
			<gx:fovy>35</gx:fovy>
			<range>350.5330990660878</range>
			<altitudeMode>absolute</altitudeMode>
		</LookAt>
		<styleUrl>#__managed_style_0BA6B7934D411FE53C26</styleUrl>
		<Polygon>
			<outerBoundaryIs>
				<LinearRing>
					<coordinates>
						107.9071658657214,-7.182106510864424,0 107.9071934772806,-7.182120850388114,0 107.9072307406502,-7.182126193811817,0 107.9072915592269,-7.182135066615679,0 107.9073438843683,-7.182144217557427,0 107.9073878391742,-7.182144958029537,0 107.9074021848595,-7.182100005989051,0 107.9074245441187,-7.181981162809635,0 107.9074547851732,-7.181836807529689,0 107.9074870722473,-7.1817301698928,0 107.9075159056867,-7.181557317378593,0 107.907545604152,-7.181413989948383,0 107.9073609501963,-7.181379989950476,0 107.9072249308284,-7.181350451023486,0 107.9071590282207,-7.181337445375394,0 107.9071447440791,-7.181449560151035,0 107.9071465946143,-7.181632420418057,0 107.9071455379764,-7.181750352916031,0 107.9072124883291,-7.181770935021884,0 107.9071658657214,-7.182106510864424,0 
					</coordinates>
				</LinearRing>
			</outerBoundaryIs>
		</Polygon>
	</Placemark>
	<Placemark id="0EFF491A7D411FFE092C">
		<name>PTK-08</name>
		<LookAt>
			<longitude>107.9069867388288</longitude>
			<latitude>-7.181857038405963</latitude>
			<altitude>700.2760852060186</altitude>
			<heading>-2.087631857987324</heading>
			<tilt>31.0045612948282</tilt>
			<gx:fovy>35</gx:fovy>
			<range>75.15169713689829</range>
			<altitudeMode>absolute</altitudeMode>
		</LookAt>
		<styleUrl>#__managed_style_0BA6B7934D411FE53C26</styleUrl>
		<Polygon>
			<outerBoundaryIs>
				<LinearRing>
					<coordinates>
						107.9069378740679,-7.181904060917708,0 107.9071128983896,-7.181926281907779,0 107.9071898672674,-7.181934880556564,0 107.9071925710973,-7.181909301344241,0 107.9071923512387,-7.181875604546772,0 107.9071971548281,-7.181836205942652,0 107.9072014961056,-7.181792817056442,0 107.9071910224676,-7.181782033696589,0 107.9071177291598,-7.18177626208303,0 107.9069806801262,-7.181757722007632,0 107.9068033852388,-7.181743059307747,0 107.9068029112618,-7.181758741910452,0 107.9068023693114,-7.181797154309033,0 107.9067890865856,-7.181833565184034,0 107.9067774647814,-7.181876807810612,0 107.9069378740679,-7.181904060917708,0 
					</coordinates>
				</LinearRing>
			</outerBoundaryIs>
		</Polygon>
	</Placemark>
	<Placemark id="0B2D35DC3E411FFE8BA3">
		<name>PTK-09</name>
		<LookAt>
			<longitude>107.9068468871331</longitude>
			<latitude>-7.181922323508123</latitude>
			<altitude>700.0643332620098</altitude>
			<heading>-2.087630590645611</heading>
			<tilt>31.00483737251703</tilt>
			<gx:fovy>35</gx:fovy>
			<range>134.7552580056799</range>
			<altitudeMode>absolute</altitudeMode>
		</LookAt>
		<styleUrl>#__managed_style_0BA6B7934D411FE53C26</styleUrl>
		<Polygon>
			<outerBoundaryIs>
				<LinearRing>
					<coordinates>
						107.9067515640686,-7.18197644651301,0 107.9067419152765,-7.182014459174711,0 107.9068340889111,-7.18203858785991,0 107.9069836688995,-7.182066736593921,0 107.9070996816654,-7.182098858939372,0 107.9071610609296,-7.182105501374835,0 107.9071640622821,-7.182098348519771,0 107.9071743081175,-7.182053090693317,0 107.9071879947965,-7.181975248536246,0 107.9071920477172,-7.181941407769679,0 107.9071801975918,-7.181938228311551,0 107.9071165741147,-7.181928948358736,0 107.9070396548086,-7.181918876228431,0 107.9069657094361,-7.181905955083152,0 107.9069011400755,-7.181898196333131,0 107.9068381302154,-7.181888865036174,0 107.9067825897526,-7.181882522340363,0 107.9067515640686,-7.18197644651301,0 
					</coordinates>
				</LinearRing>
			</outerBoundaryIs>
		</Polygon>
	</Placemark>
	<Placemark id="02961D628041200199D8">
		<name>PTK-10</name>
		<LookAt>
			<longitude>107.90696114214</longitude>
			<latitude>-7.182504476410533</latitude>
			<altitude>699.1460136868992</altitude>
			<heading>-3.46970145178226</heading>
			<tilt>31.32413983105511</tilt>
			<gx:fovy>35</gx:fovy>
			<range>340.9435759293775</range>
			<altitudeMode>absolute</altitudeMode>
		</LookAt>
		<styleUrl>#__managed_style_0BA6B7934D411FE53C26</styleUrl>
		<Polygon>
			<outerBoundaryIs>
				<LinearRing>
					<coordinates>
						107.9066216614372,-7.182523396565245,0 107.9066104592264,-7.182561047411741,0 107.9066283363037,-7.182565012713421,0 107.9066597266865,-7.182577438111572,0 107.90668014013,-7.182598648040123,0 107.906694370532,-7.182633534839969,0 107.9067477192618,-7.18263835366174,0 107.9067941620191,-7.182639380701869,0 107.9069961664316,-7.182636668436982,0 107.9071193404547,-7.182633680452221,0 107.9071530780282,-7.182612844777211,0 107.907173035079,-7.182565637232941,0 107.9070224003896,-7.182525213294808,0 107.9068866246962,-7.182489585259709,0 107.9067737042033,-7.182459280033914,0 107.906671545793,-7.182437026621565,0 107.9066216614372,-7.182523396565245,0 
					</coordinates>
				</LinearRing>
			</outerBoundaryIs>
		</Polygon>
	</Placemark>
	<Placemark id="0EC14CD52D4120026987">
		<name>PTK-11</name>
		<LookAt>
			<longitude>107.9069607700661</longitude>
			<latitude>-7.182758706437967</latitude>
			<altitude>697.2980840495645</altitude>
			<heading>-3.981451026962081</heading>
			<tilt>33.47658930156943</tilt>
			<gx:fovy>35</gx:fovy>
			<range>233.8664971719482</range>
			<altitudeMode>absolute</altitudeMode>
		</LookAt>
		<styleUrl>#__managed_style_0BA6B7934D411FE53C26</styleUrl>
		<Polygon>
			<outerBoundaryIs>
				<LinearRing>
					<coordinates>
						107.9066829705768,-7.182622672414007,0 107.9066592594546,-7.182636667402223,0 107.906641002039,-7.182667180772898,0 107.9071196495921,-7.182769496979453,0 107.9071323947719,-7.182749057873951,0 107.9071502532911,-7.182726513719007,0 107.9071553173254,-7.182707394683488,0 107.9071693319415,-7.182681977953148,0 107.9071903984775,-7.182665181232569,0 107.9071896303976,-7.182653096381168,0 107.9071645849434,-7.182631822377328,0 107.9071305649556,-7.182627727867159,0 107.9070675871084,-7.182635927401141,0 107.906983362834,-7.182637384699129,0 107.9068562327251,-7.182640770028391,0 107.9067740879336,-7.182637218737291,0 107.9066829705768,-7.182622672414007,0 
					</coordinates>
				</LinearRing>
			</outerBoundaryIs>
		</Polygon>
	</Placemark>
	<Placemark id="0A6B6F0B9D4120033F84">
		<name>PTK-12</name>
		<LookAt>
			<longitude>107.9067561501322</longitude>
			<latitude>-7.182820273515144</latitude>
			<altitude>697.6854207324786</altitude>
			<heading>2.597816530614822</heading>
			<tilt>30.06468869026044</tilt>
			<gx:fovy>35</gx:fovy>
			<range>190.9890508811441</range>
			<altitudeMode>absolute</altitudeMode>
		</LookAt>
		<styleUrl>#__managed_style_0BA6B7934D411FE53C26</styleUrl>
		<Polygon>
			<outerBoundaryIs>
				<LinearRing>
					<coordinates>
						107.907086522007,-7.182864728793616,0 107.9071253204846,-7.182770928989085,0 107.9070389168045,-7.182749399552589,0 107.9068833050984,-7.182720372257063,0 107.9067367548251,-7.182691265388966,0 107.906661503622,-7.18267945631295,0 107.9066139560226,-7.182675092395401,0 107.9065169422967,-7.182654323511874,0 107.9064820223369,-7.182752333649999,0 107.9066243926929,-7.182779396055792,0 107.9067209924655,-7.182796260121853,0 107.9068808322422,-7.182826563150751,0 107.9069873620546,-7.182846259422192,0 107.907086522007,-7.182864728793616,0 
					</coordinates>
				</LinearRing>
			</outerBoundaryIs>
		</Polygon>
	</Placemark>
	<Placemark id="07DBE4844B412004624B">
		<name>PTK-13</name>
		<LookAt>
			<longitude>107.9067186221595</longitude>
			<latitude>-7.182848174300839</latitude>
			<altitude>697.7941449596905</altitude>
			<heading>2.333443136158489</heading>
			<tilt>37.81000876865721</tilt>
			<gx:fovy>35</gx:fovy>
			<range>287.566306287008</range>
			<altitudeMode>absolute</altitudeMode>
		</LookAt>
		<styleUrl>#__managed_style_0BA6B7934D411FE53C26</styleUrl>
		<Polygon>
			<outerBoundaryIs>
				<LinearRing>
					<coordinates>
						107.9064903079084,-7.182761932018713,0 107.9064510406896,-7.182921042497021,0 107.9064750626107,-7.182941067584054,0 107.9065150961553,-7.182943664828923,0 107.9065433031596,-7.18295893785581,0 107.906573412203,-7.182963702406336,0 107.9066005909849,-7.182966065035645,0 107.9066077429265,-7.182974070051528,0 107.9066333452661,-7.18297798945405,0 107.9066430158278,-7.182972854474923,0 107.9066660879993,-7.182976712909489,0 107.9066807393514,-7.182974906200537,0 107.9066941867481,-7.182984055810564,0 107.9067109833426,-7.182988751772262,0 107.9067221349414,-7.182986651965178,0 107.9067251849725,-7.182996134321096,0 107.9067461433895,-7.183005814735926,0 107.906757959415,-7.183002456648746,0 107.9067632398631,-7.183011850670962,0 107.9068169531266,-7.183040036847411,0 107.9069066643095,-7.183079058974253,0 107.9070026798176,-7.183118888413753,0 107.9070373885387,-7.183132451511859,0 107.9070431583492,-7.183123689030761,0 107.9070414469928,-7.183103043712961,0 107.9070345701047,-7.183043740124721,0 107.9070344664293,-7.183029250348848,0 107.9070394358387,-7.183016560073368,0 107.907049553563,-7.183005735568814,0 107.9070599850362,-7.182995690113636,0 107.907058673267,-7.182982050382602,0 107.907056309777,-7.182963384313839,0 107.9070620473913,-7.182948123948329,0 107.9070807920454,-7.182894111403401,0 107.9070901645799,-7.182858283467029,0 107.9070749583457,-7.182867243713057,0 107.9070347002142,-7.182860360449486,0 107.906926596844,-7.182839645714878,0 107.9068201533174,-7.182817248099025,0 107.9066537063853,-7.182784646806753,0 107.9064903079084,-7.182761932018713,0 
					</coordinates>
				</LinearRing>
			</outerBoundaryIs>
		</Polygon>
	</Placemark>
	<Placemark id="060B07A91141200549F0">
		<name>PTK-14</name>
		<LookAt>
			<longitude>107.9071885237081</longitude>
			<latitude>-7.182773251731589</latitude>
			<altitude>698.4199348855708</altitude>
			<heading>1.632606520108175</heading>
			<tilt>38.62100822829881</tilt>
			<gx:fovy>35</gx:fovy>
			<range>302.264519986602</range>
			<altitudeMode>absolute</altitudeMode>
		</LookAt>
		<styleUrl>#__managed_style_0BA6B7934D411FE53C26</styleUrl>
		<Polygon>
			<outerBoundaryIs>
				<LinearRing>
					<coordinates>
						107.9070602113118,-7.182964827248862,0 107.9070699725525,-7.182992798332404,0 107.9071268796037,-7.182995604922304,0 107.9071801206808,-7.18302185378241,0 107.9072662706898,-7.183056712125155,0 107.9073310158455,-7.183084109026242,0 107.9073918357949,-7.183105878912784,0 107.9074331029609,-7.183122995485719,0 107.9074582552655,-7.1830888289356,0 107.9074741532142,-7.183011738059974,0 107.9074923666514,-7.182946341908903,0 107.9075072975174,-7.182883055692891,0 107.9074806973011,-7.182877727141691,0 107.9074158145199,-7.182852360437498,0 107.9073699784443,-7.18282420798995,0 107.9073366149829,-7.182796830275644,0 107.9073141521782,-7.182756989239833,0 107.9072979384239,-7.182731385320968,0 107.9072768736278,-7.182702678422491,0 107.9072426509811,-7.182682436484955,0 107.9072117426692,-7.182674830298684,0 107.9071913259118,-7.182655842178051,0 107.9071754265836,-7.18267349069911,0 107.9071623058277,-7.182691886311173,0 107.9071526495954,-7.182717127073877,0 107.9071371687809,-7.182744376058478,0 107.9071202819222,-7.182764367961564,0 107.9071218555307,-7.182777388537665,0 107.9071111888259,-7.182803893139978,0 107.9070986711164,-7.182838139282119,0 107.9070797677736,-7.182890517392264,0 107.9070602113118,-7.182964827248862,0 
					</coordinates>
				</LinearRing>
			</outerBoundaryIs>
		</Polygon>
	</Placemark>
	<Placemark id="036D53EA1B4120063DA0">
		<name>PTK-15</name>
		<LookAt>
			<longitude>107.9074989019878</longitude>
			<latitude>-7.183042745507692</latitude>
			<altitude>698.4758841816304</altitude>
			<heading>1.632610912508274</heading>
			<tilt>38.61978505466872</tilt>
			<gx:fovy>35</gx:fovy>
			<range>84.3243885323227</range>
			<altitudeMode>absolute</altitudeMode>
		</LookAt>
		<styleUrl>#__managed_style_0BA6B7934D411FE53C26</styleUrl>
		<Polygon>
			<outerBoundaryIs>
				<LinearRing>
					<coordinates>
						107.9074536293732,-7.183135125719076,0 107.9074951374832,-7.183151875176294,0 107.9075711311554,-7.183177438825162,0 107.9076120474415,-7.18319219681043,0 107.9076405672792,-7.183129036487076,0 107.907664935726,-7.183040231966467,0 107.9076973155732,-7.182932165673425,0 107.9076960150556,-7.182923697182991,0 107.9076777172818,-7.182917088994609,0 107.907665705752,-7.182908875426451,0 107.9076563655295,-7.182892265555711,0 107.9076431273694,-7.18287969404465,0 107.9076108030836,-7.182879186959735,0 107.9075909986412,-7.182877445872808,0 107.9075626547422,-7.182878604346368,0 107.9075235129952,-7.18287930995364,0 107.907513644978,-7.182880444756931,0 107.9075067612147,-7.182906229243819,0 107.9075010847878,-7.182947659930986,0 107.9074866398804,-7.182987616398784,0 107.9074756093403,-7.183028266889628,0 107.9074657223997,-7.183073719013293,0 107.9074536293732,-7.183135125719076,0 
					</coordinates>
				</LinearRing>
			</outerBoundaryIs>
		</Polygon>
	</Placemark>
	<Placemark id="06439DD9204120081F4F">
		<name>PTK-16</name>
		<LookAt>
			<longitude>107.9074452272037</longitude>
			<latitude>-7.18242384158947</latitude>
			<altitude>699.4097527273914</altitude>
			<heading>1.632610605843225</heading>
			<tilt>38.61987050345139</tilt>
			<gx:fovy>35</gx:fovy>
			<range>99.54934214936657</range>
			<altitudeMode>absolute</altitudeMode>
		</LookAt>
		<styleUrl>#__managed_style_0BA6B7934D411FE53C26</styleUrl>
		<Polygon>
			<outerBoundaryIs>
				<LinearRing>
					<coordinates>
						107.9074401351565,-7.182306806367074,0 107.907422293471,-7.182380907690972,0 107.907410834124,-7.182438799583026,0 107.9074291189293,-7.182511458051041,0 107.9074547719474,-7.182522132312739,0 107.9075332880997,-7.1825435280434,0 107.9075720408979,-7.182557959661783,0 107.9075867339951,-7.182497120144848,0 107.9076169694484,-7.182397976626481,0 107.907640083681,-7.182328071911579,0 107.9076603577149,-7.18227576054283,0 107.9076245946335,-7.182267529229794,0 107.9075637772297,-7.182255906099019,0 107.9075117914413,-7.182245371781564,0 107.9074611807757,-7.182233696610851,0 107.9074401351565,-7.182306806367074,0 
					</coordinates>
				</LinearRing>
			</outerBoundaryIs>
		</Polygon>
	</Placemark>
	<Placemark id="04432B9ECA412008C540">
		<name>PTK-17</name>
		<LookAt>
			<longitude>107.9077621513803</longitude>
			<latitude>-7.182441530339095</latitude>
			<altitude>698.9783902128837</altitude>
			<heading>4.436606629068177</heading>
			<tilt>26.43415819245834</tilt>
			<gx:fovy>35</gx:fovy>
			<range>152.6367990893414</range>
			<altitudeMode>absolute</altitudeMode>
		</LookAt>
		<styleUrl>#__managed_style_0BA6B7934D411FE53C26</styleUrl>
		<Polygon>
			<outerBoundaryIs>
				<LinearRing>
					<coordinates>
						107.9076113138609,-7.18256910189915,0 107.9076897615912,-7.182588759290496,0 107.9077858197258,-7.182616206870158,0 107.9078849373234,-7.182647490663098,0 107.9079154454702,-7.182651728747277,0 107.9079206982263,-7.18262457597551,0 107.9079185272232,-7.182609820682646,0 107.907911878999,-7.182600895799114,0 107.9079134243381,-7.182577085086034,0 107.9079195523082,-7.182526007412991,0 107.9079247416156,-7.182475322614459,0 107.907931854133,-7.182417344875623,0 107.9079411790619,-7.182348496481903,0 107.9079484227512,-7.182307576097245,0 107.90792826389,-7.182311815067353,0 107.9078798232511,-7.182317914942973,0 107.9078378242756,-7.182317435998287,0 107.9077796352539,-7.18230771564817,0 107.9076944856616,-7.182287708558284,0 107.9076549655039,-7.182285730333961,0 107.9076382923874,-7.182339296831906,0 107.9076127168848,-7.182415366638534,0 107.907590224723,-7.182478894223596,0 107.9075860066713,-7.182502591547527,0 107.9075796056235,-7.182533838803927,0 107.9075700735643,-7.18256043074473,0 107.9076113138609,-7.18256910189915,0 
					</coordinates>
				</LinearRing>
			</outerBoundaryIs>
		</Polygon>
	</Placemark>
	<Placemark id="02F73E553041200B98F4">
		<name>PTK-18</name>
		<LookAt>
			<longitude>107.9078268607746</longitude>
			<latitude>-7.182426128972679</latitude>
			<altitude>699.0499421923788</altitude>
			<heading>4.436608334492016</heading>
			<tilt>27.54581424978608</tilt>
			<gx:fovy>35</gx:fovy>
			<range>108.9173569689956</range>
			<altitudeMode>absolute</altitudeMode>
		</LookAt>
		<styleUrl>#__managed_style_0BA6B7934D411FE53C26</styleUrl>
		<Polygon>
			<outerBoundaryIs>
				<LinearRing>
					<coordinates>
						107.9079462950604,-7.182304661870942,0 107.907935543012,-7.182409599681203,0 107.9079205664699,-7.182505077720396,0 107.9079087700597,-7.182603983301197,0 107.9079018794387,-7.182647913653996,0 107.9079221245428,-7.182655244608831,0 107.9079839463502,-7.182663842281231,0 107.9080273215778,-7.182667820680016,0 107.9080564913398,-7.182669289852032,0 107.908090602143,-7.1826757467725,0 107.9081192878335,-7.182676437151638,0 107.908135284595,-7.182676745348561,0 107.9081303529383,-7.182642673854417,0 107.9081250482358,-7.182582292991246,0 107.9081097355568,-7.182462334951652,0 107.9080992295354,-7.182391780418094,0 107.908098079588,-7.182368905713546,0 107.9081014597573,-7.182347444254257,0 107.9080784992882,-7.182336753635734,0 107.9080786861959,-7.182320595638203,0 107.9080708897715,-7.182313387244301,0 107.9080439159839,-7.18231111636382,0 107.9080019102451,-7.182306001688136,0 107.9079462950604,-7.182304661870942,0 
					</coordinates>
				</LinearRing>
			</outerBoundaryIs>
		</Polygon>
	</Placemark>
	<Placemark id="090CD8873441200CCD9C">
		<name>PTK-19</name>
		<LookAt>
			<longitude>107.9080627871901</longitude>
			<latitude>-7.182547652358207</latitude>
			<altitude>699.257973947786</altitude>
			<heading>4.436598311687683</heading>
			<tilt>27.54684223990386</tilt>
			<gx:fovy>35</gx:fovy>
			<range>356.1231188348756</range>
			<altitudeMode>absolute</altitudeMode>
		</LookAt>
		<styleUrl>#__managed_style_0BA6B7934D411FE53C26</styleUrl>
		<Polygon>
			<outerBoundaryIs>
				<LinearRing>
					<coordinates>
						107.9081284193824,-7.182312669526346,0 107.9081073659874,-7.182366771503512,0 107.9081189272139,-7.182479049070441,0 107.9081329520148,-7.182602610228882,0 107.9081388473931,-7.182639430641668,0 107.9081485597412,-7.182647484105392,0 107.9081510373839,-7.182661858077899,0 107.9081551990415,-7.182683492342074,0 107.9081581397924,-7.182688864867296,0 107.9081748543234,-7.182691763585893,0 107.9081976713144,-7.182694866548348,0 107.9082178906356,-7.1826998214792,0 107.9082465415691,-7.1827026950057,0 107.9082653176083,-7.18270310805633,0 107.9082740426419,-7.182699063843156,0 107.9082775328595,-7.182693506770008,0 107.9082813292589,-7.182676081022983,0 107.908289844277,-7.182622344470235,0 107.908300058894,-7.18256518429619,0 107.9083112376955,-7.182524887877761,0 107.9083225225219,-7.182466133444239,0 107.9083317950852,-7.182421084989455,0 107.9083282318326,-7.18240615731328,0 107.9083125785063,-7.182366045788805,0 107.9083023290479,-7.1823367180478,0 107.9082987339453,-7.182314502525711,0 107.9082674058836,-7.182315017607547,0 107.9082192229524,-7.182318151822629,0 107.9081747102589,-7.18231575529189,0 107.9081284193824,-7.182312669526346,0 
					</coordinates>
				</LinearRing>
			</outerBoundaryIs>
		</Polygon>
	</Placemark>
	<Placemark id="086411447741200D6719">
		<name>PTK-20</name>
		<LookAt>
			<longitude>107.9085412018816</longitude>
			<latitude>-7.182594866433138</latitude>
			<altitude>699.4945245282665</altitude>
			<heading>4.436607720705929</heading>
			<tilt>27.54587718995937</tilt>
			<gx:fovy>35</gx:fovy>
			<range>124.0538474836831</range>
			<altitudeMode>absolute</altitudeMode>
		</LookAt>
		<styleUrl>#__managed_style_0BA6B7934D411FE53C26</styleUrl>
		<Polygon>
			<outerBoundaryIs>
				<LinearRing>
					<coordinates>
						107.9083456744468,-7.182413713580551,0 107.9083190365764,-7.182524778326544,0 107.9083023834865,-7.182616691433733,0 107.9082877126281,-7.18270380060129,0 107.9083036829129,-7.182723688912164,0 107.9083983394917,-7.182744539859353,0 107.9085145272362,-7.18277510541455,0 107.9086252166766,-7.18279448110158,0 107.9087132367472,-7.182813974478091,0 107.9087893754583,-7.182830721870812,0 107.9088153324818,-7.182723062748369,0 107.9088279497459,-7.182653218897676,0 107.9088402142963,-7.182587306150963,0 107.9088466834871,-7.182542451856651,0 107.9088547835125,-7.182488140992231,0 107.9088015495338,-7.182484679682619,0 107.9086852910143,-7.182456928217065,0 107.9085491033957,-7.182432324419177,0 107.9084870972036,-7.182424509396889,0 107.9083903753968,-7.182419111851666,0 107.9083456744468,-7.182413713580551,0 
					</coordinates>
				</LinearRing>
			</outerBoundaryIs>
		</Polygon>
	</Placemark>
	<Placemark id="0D4911BB9F41200E24B8">
		<name>PTK-21</name>
		<LookAt>
			<longitude>107.9088060701658</longitude>
			<latitude>-7.182270781534682</latitude>
			<altitude>699.229071563434</altitude>
			<heading>4.436591704657154</heading>
			<tilt>29.25662301359496</tilt>
			<gx:fovy>35</gx:fovy>
			<range>495.4540985061612</range>
			<altitudeMode>absolute</altitudeMode>
		</LookAt>
		<styleUrl>#__managed_style_0BA6B7934D411FE53C26</styleUrl>
		<Polygon>
			<outerBoundaryIs>
				<LinearRing>
					<coordinates>
						107.9088572270361,-7.182491421642689,0 107.9088499452425,-7.182533198926513,0 107.908836960164,-7.182612771360753,0 107.9088273290802,-7.182668773162915,0 107.9088086525648,-7.182752817980679,0 107.9087912785814,-7.182829173159896,0 107.9088577607631,-7.182842562379547,0 107.9088978223585,-7.182855204520886,0 107.9089478688695,-7.18286456527833,0 107.9089789362941,-7.18286747085884,0 107.9089910520377,-7.182857436559664,0 107.9089958561029,-7.182839323588698,0 107.9090012006293,-7.182799756601705,0 107.9090140176282,-7.182735444116774,0 107.9090309399716,-7.182655800899207,0 107.9090498390256,-7.182539543399853,0 107.9090534460464,-7.182509806892732,0 107.9089984888392,-7.182506434616758,0 107.9088572270361,-7.182491421642689,0 
					</coordinates>
				</LinearRing>
			</outerBoundaryIs>
		</Polygon>
	</Placemark>
	<Placemark id="0F879D29E341200EDB64">
		<name>PTK-22</name>
		<LookAt>
			<longitude>107.9084167175133</longitude>
			<latitude>-7.182852651335896</latitude>
			<altitude>698.8916493148048</altitude>
			<heading>4.436607901147108</heading>
			<tilt>29.25496176358971</tilt>
			<gx:fovy>35</gx:fovy>
			<range>117.4157830270451</range>
			<altitudeMode>absolute</altitudeMode>
		</LookAt>
		<styleUrl>#__managed_style_0BA6B7934D411FE53C26</styleUrl>
		<Polygon>
			<outerBoundaryIs>
				<LinearRing>
					<coordinates>
						107.9085143207984,-7.182778402199281,0 107.9084210549633,-7.182753000620119,0 107.9083183638684,-7.18273023119071,0 107.908259700852,-7.182712139044971,0 107.9081723219082,-7.182692894965815,0 107.9081443391805,-7.182688777673056,0 107.9081476804445,-7.182719298232284,0 107.9081626954333,-7.182746646626626,0 107.908195662505,-7.18279019042639,0 107.9082581363278,-7.182874891255343,0 107.9082844446602,-7.182908171246392,0 107.9083403292087,-7.182982155927719,0 107.9083843455128,-7.18304721875176,0 107.908407106934,-7.183073205987167,0 107.9084134379638,-7.183074574135915,0 107.9084192540479,-7.183068450127934,0 107.9084278873275,-7.183046628867856,0 107.9084374421482,-7.183011826382151,0 107.908457454175,-7.182936361539261,0 107.908477821413,-7.182882236809509,0 107.9084944565087,-7.182828068672455,0 107.9085143207984,-7.182778402199281,0 
					</coordinates>
				</LinearRing>
			</outerBoundaryIs>
		</Polygon>
	</Placemark>
	<Placemark id="01B928B78941200F8CF0">
		<name>PTK-23</name>
		<LookAt>
			<longitude>107.908743609169</longitude>
			<latitude>-7.182884065366615</latitude>
			<altitude>698.6287533283671</altitude>
			<heading>6.054785313959426</heading>
			<tilt>37.71874780399006</tilt>
			<gx:fovy>35</gx:fovy>
			<range>205.9235370286115</range>
			<altitudeMode>absolute</altitudeMode>
		</LookAt>
		<styleUrl>#__managed_style_0BA6B7934D411FE53C26</styleUrl>
		<Polygon>
			<outerBoundaryIs>
				<LinearRing>
					<coordinates>
						107.9084181162397,-7.183082486763099,0 107.9084582125205,-7.183155485554965,0 107.9084930028902,-7.183200126673171,0 107.9085064916032,-7.183206099504855,0 107.9085259962511,-7.183220659948673,0 107.908538486704,-7.183240219360045,0 107.9085497572599,-7.183253855538786,0 107.9085555380189,-7.183262193747304,0 107.9085676725984,-7.183258069909605,0 107.9085861774232,-7.183237194127013,0 107.9085958663675,-7.1832064226647,0 107.9086171029811,-7.183189745928613,0 107.90865001956,-7.183167680435054,0 107.9086790805771,-7.183160669074253,0 107.9087295188739,-7.183142009756593,0 107.9087549370417,-7.183136097828572,0 107.9087628892145,-7.183117263849505,0 107.9087649798974,-7.183062749058032,0 107.9087700179214,-7.183016784411986,0 107.9087719050483,-7.18299153557056,0 107.9087739739545,-7.182952394470685,0 107.9087729417742,-7.182930169811925,0 107.9087790112043,-7.182898387148264,0 107.9087826625794,-7.182863212836026,0 107.9087871854638,-7.182832359781032,0 107.9087680859691,-7.182827060515944,0 107.908732398612,-7.182821304502076,0 107.9086855546637,-7.182807476602671,0 107.9086353567796,-7.182802138427276,0 107.9085672983577,-7.182786313180149,0 107.908511188554,-7.182774749504156,0 107.90850285617,-7.182804806547241,0 107.9084914253277,-7.182841071537627,0 107.9084755759091,-7.18288937330957,0 107.9084583059639,-7.182957494080837,0 107.9084429688141,-7.183005787536902,0 107.9084304005496,-7.183048563381581,0 107.9084181162397,-7.183082486763099,0 
					</coordinates>
				</LinearRing>
			</outerBoundaryIs>
		</Polygon>
	</Placemark>
</Document>
</kml>
