<?xml version="1.0" encoding="UTF-8"?>
<kml xmlns="http://www.opengis.net/kml/2.2">
  <Document>
    <name>SWH-011 — Kebutuhan air (FL)</name>
    <Style id="s_PTK-01"><LineStyle><color>ffffffff</color><width>1.2</width></LineStyle><PolyStyle><color>9ec19723</color></PolyStyle></Style>
    <Style id="s_PTK-02"><LineStyle><color>ffffffff</color><width>1.2</width></LineStyle><PolyStyle><color>9eb1f8ed</color></PolyStyle></Style>
    <Style id="s_PTK-03"><LineStyle><color>ffffffff</color><width>1.2</width></LineStyle><PolyStyle><color>9eb1f7ec</color></PolyStyle></Style>
    <Style id="s_PTK-04"><LineStyle><color>ffffffff</color><width>1.2</width></LineStyle><PolyStyle><color>9eb7dda9</color></PolyStyle></Style>
    <Style id="s_PTK-05"><LineStyle><color>ffffffff</color><width>1.2</width></LineStyle><PolyStyle><color>9ed9ffff</color></PolyStyle></Style>
    <Style id="s_PTK-06"><LineStyle><color>ffffffff</color><width>1.2</width></LineStyle><PolyStyle><color>9eb5e6c0</color></PolyStyle></Style>
    <Style id="s_PTK-07"><LineStyle><color>ffffffff</color><width>1.2</width></LineStyle><PolyStyle><color>9ec3ab36</color></PolyStyle></Style>
    <Style id="s_PTK-08"><LineStyle><color>ffffffff</color><width>1.2</width></LineStyle><PolyStyle><color>9eb3eed4</color></PolyStyle></Style>
    <Style id="s_PTK-09"><LineStyle><color>ffffffff</color><width>1.2</width></LineStyle><PolyStyle><color>9eb6e0b0</color></PolyStyle></Style>
    <Style id="s_PTK-10"><LineStyle><color>ffffffff</color><width>1.2</width></LineStyle><PolyStyle><color>9eb2f2dd</color></PolyStyle></Style>
    <Style id="s_PTK-11"><LineStyle><color>ffffffff</color><width>1.2</width></LineStyle><PolyStyle><color>9eb3f0d9</color></PolyStyle></Style>
    <Style id="s_PTK-12"><LineStyle><color>ffffffff</color><width>1.2</width></LineStyle><PolyStyle><color>9ebad087</color></PolyStyle></Style>
    <Style id="s_PTK-13"><LineStyle><color>ffffffff</color><width>1.2</width></LineStyle><PolyStyle><color>9ebbcd7e</color></PolyStyle></Style>
    <Style id="s_PTK-14"><LineStyle><color>ffffffff</color><width>1.2</width></LineStyle><PolyStyle><color>9eb7dca5</color></PolyStyle></Style>
    <Style id="s_PTK-15"><LineStyle><color>ffffffff</color><width>1.2</width></LineStyle><PolyStyle><color>9eb3f0da</color></PolyStyle></Style>
    <Style id="s_PTK-16"><LineStyle><color>ffffffff</color><width>1.2</width></LineStyle><PolyStyle><color>9ec3ab36</color></PolyStyle></Style>
    <Style id="s_PTK-17"><LineStyle><color>ffffffff</color><width>1.2</width></LineStyle><PolyStyle><color>9e581d08</color></PolyStyle></Style>
    <Style id="s_PTK-18"><LineStyle><color>ffffffff</color><width>1.2</width></LineStyle><PolyStyle><color>9ec3ab36</color></PolyStyle></Style>
    <Style id="s_PTK-19"><LineStyle><color>ffffffff</color><width>1.2</width></LineStyle><PolyStyle><color>9eb07020</color></PolyStyle></Style>
    <Style id="s_PTK-20"><LineStyle><color>ffffffff</color><width>1.2</width></LineStyle><PolyStyle><color>9eb3f0da</color></PolyStyle></Style>
    <Style id="s_PTK-21"><LineStyle><color>ffffffff</color><width>1.2</width></LineStyle><PolyStyle><color>9ec2fbf5</color></PolyStyle></Style>
    <Style id="s_PTK-22"><LineStyle><color>ffffffff</color><width>1.2</width></LineStyle><PolyStyle><color>9ebec467</color></PolyStyle></Style>
    <Style id="s_PTK-23"><LineStyle><color>ffffffff</color><width>1.2</width></LineStyle><PolyStyle><color>9eb9d490</color></PolyStyle></Style>
    <Placemark><name>PTK-01</name><description><![CDATA[<b>Kebutuhan air (FL): 462.0 mm/musim</b><br/><hr/>Luas: 1,426 m2 = 0.1426 ha<br/>Perkolasi: 1.14e-06 /detik<br/><hr/><b>Kebutuhan air (FL)</b><br/>&nbsp;462 mm = 658.9 m3<br/>&nbsp;Debit tumbuh: 0.107 l/dt<br/>&nbsp;Debit isi (6 jam): 5.38 l/dt<br/>&nbsp;Diameter pintu: 16 cm<br/><hr/><b>Water loss</b><br/>&nbsp;Menguap : 511 mm (73%)<br/>&nbsp;Meresap : 166 mm (24%)<br/>&nbsp;Mengalir: 24 mm (3%)]]></description><styleUrl>#s_PTK-01</styleUrl><Polygon><outerBoundaryIs><LinearRing><coordinates>107.90899582,-7.18186298,0 107.90897787,-7.18191996,0 107.90894962,-7.18202494,0 107.90893091,-7.18208801,0 107.90890286,-7.18218521,0 107.90888533,-7.18223606,0 107.90888664,-7.18227345,0 107.90888016,-7.18234634,0 107.90886076,-7.18242543,0 107.90885615,-7.18247387,0 107.90891323,-7.18249652,0 107.90902297,-7.18251965,0 107.90904847,-7.18249483,0 107.90907389,-7.18241596,0 107.90909284,-7.18227257,0 107.90913054,-7.18215752,0 107.90915753,-7.18202917,0 107.90899582,-7.18186298,0</coordinates></LinearRing></outerBoundaryIs></Polygon></Placemark>
    <Placemark><name>PTK-02</name><description><![CDATA[<b>Kebutuhan air (FL): 404.8 mm/musim</b><br/><hr/>Luas: 2,627 m2 = 0.2627 ha<br/>Perkolasi: 5.76e-07 /detik<br/><hr/><b>Kebutuhan air (FL)</b><br/>&nbsp;405 mm = 1,063.5 m3<br/>&nbsp;Debit tumbuh: 0.172 l/dt<br/>&nbsp;Debit isi (6 jam): 9.88 l/dt<br/>&nbsp;Diameter pintu: 21 cm<br/><hr/><b>Water loss</b><br/>&nbsp;Menguap : 511 mm (80%)<br/>&nbsp;Meresap : 86 mm (14%)<br/>&nbsp;Mengalir: 39 mm (6%)]]></description><styleUrl>#s_PTK-02</styleUrl><Polygon><outerBoundaryIs><LinearRing><coordinates>107.90887369,-7.18238947,0 107.90888607,-7.18232109,0 107.90888648,-7.18225627,0 107.90888505,-7.18223241,0 107.90889781,-7.18219395,0 107.90891410,-7.18213879,0 107.90892580,-7.18209184,0 107.90893113,-7.18205336,0 107.90895648,-7.18198778,0 107.90897419,-7.18191920,0 107.90899220,-7.18185483,0 107.90894790,-7.18179880,0 107.90889404,-7.18178135,0 107.90882444,-7.18176074,0 107.90873556,-7.18174181,0 107.90868897,-7.18172712,0 107.90867088,-7.18184772,0 107.90864618,-7.18194248,0 107.90862750,-7.18204122,0 107.90861275,-7.18210414,0 107.90858142,-7.18225672,0 107.90855054,-7.18242708,0 107.90885565,-7.18248729,0 107.90887369,-7.18238947,0</coordinates></LinearRing></outerBoundaryIs></Polygon></Placemark>
    <Placemark><name>PTK-03</name><description><![CDATA[<b>Kebutuhan air (FL): 405.2 mm/musim</b><br/><hr/>Luas: 2,467 m2 = 0.2467 ha<br/>Perkolasi: 6.44e-07 /detik<br/><hr/><b>Kebutuhan air (FL)</b><br/>&nbsp;405 mm = 999.6 m3<br/>&nbsp;Debit tumbuh: 0.162 l/dt<br/>&nbsp;Debit isi (6 jam): 9.28 l/dt<br/>&nbsp;Diameter pintu: 21 cm<br/><hr/><b>Water loss</b><br/>&nbsp;Menguap : 511 mm (79%)<br/>&nbsp;Meresap : 96 mm (15%)<br/>&nbsp;Mengalir: 37 mm (6%)]]></description><styleUrl>#s_PTK-03</styleUrl><Polygon><outerBoundaryIs><LinearRing><coordinates>107.90857642,-7.18230899,0 107.90859323,-7.18222181,0 107.90861545,-7.18211571,0 107.90861997,-7.18209715,0 107.90864110,-7.18198330,0 107.90866247,-7.18189075,0 107.90868356,-7.18179456,0 107.90869683,-7.18173163,0 107.90863645,-7.18171494,0 107.90856266,-7.18169394,0 107.90848982,-7.18167558,0 107.90840803,-7.18165565,0 107.90839148,-7.18175446,0 107.90837220,-7.18189436,0 107.90835889,-7.18197731,0 107.90834223,-7.18209342,0 107.90830478,-7.18232222,0 107.90834253,-7.18241365,0 107.90845422,-7.18241844,0 107.90854821,-7.18243004,0 107.90857642,-7.18230899,0</coordinates></LinearRing></outerBoundaryIs></Polygon></Placemark>
    <Placemark><name>PTK-04</name><description><![CDATA[<b>Kebutuhan air (FL): 425.9 mm/musim</b><br/><hr/>Luas: 2,624 m2 = 0.2624 ha<br/>Perkolasi: 7.85e-07 /detik<br/><hr/><b>Kebutuhan air (FL)</b><br/>&nbsp;426 mm = 1,117.7 m3<br/>&nbsp;Debit tumbuh: 0.181 l/dt<br/>&nbsp;Debit isi (6 jam): 9.88 l/dt<br/>&nbsp;Diameter pintu: 21 cm<br/><hr/><b>Water loss</b><br/>&nbsp;Menguap : 511 mm (77%)<br/>&nbsp;Meresap : 116 mm (18%)<br/>&nbsp;Mengalir: 37 mm (6%)]]></description><styleUrl>#s_PTK-04</styleUrl><Polygon><outerBoundaryIs><LinearRing><coordinates>107.90799110,-7.18226524,0 107.90800653,-7.18229503,0 107.90805901,-7.18229965,0 107.90809837,-7.18229889,0 107.90811982,-7.18230343,0 107.90813240,-7.18231030,0 107.90819056,-7.18231882,0 107.90825079,-7.18231661,0 107.90829491,-7.18231384,0 107.90830673,-7.18228908,0 107.90831688,-7.18221393,0 107.90833688,-7.18210022,0 107.90834544,-7.18203898,0 107.90835852,-7.18194514,0 107.90837304,-7.18186292,0 107.90838541,-7.18176612,0 107.90839432,-7.18171234,0 107.90840488,-7.18164992,0 107.90835864,-7.18163733,0 107.90830637,-7.18162607,0 107.90822559,-7.18160593,0 107.90814052,-7.18158182,0 107.90812778,-7.18158821,0 107.90810490,-7.18166146,0 107.90808586,-7.18174310,0 107.90806487,-7.18185961,0 107.90804611,-7.18195642,0 107.90802136,-7.18206042,0 107.90801657,-7.18209767,0 107.90801736,-7.18212838,0 107.90800579,-7.18218468,0 107.90799110,-7.18226524,0</coordinates></LinearRing></outerBoundaryIs></Polygon></Placemark>
    <Placemark><name>PTK-05</name><description><![CDATA[<b>Kebutuhan air (FL): 389.7 mm/musim</b><br/><hr/>Luas: 2,704 m2 = 0.2704 ha<br/>Perkolasi: 4.78e-07 /detik<br/><hr/><b>Kebutuhan air (FL)</b><br/>&nbsp;390 mm = 1,053.5 m3<br/>&nbsp;Debit tumbuh: 0.171 l/dt<br/>&nbsp;Debit isi (6 jam): 10.16 l/dt<br/>&nbsp;Diameter pintu: 22 cm<br/><hr/><b>Water loss</b><br/>&nbsp;Menguap : 511 mm (82%)<br/>&nbsp;Meresap : 73 mm (12%)<br/>&nbsp;Mengalir: 37 mm (6%)]]></description><styleUrl>#s_PTK-05</styleUrl><Polygon><outerBoundaryIs><LinearRing><coordinates>107.90798832,-7.18223422,0 107.90800129,-7.18217108,0 107.90803950,-7.18195923,0 107.90805811,-7.18186860,0 107.90808113,-7.18175076,0 107.90808591,-7.18171486,0 107.90810021,-7.18166112,0 107.90811186,-7.18161620,0 107.90812778,-7.18157936,0 107.90809603,-7.18156678,0 107.90802048,-7.18154911,0 107.90797991,-7.18153983,0 107.90784798,-7.18150905,0 107.90783639,-7.18154653,0 107.90781436,-7.18162776,0 107.90779742,-7.18170704,0 107.90778442,-7.18175284,0 107.90777724,-7.18181223,0 107.90777224,-7.18185507,0 107.90776488,-7.18187546,0 107.90774610,-7.18193014,0 107.90773575,-7.18198934,0 107.90772340,-7.18205001,0 107.90771650,-7.18211077,0 107.90771236,-7.18215969,0 107.90769519,-7.18219563,0 107.90768662,-7.18225974,0 107.90769897,-7.18226854,0 107.90774175,-7.18228067,0 107.90778768,-7.18228973,0 107.90783238,-7.18230419,0 107.90787871,-7.18230534,0 107.90790153,-7.18230357,0 107.90794334,-7.18228907,0 107.90797285,-7.18228372,0 107.90798085,-7.18226992,0 107.90798832,-7.18223422,0</coordinates></LinearRing></outerBoundaryIs></Polygon></Placemark>
    <Placemark><name>PTK-06</name><description><![CDATA[<b>Kebutuhan air (FL): 421.4 mm/musim</b><br/><hr/>Luas: 3,030 m2 = 0.3030 ha<br/>Perkolasi: 7.45e-07 /detik<br/><hr/><b>Kebutuhan air (FL)</b><br/>&nbsp;421 mm = 1,276.8 m3<br/>&nbsp;Debit tumbuh: 0.207 l/dt<br/>&nbsp;Debit isi (6 jam): 11.40 l/dt<br/>&nbsp;Diameter pintu: 23 cm<br/><hr/><b>Water loss</b><br/>&nbsp;Menguap : 511 mm (77%)<br/>&nbsp;Meresap : 111 mm (17%)<br/>&nbsp;Mengalir: 38 mm (6%)]]></description><styleUrl>#s_PTK-06</styleUrl><Polygon><outerBoundaryIs><LinearRing><coordinates>107.90769967,-7.18217990,0 107.90773392,-7.18199038,0 107.90775279,-7.18191297,0 107.90776578,-7.18185327,0 107.90778476,-7.18175866,0 107.90781305,-7.18163922,0 107.90784986,-7.18149407,0 107.90778002,-7.18146968,0 107.90763020,-7.18142994,0 107.90754580,-7.18141065,0 107.90753780,-7.18146170,0 107.90751222,-7.18154928,0 107.90749320,-7.18164872,0 107.90746392,-7.18179161,0 107.90741800,-7.18198145,0 107.90739023,-7.18214362,0 107.90740142,-7.18216377,0 107.90743105,-7.18219201,0 107.90745889,-7.18222117,0 107.90748129,-7.18223086,0 107.90759572,-7.18225370,0 107.90767541,-7.18226721,0 107.90769967,-7.18217990,0</coordinates></LinearRing></outerBoundaryIs></Polygon></Placemark>
    <Placemark><name>PTK-07</name><description><![CDATA[<b>Kebutuhan air (FL): 454.1 mm/musim</b><br/><hr/>Luas: 2,841 m2 = 0.2841 ha<br/>Perkolasi: 1.06e-06 /detik<br/><hr/><b>Kebutuhan air (FL)</b><br/>&nbsp;454 mm = 1,290.2 m3<br/>&nbsp;Debit tumbuh: 0.209 l/dt<br/>&nbsp;Debit isi (6 jam): 10.71 l/dt<br/>&nbsp;Diameter pintu: 22 cm<br/><hr/><b>Water loss</b><br/>&nbsp;Menguap : 511 mm (74%)<br/>&nbsp;Meresap : 156 mm (22%)<br/>&nbsp;Mengalir: 26 mm (4%)]]></description><styleUrl>#s_PTK-07</styleUrl><Polygon><outerBoundaryIs><LinearRing><coordinates>107.90716587,-7.18210651,0 107.90719348,-7.18212085,0 107.90723074,-7.18212619,0 107.90729156,-7.18213507,0 107.90734388,-7.18214422,0 107.90738784,-7.18214496,0 107.90740218,-7.18210001,0 107.90742454,-7.18198116,0 107.90745479,-7.18183681,0 107.90748707,-7.18173017,0 107.90751591,-7.18155732,0 107.90754560,-7.18141399,0 107.90736095,-7.18137999,0 107.90722493,-7.18135045,0 107.90715903,-7.18133745,0 107.90714474,-7.18144956,0 107.90714659,-7.18163242,0 107.90714554,-7.18175035,0 107.90721249,-7.18177094,0 107.90716587,-7.18210651,0</coordinates></LinearRing></outerBoundaryIs></Polygon></Placemark>
    <Placemark><name>PTK-08</name><description><![CDATA[<b>Kebutuhan air (FL): 414.8 mm/musim</b><br/><hr/>Luas: 727 m2 = 0.0727 ha<br/>Perkolasi: 7.17e-07 /detik<br/><hr/><b>Kebutuhan air (FL)</b><br/>&nbsp;415 mm = 301.6 m3<br/>&nbsp;Debit tumbuh: 0.049 l/dt<br/>&nbsp;Debit isi (6 jam): 2.74 l/dt<br/>&nbsp;Diameter pintu: 11 cm<br/><hr/><b>Water loss</b><br/>&nbsp;Menguap : 511 mm (78%)<br/>&nbsp;Meresap : 107 mm (16%)<br/>&nbsp;Mengalir: 35 mm (5%)]]></description><styleUrl>#s_PTK-08</styleUrl><Polygon><outerBoundaryIs><LinearRing><coordinates>107.90693787,-7.18190406,0 107.90711290,-7.18192628,0 107.90718987,-7.18193488,0 107.90719257,-7.18190930,0 107.90719235,-7.18187560,0 107.90719715,-7.18183621,0 107.90720150,-7.18179282,0 107.90719102,-7.18178203,0 107.90711773,-7.18177626,0 107.90698068,-7.18175772,0 107.90680339,-7.18174306,0 107.90680291,-7.18175874,0 107.90680237,-7.18179715,0 107.90678909,-7.18183357,0 107.90677746,-7.18187681,0 107.90693787,-7.18190406,0</coordinates></LinearRing></outerBoundaryIs></Polygon></Placemark>
    <Placemark><name>PTK-09</name><description><![CDATA[<b>Kebutuhan air (FL): 424.3 mm/musim</b><br/><hr/>Luas: 808 m2 = 0.0808 ha<br/>Perkolasi: 7.73e-07 /detik<br/><hr/><b>Kebutuhan air (FL)</b><br/>&nbsp;424 mm = 343.1 m3<br/>&nbsp;Debit tumbuh: 0.056 l/dt<br/>&nbsp;Debit isi (6 jam): 3.04 l/dt<br/>&nbsp;Diameter pintu: 12 cm<br/><hr/><b>Water loss</b><br/>&nbsp;Menguap : 511 mm (77%)<br/>&nbsp;Meresap : 115 mm (17%)<br/>&nbsp;Mengalir: 37 mm (6%)]]></description><styleUrl>#s_PTK-09</styleUrl><Polygon><outerBoundaryIs><LinearRing><coordinates>107.90675156,-7.18197645,0 107.90674192,-7.18201446,0 107.90683409,-7.18203859,0 107.90698367,-7.18206674,0 107.90709968,-7.18209886,0 107.90716106,-7.18210550,0 107.90716406,-7.18209835,0 107.90717431,-7.18205309,0 107.90718799,-7.18197525,0 107.90719205,-7.18194141,0 107.90718020,-7.18193823,0 107.90711657,-7.18192895,0 107.90703965,-7.18191888,0 107.90696571,-7.18190596,0 107.90690114,-7.18189820,0 107.90683813,-7.18188887,0 107.90678259,-7.18188252,0 107.90675156,-7.18197645,0</coordinates></LinearRing></outerBoundaryIs></Polygon></Placemark>
    <Placemark><name>PTK-10</name><description><![CDATA[<b>Kebutuhan air (FL): 410.9 mm/musim</b><br/><hr/>Luas: 877 m2 = 0.0877 ha<br/>Perkolasi: 6.79e-07 /detik<br/><hr/><b>Kebutuhan air (FL)</b><br/>&nbsp;411 mm = 360.5 m3<br/>&nbsp;Debit tumbuh: 0.058 l/dt<br/>&nbsp;Debit isi (6 jam): 3.30 l/dt<br/>&nbsp;Diameter pintu: 12 cm<br/><hr/><b>Water loss</b><br/>&nbsp;Menguap : 511 mm (79%)<br/>&nbsp;Meresap : 102 mm (16%)<br/>&nbsp;Mengalir: 36 mm (6%)]]></description><styleUrl>#s_PTK-10</styleUrl><Polygon><outerBoundaryIs><LinearRing><coordinates>107.90662166,-7.18252340,0 107.90661046,-7.18256105,0 107.90662834,-7.18256501,0 107.90665973,-7.18257744,0 107.90668014,-7.18259865,0 107.90669437,-7.18263353,0 107.90674772,-7.18263835,0 107.90679416,-7.18263938,0 107.90699617,-7.18263667,0 107.90711934,-7.18263368,0 107.90715308,-7.18261284,0 107.90717304,-7.18256564,0 107.90702240,-7.18252521,0 107.90688662,-7.18248959,0 107.90677370,-7.18245928,0 107.90667155,-7.18243703,0 107.90662166,-7.18252340,0</coordinates></LinearRing></outerBoundaryIs></Polygon></Placemark>
    <Placemark><name>PTK-11</name><description><![CDATA[<b>Kebutuhan air (FL): 413.0 mm/musim</b><br/><hr/>Luas: 548 m2 = 0.0548 ha<br/>Perkolasi: 7.00e-07 /detik<br/><hr/><b>Kebutuhan air (FL)</b><br/>&nbsp;413 mm = 226.2 m3<br/>&nbsp;Debit tumbuh: 0.037 l/dt<br/>&nbsp;Debit isi (6 jam): 2.06 l/dt<br/>&nbsp;Diameter pintu: 10 cm<br/><hr/><b>Water loss</b><br/>&nbsp;Menguap : 511 mm (78%)<br/>&nbsp;Meresap : 105 mm (16%)<br/>&nbsp;Mengalir: 35 mm (5%)]]></description><styleUrl>#s_PTK-11</styleUrl><Polygon><outerBoundaryIs><LinearRing><coordinates>107.90668297,-7.18262267,0 107.90665926,-7.18263667,0 107.90664100,-7.18266718,0 107.90711965,-7.18276950,0 107.90713239,-7.18274906,0 107.90715025,-7.18272651,0 107.90715532,-7.18270739,0 107.90716933,-7.18268198,0 107.90719040,-7.18266518,0 107.90718963,-7.18265310,0 107.90716458,-7.18263182,0 107.90713056,-7.18262773,0 107.90706759,-7.18263593,0 107.90698336,-7.18263738,0 107.90685623,-7.18264077,0 107.90677409,-7.18263722,0 107.90668297,-7.18262267,0</coordinates></LinearRing></outerBoundaryIs></Polygon></Placemark>
    <Placemark><name>PTK-12</name><description><![CDATA[<b>Kebutuhan air (FL): 432.7 mm/musim</b><br/><hr/>Luas: 784 m2 = 0.0784 ha<br/>Perkolasi: 8.81e-07 /detik<br/><hr/><b>Kebutuhan air (FL)</b><br/>&nbsp;433 mm = 339.4 m3<br/>&nbsp;Debit tumbuh: 0.055 l/dt<br/>&nbsp;Debit isi (6 jam): 2.95 l/dt<br/>&nbsp;Diameter pintu: 12 cm<br/><hr/><b>Water loss</b><br/>&nbsp;Menguap : 511 mm (76%)<br/>&nbsp;Meresap : 130 mm (19%)<br/>&nbsp;Mengalir: 31 mm (5%)]]></description><styleUrl>#s_PTK-12</styleUrl><Polygon><outerBoundaryIs><LinearRing><coordinates>107.90708652,-7.18286473,0 107.90712532,-7.18277093,0 107.90703892,-7.18274940,0 107.90688331,-7.18272037,0 107.90673675,-7.18269127,0 107.90666150,-7.18267946,0 107.90661396,-7.18267509,0 107.90651694,-7.18265432,0 107.90648202,-7.18275233,0 107.90662439,-7.18277940,0 107.90672099,-7.18279626,0 107.90688083,-7.18282656,0 107.90698736,-7.18284626,0 107.90708652,-7.18286473,0</coordinates></LinearRing></outerBoundaryIs></Polygon></Placemark>
    <Placemark><name>PTK-13</name><description><![CDATA[<b>Kebutuhan air (FL): 434.6 mm/musim</b><br/><hr/>Luas: 1,545 m2 = 0.1545 ha<br/>Perkolasi: 9.00e-07 /detik<br/><hr/><b>Kebutuhan air (FL)</b><br/>&nbsp;435 mm = 671.5 m3<br/>&nbsp;Debit tumbuh: 0.109 l/dt<br/>&nbsp;Debit isi (6 jam): 5.82 l/dt<br/>&nbsp;Diameter pintu: 16 cm<br/><hr/><b>Water loss</b><br/>&nbsp;Menguap : 511 mm (76%)<br/>&nbsp;Meresap : 132 mm (20%)<br/>&nbsp;Mengalir: 30 mm (4%)]]></description><styleUrl>#s_PTK-13</styleUrl><Polygon><outerBoundaryIs><LinearRing><coordinates>107.90649031,-7.18276193,0 107.90645104,-7.18292104,0 107.90647506,-7.18294107,0 107.90651510,-7.18294366,0 107.90654330,-7.18295894,0 107.90657341,-7.18296370,0 107.90660059,-7.18296607,0 107.90660774,-7.18297407,0 107.90663335,-7.18297799,0 107.90664302,-7.18297285,0 107.90666609,-7.18297671,0 107.90668074,-7.18297491,0 107.90669419,-7.18298406,0 107.90671098,-7.18298875,0 107.90672213,-7.18298665,0 107.90672518,-7.18299613,0 107.90674614,-7.18300581,0 107.90675796,-7.18300246,0 107.90676324,-7.18301185,0 107.90681695,-7.18304004,0 107.90690666,-7.18307906,0 107.90700268,-7.18311889,0 107.90703739,-7.18313245,0 107.90704316,-7.18312369,0 107.90704145,-7.18310304,0 107.90703457,-7.18304374,0 107.90703447,-7.18302925,0 107.90703944,-7.18301656,0 107.90704955,-7.18300574,0 107.90705999,-7.18299569,0 107.90705867,-7.18298205,0 107.90705631,-7.18296338,0 107.90706205,-7.18294812,0 107.90708079,-7.18289411,0 107.90709016,-7.18285828,0 107.90707496,-7.18286724,0 107.90703470,-7.18286036,0 107.90692660,-7.18283965,0 107.90682015,-7.18281725,0 107.90665371,-7.18278465,0 107.90649031,-7.18276193,0</coordinates></LinearRing></outerBoundaryIs></Polygon></Placemark>
    <Placemark><name>PTK-14</name><description><![CDATA[<b>Kebutuhan air (FL): 426.7 mm/musim</b><br/><hr/>Luas: 1,429 m2 = 0.1429 ha<br/>Perkolasi: 7.93e-07 /detik<br/><hr/><b>Kebutuhan air (FL)</b><br/>&nbsp;427 mm = 610.0 m3<br/>&nbsp;Debit tumbuh: 0.099 l/dt<br/>&nbsp;Debit isi (6 jam): 5.38 l/dt<br/>&nbsp;Diameter pintu: 16 cm<br/><hr/><b>Water loss</b><br/>&nbsp;Menguap : 511 mm (77%)<br/>&nbsp;Meresap : 117 mm (18%)<br/>&nbsp;Mengalir: 37 mm (6%)]]></description><styleUrl>#s_PTK-14</styleUrl><Polygon><outerBoundaryIs><LinearRing><coordinates>107.90706021,-7.18296483,0 107.90706997,-7.18299280,0 107.90712688,-7.18299560,0 107.90718012,-7.18302185,0 107.90726627,-7.18305671,0 107.90733102,-7.18308411,0 107.90739184,-7.18310588,0 107.90743310,-7.18312300,0 107.90745826,-7.18308883,0 107.90747415,-7.18301174,0 107.90749237,-7.18294634,0 107.90750730,-7.18288306,0 107.90748070,-7.18287773,0 107.90741581,-7.18285236,0 107.90736998,-7.18282421,0 107.90733661,-7.18279683,0 107.90731415,-7.18275699,0 107.90729794,-7.18273139,0 107.90727687,-7.18270268,0 107.90724265,-7.18268244,0 107.90721174,-7.18267483,0 107.90719133,-7.18265584,0 107.90717543,-7.18267349,0 107.90716231,-7.18269189,0 107.90715265,-7.18271713,0 107.90713717,-7.18274438,0 107.90712028,-7.18276437,0 107.90712186,-7.18277739,0 107.90711119,-7.18280389,0 107.90709867,-7.18283814,0 107.90707977,-7.18289052,0 107.90706021,-7.18296483,0</coordinates></LinearRing></outerBoundaryIs></Polygon></Placemark>
    <Placemark><name>PTK-15</name><description><![CDATA[<b>Kebutuhan air (FL): 412.1 mm/musim</b><br/><hr/>Luas: 644 m2 = 0.0644 ha<br/>Perkolasi: 6.91e-07 /detik<br/><hr/><b>Kebutuhan air (FL)</b><br/>&nbsp;412 mm = 265.3 m3<br/>&nbsp;Debit tumbuh: 0.043 l/dt<br/>&nbsp;Debit isi (6 jam): 2.42 l/dt<br/>&nbsp;Diameter pintu: 11 cm<br/><hr/><b>Water loss</b><br/>&nbsp;Menguap : 511 mm (79%)<br/>&nbsp;Meresap : 104 mm (16%)<br/>&nbsp;Mengalir: 36 mm (5%)]]></description><styleUrl>#s_PTK-15</styleUrl><Polygon><outerBoundaryIs><LinearRing><coordinates>107.90745363,-7.18313513,0 107.90749514,-7.18315188,0 107.90757113,-7.18317744,0 107.90761205,-7.18319220,0 107.90764057,-7.18312904,0 107.90766494,-7.18304023,0 107.90769732,-7.18293217,0 107.90769602,-7.18292370,0 107.90767772,-7.18291709,0 107.90766571,-7.18290888,0 107.90765637,-7.18289227,0 107.90764313,-7.18287969,0 107.90761080,-7.18287919,0 107.90759100,-7.18287745,0 107.90756265,-7.18287860,0 107.90752351,-7.18287931,0 107.90751364,-7.18288044,0 107.90750676,-7.18290623,0 107.90750108,-7.18294766,0 107.90748664,-7.18298762,0 107.90747561,-7.18302827,0 107.90746572,-7.18307372,0 107.90745363,-7.18313513,0</coordinates></LinearRing></outerBoundaryIs></Polygon></Placemark>
    <Placemark><name>PTK-16</name><description><![CDATA[<b>Kebutuhan air (FL): 454.1 mm/musim</b><br/><hr/>Luas: 655 m2 = 0.0655 ha<br/>Perkolasi: 1.06e-06 /detik<br/><hr/><b>Kebutuhan air (FL)</b><br/>&nbsp;454 mm = 297.4 m3<br/>&nbsp;Debit tumbuh: 0.048 l/dt<br/>&nbsp;Debit isi (6 jam): 2.47 l/dt<br/>&nbsp;Diameter pintu: 11 cm<br/><hr/><b>Water loss</b><br/>&nbsp;Menguap : 511 mm (74%)<br/>&nbsp;Meresap : 156 mm (23%)<br/>&nbsp;Mengalir: 26 mm (4%)]]></description><styleUrl>#s_PTK-16</styleUrl><Polygon><outerBoundaryIs><LinearRing><coordinates>107.90744014,-7.18230681,0 107.90742229,-7.18238091,0 107.90741083,-7.18243880,0 107.90742912,-7.18251146,0 107.90745477,-7.18252213,0 107.90753329,-7.18254353,0 107.90757204,-7.18255796,0 107.90758673,-7.18249712,0 107.90761697,-7.18239798,0 107.90764008,-7.18232807,0 107.90766036,-7.18227576,0 107.90762459,-7.18226753,0 107.90756378,-7.18225591,0 107.90751179,-7.18224537,0 107.90746118,-7.18223370,0 107.90744014,-7.18230681,0</coordinates></LinearRing></outerBoundaryIs></Polygon></Placemark>
    <Placemark><name>PTK-17</name><description><![CDATA[<b>Kebutuhan air (FL): 509.3 mm/musim</b><br/><hr/>Luas: 1,195 m2 = 0.1195 ha<br/>Perkolasi: 1.45e-06 /detik<br/><hr/><b>Kebutuhan air (FL)</b><br/>&nbsp;509 mm = 608.4 m3<br/>&nbsp;Debit tumbuh: 0.098 l/dt<br/>&nbsp;Debit isi (6 jam): 4.51 l/dt<br/>&nbsp;Diameter pintu: 14 cm<br/><hr/><b>Water loss</b><br/>&nbsp;Menguap : 511 mm (68%)<br/>&nbsp;Meresap : 211 mm (28%)<br/>&nbsp;Mengalir: 27 mm (4%)]]></description><styleUrl>#s_PTK-17</styleUrl><Polygon><outerBoundaryIs><LinearRing><coordinates>107.90761131,-7.18256910,0 107.90768976,-7.18258876,0 107.90778582,-7.18261621,0 107.90788494,-7.18264749,0 107.90791545,-7.18265173,0 107.90792070,-7.18262458,0 107.90791853,-7.18260982,0 107.90791188,-7.18260090,0 107.90791342,-7.18257709,0 107.90791955,-7.18252601,0 107.90792474,-7.18247532,0 107.90793185,-7.18241734,0 107.90794118,-7.18234850,0 107.90794842,-7.18230758,0 107.90792826,-7.18231182,0 107.90787982,-7.18231791,0 107.90783782,-7.18231744,0 107.90777964,-7.18230772,0 107.90769449,-7.18228771,0 107.90765497,-7.18228573,0 107.90763829,-7.18233930,0 107.90761272,-7.18241537,0 107.90759022,-7.18247889,0 107.90758601,-7.18250259,0 107.90757961,-7.18253384,0 107.90757007,-7.18256043,0 107.90761131,-7.18256910,0</coordinates></LinearRing></outerBoundaryIs></Polygon></Placemark>
    <Placemark><name>PTK-18</name><description><![CDATA[<b>Kebutuhan air (FL): 453.9 mm/musim</b><br/><hr/>Luas: 820 m2 = 0.0820 ha<br/>Perkolasi: 1.06e-06 /detik<br/><hr/><b>Kebutuhan air (FL)</b><br/>&nbsp;454 mm = 372.2 m3<br/>&nbsp;Debit tumbuh: 0.060 l/dt<br/>&nbsp;Debit isi (6 jam): 3.09 l/dt<br/>&nbsp;Diameter pintu: 12 cm<br/><hr/><b>Water loss</b><br/>&nbsp;Menguap : 511 mm (74%)<br/>&nbsp;Meresap : 156 mm (22%)<br/>&nbsp;Mengalir: 26 mm (4%)]]></description><styleUrl>#s_PTK-18</styleUrl><Polygon><outerBoundaryIs><LinearRing><coordinates>107.90794630,-7.18230466,0 107.90793554,-7.18240960,0 107.90792057,-7.18250508,0 107.90790877,-7.18260398,0 107.90790188,-7.18264791,0 107.90792212,-7.18265524,0 107.90798395,-7.18266384,0 107.90802732,-7.18266782,0 107.90805649,-7.18266929,0 107.90809060,-7.18267575,0 107.90811929,-7.18267644,0 107.90813528,-7.18267675,0 107.90813035,-7.18264267,0 107.90812505,-7.18258229,0 107.90810974,-7.18246233,0 107.90809923,-7.18239178,0 107.90809808,-7.18236891,0 107.90810146,-7.18234744,0 107.90807850,-7.18233675,0 107.90807869,-7.18232060,0 107.90807089,-7.18231339,0 107.90804392,-7.18231112,0 107.90800191,-7.18230600,0 107.90794630,-7.18230466,0</coordinates></LinearRing></outerBoundaryIs></Polygon></Placemark>
    <Placemark><name>PTK-19</name><description><![CDATA[<b>Kebutuhan air (FL): 473.8 mm/musim</b><br/><hr/>Luas: 842 m2 = 0.0842 ha<br/>Perkolasi: 1.16e-06 /detik<br/><hr/><b>Kebutuhan air (FL)</b><br/>&nbsp;474 mm = 398.7 m3<br/>&nbsp;Debit tumbuh: 0.065 l/dt<br/>&nbsp;Debit isi (6 jam): 3.17 l/dt<br/>&nbsp;Diameter pintu: 12 cm<br/><hr/><b>Water loss</b><br/>&nbsp;Menguap : 511 mm (72%)<br/>&nbsp;Meresap : 171 mm (24%)<br/>&nbsp;Mengalir: 31 mm (4%)]]></description><styleUrl>#s_PTK-19</styleUrl><Polygon><outerBoundaryIs><LinearRing><coordinates>107.90812842,-7.18231267,0 107.90810737,-7.18236677,0 107.90811893,-7.18247905,0 107.90813295,-7.18260261,0 107.90813885,-7.18263943,0 107.90814856,-7.18264748,0 107.90815104,-7.18266186,0 107.90815520,-7.18268349,0 107.90815814,-7.18268886,0 107.90817485,-7.18269176,0 107.90819767,-7.18269487,0 107.90821789,-7.18269982,0 107.90824654,-7.18270270,0 107.90826532,-7.18270311,0 107.90827404,-7.18269906,0 107.90827753,-7.18269351,0 107.90828133,-7.18267608,0 107.90828984,-7.18262234,0 107.90830006,-7.18256518,0 107.90831124,-7.18252489,0 107.90832252,-7.18246613,0 107.90833180,-7.18242108,0 107.90832823,-7.18240616,0 107.90831258,-7.18236605,0 107.90830233,-7.18233672,0 107.90829873,-7.18231450,0 107.90826741,-7.18231502,0 107.90821922,-7.18231815,0 107.90817471,-7.18231576,0 107.90812842,-7.18231267,0</coordinates></LinearRing></outerBoundaryIs></Polygon></Placemark>
    <Placemark><name>PTK-20</name><description><![CDATA[<b>Kebutuhan air (FL): 412.1 mm/musim</b><br/><hr/>Luas: 2,136 m2 = 0.2136 ha<br/>Perkolasi: 6.91e-07 /detik<br/><hr/><b>Kebutuhan air (FL)</b><br/>&nbsp;412 mm = 880.3 m3<br/>&nbsp;Debit tumbuh: 0.142 l/dt<br/>&nbsp;Debit isi (6 jam): 8.04 l/dt<br/>&nbsp;Diameter pintu: 19 cm<br/><hr/><b>Water loss</b><br/>&nbsp;Menguap : 511 mm (79%)<br/>&nbsp;Meresap : 104 mm (16%)<br/>&nbsp;Mengalir: 36 mm (5%)]]></description><styleUrl>#s_PTK-20</styleUrl><Polygon><outerBoundaryIs><LinearRing><coordinates>107.90834567,-7.18241371,0 107.90831904,-7.18252478,0 107.90830238,-7.18261669,0 107.90828771,-7.18270380,0 107.90830368,-7.18272369,0 107.90839834,-7.18274454,0 107.90851453,-7.18277511,0 107.90862522,-7.18279448,0 107.90871324,-7.18281397,0 107.90878938,-7.18283072,0 107.90881533,-7.18272306,0 107.90882795,-7.18265322,0 107.90884021,-7.18258731,0 107.90884668,-7.18254245,0 107.90885478,-7.18248814,0 107.90880155,-7.18248468,0 107.90868529,-7.18245693,0 107.90854910,-7.18243232,0 107.90848710,-7.18242451,0 107.90839038,-7.18241911,0 107.90834567,-7.18241371,0</coordinates></LinearRing></outerBoundaryIs></Polygon></Placemark>
    <Placemark><name>PTK-21</name><description><![CDATA[<b>Kebutuhan air (FL): 398.3 mm/musim</b><br/><hr/>Luas: 861 m2 = 0.0861 ha<br/>Perkolasi: 5.15e-07 /detik<br/><hr/><b>Kebutuhan air (FL)</b><br/>&nbsp;398 mm = 342.8 m3<br/>&nbsp;Debit tumbuh: 0.055 l/dt<br/>&nbsp;Debit isi (6 jam): 3.23 l/dt<br/>&nbsp;Diameter pintu: 12 cm<br/><hr/><b>Water loss</b><br/>&nbsp;Menguap : 511 mm (81%)<br/>&nbsp;Meresap : 78 mm (12%)<br/>&nbsp;Mengalir: 41 mm (6%)]]></description><styleUrl>#s_PTK-21</styleUrl><Polygon><outerBoundaryIs><LinearRing><coordinates>107.90885723,-7.18249142,0 107.90884995,-7.18253320,0 107.90883696,-7.18261277,0 107.90882733,-7.18266877,0 107.90880865,-7.18275282,0 107.90879128,-7.18282917,0 107.90885776,-7.18284256,0 107.90889782,-7.18285520,0 107.90894787,-7.18286457,0 107.90897894,-7.18286747,0 107.90899105,-7.18285744,0 107.90899586,-7.18283932,0 107.90900120,-7.18279976,0 107.90901402,-7.18273544,0 107.90903094,-7.18265580,0 107.90904984,-7.18253954,0 107.90905345,-7.18250981,0 107.90899849,-7.18250643,0 107.90885723,-7.18249142,0</coordinates></LinearRing></outerBoundaryIs></Polygon></Placemark>
    <Placemark><name>PTK-22</name><description><![CDATA[<b>Kebutuhan air (FL): 440.3 mm/musim</b><br/><hr/>Luas: 798 m2 = 0.0798 ha<br/>Perkolasi: 9.38e-07 /detik<br/><hr/><b>Kebutuhan air (FL)</b><br/>&nbsp;440 mm = 351.6 m3<br/>&nbsp;Debit tumbuh: 0.057 l/dt<br/>&nbsp;Debit isi (6 jam): 3.01 l/dt<br/>&nbsp;Diameter pintu: 12 cm<br/><hr/><b>Water loss</b><br/>&nbsp;Menguap : 511 mm (75%)<br/>&nbsp;Meresap : 139 mm (20%)<br/>&nbsp;Mengalir: 29 mm (4%)]]></description><styleUrl>#s_PTK-22</styleUrl><Polygon><outerBoundaryIs><LinearRing><coordinates>107.90851432,-7.18277840,0 107.90842105,-7.18275300,0 107.90831836,-7.18273023,0 107.90825970,-7.18271214,0 107.90817232,-7.18269289,0 107.90814434,-7.18268878,0 107.90814768,-7.18271930,0 107.90816270,-7.18274665,0 107.90819566,-7.18279019,0 107.90825814,-7.18287489,0 107.90828444,-7.18290817,0 107.90834033,-7.18298216,0 107.90838435,-7.18304722,0 107.90840711,-7.18307321,0 107.90841344,-7.18307457,0 107.90841925,-7.18306845,0 107.90842789,-7.18304663,0 107.90843744,-7.18301183,0 107.90845745,-7.18293636,0 107.90847782,-7.18288224,0 107.90849446,-7.18282807,0 107.90851432,-7.18277840,0</coordinates></LinearRing></outerBoundaryIs></Polygon></Placemark>
    <Placemark><name>PTK-23</name><description><![CDATA[<b>Kebutuhan air (FL): 431.0 mm/musim</b><br/><hr/>Luas: 1,483 m2 = 0.1483 ha<br/>Perkolasi: 8.63e-07 /detik<br/><hr/><b>Kebutuhan air (FL)</b><br/>&nbsp;431 mm = 639.1 m3<br/>&nbsp;Debit tumbuh: 0.103 l/dt<br/>&nbsp;Debit isi (6 jam): 5.58 l/dt<br/>&nbsp;Diameter pintu: 16 cm<br/><hr/><b>Water loss</b><br/>&nbsp;Menguap : 511 mm (76%)<br/>&nbsp;Meresap : 128 mm (19%)<br/>&nbsp;Mengalir: 31 mm (5%)]]></description><styleUrl>#s_PTK-23</styleUrl><Polygon><outerBoundaryIs><LinearRing><coordinates>107.90841812,-7.18308249,0 107.90845821,-7.18315549,0 107.90849300,-7.18320013,0 107.90850649,-7.18320610,0 107.90852600,-7.18322066,0 107.90853849,-7.18324022,0 107.90854976,-7.18325386,0 107.90855554,-7.18326219,0 107.90856767,-7.18325807,0 107.90858618,-7.18323719,0 107.90859587,-7.18320642,0 107.90861710,-7.18318975,0 107.90865002,-7.18316768,0 107.90867908,-7.18316067,0 107.90872952,-7.18314201,0 107.90875494,-7.18313610,0 107.90876289,-7.18311726,0 107.90876498,-7.18306275,0 107.90877002,-7.18301678,0 107.90877191,-7.18299154,0 107.90877397,-7.18295239,0 107.90877294,-7.18293017,0 107.90877901,-7.18289839,0 107.90878266,-7.18286321,0 107.90878719,-7.18283236,0 107.90876809,-7.18282706,0 107.90873240,-7.18282130,0 107.90868555,-7.18280748,0 107.90863536,-7.18280214,0 107.90856730,-7.18278631,0 107.90851119,-7.18277475,0 107.90850286,-7.18280481,0 107.90849143,-7.18284107,0 107.90847558,-7.18288937,0 107.90845831,-7.18295749,0 107.90844297,-7.18300579,0 107.90843040,-7.18304856,0 107.90841812,-7.18308249,0</coordinates></LinearRing></outerBoundaryIs></Polygon></Placemark>
  </Document>
</kml>
