<?xml version="1.0" encoding="UTF-8"?>
<kml xmlns="http://www.opengis.net/kml/2.2"><Document><name>Leuwigoong</name><description><![CDATA[Jaringan &amp; bangunan D.I. Leuwigoong dari SISDA — tanpa petak terukur. Keluaran notebook None. 0 objek, 0,00 ha. Warna mengikuti Luas (ha). tanpa petak terukur — petak baku SISDA dibuang karena 415 dari 886 petaknya (2.330 ha, 46,8%) bertindihan dengan DI kewenangan Kab. Garut dari layanan yang sama; yang tersaji di sini letak jaringan, bangunan, dan kewenangan.]]></description><Style id='w0'><LineStyle><color>ffa57f41</color><width>1.2</width></LineStyle><PolyStyle><color>b4fbf7ee</color></PolyStyle></Style><Style id='g0'><LineStyle><color>fffbf7ee</color><width>3</width></LineStyle></Style><Style id='w1'><LineStyle><color>ffa57f41</color><width>1.2</width></LineStyle><PolyStyle><color>b4f4e9d5</color></PolyStyle></Style><Style id='g1'><LineStyle><color>fff4e9d5</color><width>3</width></LineStyle></Style><Style id='w2'><LineStyle><color>ffa57f41</color><width>1.2</width></LineStyle><PolyStyle><color>b4e9d5b3</color></PolyStyle></Style><Style id='g2'><LineStyle><color>ffe9d5b3</color><width>3</width></LineStyle></Style><Style id='w3'><LineStyle><color>ffa57f41</color><width>1.2</width></LineStyle><PolyStyle><color>b4dbbc8d</color></PolyStyle></Style><Style id='g3'><LineStyle><color>ffdbbc8d</color><width>3</width></LineStyle></Style><Style id='w4'><LineStyle><color>ffa57f41</color><width>1.2</width></LineStyle><PolyStyle><color>b4c9a368</color></PolyStyle></Style><Style id='g4'><LineStyle><color>ffc9a368</color><width>3</width></LineStyle></Style><Style id='w5'><LineStyle><color>ffa57f41</color><width>1.2</width></LineStyle><PolyStyle><color>b4a57f41</color></PolyStyle></Style><Style id='g5'><LineStyle><color>ffa57f41</color><width>3</width></LineStyle></Style></Document></kml>