{"type": "FeatureCollection", "features": [{"type": "Feature", "id": "Bendung.22", "geometry": {"type": "Point", "coordinates": [107.9114, -7.1883]}, "geometry_name": "geom", "properties": {"objectid": 22, "nama_bendung": "Copong", "unit_kerja___balai__pengelola_": "BALAI BESAR WILAYAH SUNGAI CIMANUK CISANGGARUNG", "wilayah_sungai": "CIMANUK-CISANGGARUNG", "daerah_aliran_sungai": "CIMANUK", "luas_daerah_aliran_sungai__km2_": "3739.657", "kewenangan": "Pusat", "lintas_kewenangan": "Dalam Kabupaten / Kota", "status_bangunan": "Sudah Terbangun", "tahun_mulai_pembangunan": "2010", "tahun_selesai_pembangunan": "2014", "tagging_project": null, "kondisi_bangunan": "Baik / Beroperasi", "status_operasi": "Beroperasi", "status_op": "Sudah", "di_op_kan_oleh": "Pusat", "tanggal_mulai_beroperasi": null, "deskripsi_aset": "-", "status_data": "Tidak Terkunci", "status_verifikasi": "Tidak Terverifikasi", "provinsi": "JAWA BARAT", "kabupaten___kota": "KAB. GARUT", "kecamatan": "Banyuresmi", "kelurahan": "Sukasenang", "latitude": -7.18833, "longitude": 107.91142, "keterangan_lokasi": "Lokasi sudah sesuai dengan titik kordinat tertera.", "nama_sungai": "CIMANUK", "type_bendung": "Gerak", "elevasi_mercu__mdpl_": "692.5", "tinggi_bendung__m_": "3.6", "panjang_mercu_bendung__m_": "50", "elevasi_muka_air_banjir__mab___mdpl_": "691.25", "jumlah_intake": "3", "dimensi_intake_kiri__m_": "3 m x 1.15 m", "elevasi_dasar_intake_kiri__mdpl_": "690.75", "debit_rencana_kiri__m3_detik_": "2.31", "luas_layanan_rencana_kiri__ha_": "5313", "dimensi_intake_kanan__m_": "-", "elevasi_dasar_intake_kanan__mdpl_": "-", "debit_rencana_kanan__m3_detik_": "-", "luas_layanan_rencana_kanan__ha_": "-", "dimensi_pintu_kiri__m_": "-", "dimensi_pintu_kanan__m_": "3 m x 4 m", "panjang_kantong_lumpur_kiri__m_": "185", "tipe_sistem_pengeluaran_sedimen_kiri": null, "durasi_pengoperasian_kiri__hari_": "-", "panjang_kantong_lumpur_kanan__m_": "-", "tipe_sistem_pengeluaran_sedimen_kanan": null, "durasi_pengoperasian_kanan__hari_": "-", "curah_hujan_rata_rata_tahunan__mm_tahun_": "1.514", "q80__m3_detik_": "-", "type_peredam_energi": "-", "elevasi_tanggul_hulu__mdpl_": "693.3", "elevasi_tanggul_hilir__mdpl_": "690.653", "kabupaten_kota": "KAB. GARUT", "luas_layanan_baku__ha_": "5313", "kabupaten_kota1": null, "luas_layanan_potensial__ha_": "-", "kabupaten_kota2": null, "luas_layanan_fungsional__ha_": "-", "penyediaan_air_baku__liter_detik_": "-"}, "bbox": [107.9114, -7.1883, 107.9114, -7.1883]}], "totalFeatures": 1, "numberMatched": 1, "numberReturned": 1, "timeStamp": "2026-08-14T02:31:59.718Z", "crs": {"type": "name", "properties": {"name": "urn:ogc:def:crs:EPSG::4326"}}, "bbox": [107.9114, -7.1883, 107.9114, -7.1883]}